{
  "type": "FeatureCollection",
  "name": "fig2_undirected_Pperuviana_20km_10steps_10reps_municipalities_network_v2_nodes",
  "crs": {
    "type": "name",
    "properties": {
      "name": "urn:ogc:def:crs:OGC:1.3:CRS84"
    }
  },
  "features": [
    {
      "type": "Feature",
      "properties": {
        "id": "ITUANGO",
        "label": "ITUANGO",
        "code": "5361",
        "community": 10,
        "pagerank": 0.008712956652626442,
        "weight": 0.8712956652626441,
        "size": 871.2956652626442,
        "color_r": 68,
        "color_g": 1,
        "color_b": 84,
        "color_a": 1.0
      },
      "geometry": {
        "type": "Point",
        "coordinates": [
          -75.764673,
          7.171629
        ]
      }
    },
    {
      "type": "Feature",
      "properties": {
        "id": "TARAZÁ",
        "label": "TARAZÁ",
        "code": "5790",
        "community": 12,
        "pagerank": 0.007306745500218151,
        "weight": 0.730674550021815,
        "size": 730.6745500218151,
        "color_r": 59,
        "color_g": 82,
        "color_b": 139,
        "color_a": 1.0
      },
      "geometry": {
        "type": "Point",
        "coordinates": [
          -75.401407,
          7.580127
        ]
      }
    },
    {
      "type": "Feature",
      "properties": {
        "id": "VALDIVIA",
        "label": "VALDIVIA",
        "code": "5854",
        "community": 9,
        "pagerank": 0.00522061137060446,
        "weight": 0.522061137060446,
        "size": 522.0611370604461,
        "color_r": 253,
        "color_g": 231,
        "color_b": 37,
        "color_a": 1.0
      },
      "geometry": {
        "type": "Point",
        "coordinates": [
          -75.439274,
          7.1652
        ]
      }
    },
    {
      "type": "Feature",
      "properties": {
        "id": "BRICEÑO",
        "label": "BRICEÑO",
        "code": "5107",
        "community": 9,
        "pagerank": 0.007797391573311055,
        "weight": 0.7797391573311054,
        "size": 779.7391573311055,
        "color_r": 253,
        "color_g": 231,
        "color_b": 37,
        "color_a": 1.0
      },
      "geometry": {
        "type": "Point",
        "coordinates": [
          -75.55036,
          7.112803
        ]
      }
    },
    {
      "type": "Feature",
      "properties": {
        "id": "YARUMAL",
        "label": "YARUMAL",
        "code": "5887",
        "community": 9,
        "pagerank": 0.008617908411045061,
        "weight": 0.8617908411045061,
        "size": 861.7908411045062,
        "color_r": 253,
        "color_g": 231,
        "color_b": 37,
        "color_a": 1.0
      },
      "geometry": {
        "type": "Point",
        "coordinates": [
          -75.418828,
          6.963832
        ]
      }
    },
    {
      "type": "Feature",
      "properties": {
        "id": "TOLEDO",
        "label": "TOLEDO",
        "code": "5819",
        "community": 3,
        "pagerank": 0.0055172896360573855,
        "weight": 0.5517289636057385,
        "size": 551.7289636057385,
        "color_r": 59,
        "color_g": 82,
        "color_b": 139,
        "color_a": 1.0
      },
      "geometry": {
        "type": "Point",
        "coordinates": [
          -75.692281,
          7.010328
        ]
      }
    },
    {
      "type": "Feature",
      "properties": {
        "id": "PEQUE",
        "label": "PEQUE",
        "code": "5543",
        "community": 2,
        "pagerank": 0.005183409880356676,
        "weight": 0.5183409880356676,
        "size": 518.3409880356677,
        "color_r": 71,
        "color_g": 45,
        "color_b": 123,
        "color_a": 1.0
      },
      "geometry": {
        "type": "Point",
        "coordinates": [
          -75.910357,
          7.021029
        ]
      }
    },
    {
      "type": "Feature",
      "properties": {
        "id": "MUTATÁ",
        "label": "MUTATÁ",
        "code": "5480",
        "community": 10,
        "pagerank": 0.003908626794546614,
        "weight": 0.39086267945466147,
        "size": 390.8626794546614,
        "color_r": 68,
        "color_g": 1,
        "color_b": 84,
        "color_a": 1.0
      },
      "geometry": {
        "type": "Point",
        "coordinates": [
          -76.435875,
          7.242875
        ]
      }
    },
    {
      "type": "Feature",
      "properties": {
        "id": "DABEIBA",
        "label": "DABEIBA",
        "code": "5234",
        "community": 2,
        "pagerank": 0.0068210899408910845,
        "weight": 0.6821089940891084,
        "size": 682.1089940891085,
        "color_r": 71,
        "color_g": 45,
        "color_b": 123,
        "color_a": 1.0
      },
      "geometry": {
        "type": "Point",
        "coordinates": [
          -76.261614,
          6.998112
        ]
      }
    },
    {
      "type": "Feature",
      "properties": {
        "id": "CAMPAMENTO",
        "label": "CAMPAMENTO",
        "code": "5134",
        "community": 3,
        "pagerank": 0.008199310158631484,
        "weight": 0.8199310158631484,
        "size": 819.9310158631484,
        "color_r": 59,
        "color_g": 82,
        "color_b": 139,
        "color_a": 1.0
      },
      "geometry": {
        "type": "Point",
        "coordinates": [
          -75.298091,
          6.979771
        ]
      }
    },
    {
      "type": "Feature",
      "properties": {
        "id": "SAN ANDRÉS DE CUERQUÍA",
        "label": "SAN ANDRÉS DE CUERQUÍA",
        "code": "5647",
        "community": 3,
        "pagerank": 0.009070877454952612,
        "weight": 0.9070877454952612,
        "size": 907.0877454952612,
        "color_r": 59,
        "color_g": 82,
        "color_b": 139,
        "color_a": 1.0
      },
      "geometry": {
        "type": "Point",
        "coordinates": [
          -75.674564,
          6.916676
        ]
      }
    },
    {
      "type": "Feature",
      "properties": {
        "id": "SABANALARGA",
        "label": "SABANALARGA",
        "code": "5628",
        "community": 3,
        "pagerank": 0.0066765045584420485,
        "weight": 0.6676504558442048,
        "size": 667.6504558442049,
        "color_r": 59,
        "color_g": 82,
        "color_b": 139,
        "color_a": 1.0
      },
      "geometry": {
        "type": "Point",
        "coordinates": [
          -75.816645,
          6.850028
        ]
      }
    },
    {
      "type": "Feature",
      "properties": {
        "id": "BURITICÁ",
        "label": "BURITICÁ",
        "code": "5113",
        "community": 2,
        "pagerank": 0.009202336086424862,
        "weight": 0.9202336086424863,
        "size": 920.2336086424863,
        "color_r": 71,
        "color_g": 45,
        "color_b": 123,
        "color_a": 1.0
      },
      "geometry": {
        "type": "Point",
        "coordinates": [
          -75.907,
          6.720759
        ]
      }
    },
    {
      "type": "Feature",
      "properties": {
        "id": "URAMITA",
        "label": "URAMITA",
        "code": "5842",
        "community": 2,
        "pagerank": 0.004625877643277126,
        "weight": 0.46258776432771254,
        "size": 462.58776432771253,
        "color_r": 71,
        "color_g": 45,
        "color_b": 123,
        "color_a": 1.0
      },
      "geometry": {
        "type": "Point",
        "coordinates": [
          -76.173284,
          6.898393
        ]
      }
    },
    {
      "type": "Feature",
      "properties": {
        "id": "CHIGORODÓ",
        "label": "CHIGORODÓ",
        "code": "5172",
        "community": 100,
        "pagerank": 0.011529131652433659,
        "weight": 1.152913165243366,
        "size": 1152.913165243366,
        "color_r": 44,
        "color_g": 114,
        "color_b": 142,
        "color_a": 1.0
      },
      "geometry": {
        "type": "Point",
        "coordinates": [
          -76.681531,
          7.666147
        ]
      }
    },
    {
      "type": "Feature",
      "properties": {
        "id": "CAÑASGORDAS",
        "label": "CAÑASGORDAS",
        "code": "5138",
        "community": 2,
        "pagerank": 0.00811527596808842,
        "weight": 0.811527596808842,
        "size": 811.527596808842,
        "color_r": 71,
        "color_g": 45,
        "color_b": 123,
        "color_a": 1.0
      },
      "geometry": {
        "type": "Point",
        "coordinates": [
          -76.028228,
          6.753859
        ]
      }
    },
    {
      "type": "Feature",
      "properties": {
        "id": "SAN JOSÉ DE LA MONTAÑA",
        "label": "SAN JOSÉ DE LA MONTAÑA",
        "code": "5658",
        "community": 3,
        "pagerank": 0.008447718218232352,
        "weight": 0.8447718218232352,
        "size": 844.7718218232352,
        "color_r": 59,
        "color_g": 82,
        "color_b": 139,
        "color_a": 1.0
      },
      "geometry": {
        "type": "Point",
        "coordinates": [
          -75.683352,
          6.85009
        ]
      }
    },
    {
      "type": "Feature",
      "properties": {
        "id": "FRONTINO",
        "label": "FRONTINO",
        "code": "5284",
        "community": 2,
        "pagerank": 0.011979623960689077,
        "weight": 1.1979623960689076,
        "size": 1197.9623960689078,
        "color_r": 71,
        "color_g": 45,
        "color_b": 123,
        "color_a": 1.0
      },
      "geometry": {
        "type": "Point",
        "coordinates": [
          -76.130765,
          6.776066
        ]
      }
    },
    {
      "type": "Feature",
      "properties": {
        "id": "SANTA ROSA DE OSOS",
        "label": "SANTA ROSA DE OSOS",
        "code": "5686",
        "community": 3,
        "pagerank": 0.01546070403388696,
        "weight": 1.546070403388696,
        "size": 1546.070403388696,
        "color_r": 59,
        "color_g": 82,
        "color_b": 139,
        "color_a": 1.0
      },
      "geometry": {
        "type": "Point",
        "coordinates": [
          -75.460723,
          6.643366
        ]
      }
    },
    {
      "type": "Feature",
      "properties": {
        "id": "LIBORINA",
        "label": "LIBORINA",
        "code": "5411",
        "community": 3,
        "pagerank": 0.0061542979468948225,
        "weight": 0.6154297946894822,
        "size": 615.4297946894823,
        "color_r": 59,
        "color_g": 82,
        "color_b": 139,
        "color_a": 1.0
      },
      "geometry": {
        "type": "Point",
        "coordinates": [
          -75.812838,
          6.677316
        ]
      }
    },
    {
      "type": "Feature",
      "properties": {
        "id": "BELMIRA",
        "label": "BELMIRA",
        "code": "5086",
        "community": 7,
        "pagerank": 0.012984126328403938,
        "weight": 1.2984126328403938,
        "size": 1298.4126328403938,
        "color_r": 93,
        "color_g": 200,
        "color_b": 99,
        "color_a": 1.0
      },
      "geometry": {
        "type": "Point",
        "coordinates": [
          -75.667779,
          6.606319
        ]
      }
    },
    {
      "type": "Feature",
      "properties": {
        "id": "ANGOSTURA",
        "label": "ANGOSTURA",
        "code": "5038",
        "community": 3,
        "pagerank": 0.011496367756313724,
        "weight": 1.1496367756313723,
        "size": 1149.6367756313723,
        "color_r": 59,
        "color_g": 82,
        "color_b": 139,
        "color_a": 1.0
      },
      "geometry": {
        "type": "Point",
        "coordinates": [
          -75.335116,
          6.885175
        ]
      }
    },
    {
      "type": "Feature",
      "properties": {
        "id": "ENTRERRÍOS",
        "label": "ENTRERRÍOS",
        "code": "5264",
        "community": 7,
        "pagerank": 0.008446914452120702,
        "weight": 0.8446914452120702,
        "size": 844.6914452120702,
        "color_r": 93,
        "color_g": 200,
        "color_b": 99,
        "color_a": 1.0
      },
      "geometry": {
        "type": "Point",
        "coordinates": [
          -75.517685,
          6.566273
        ]
      }
    },
    {
      "type": "Feature",
      "properties": {
        "id": "OLAYA",
        "label": "OLAYA",
        "code": "5501",
        "community": 3,
        "pagerank": 0.007184424366249705,
        "weight": 0.7184424366249705,
        "size": 718.4424366249705,
        "color_r": 59,
        "color_g": 82,
        "color_b": 139,
        "color_a": 1.0
      },
      "geometry": {
        "type": "Point",
        "coordinates": [
          -75.811773,
          6.626492
        ]
      }
    },
    {
      "type": "Feature",
      "properties": {
        "id": "GUADALUPE",
        "label": "GUADALUPE",
        "code": "5315",
        "community": 3,
        "pagerank": 0.006097438731566492,
        "weight": 0.6097438731566491,
        "size": 609.7438731566491,
        "color_r": 59,
        "color_g": 82,
        "color_b": 139,
        "color_a": 1.0
      },
      "geometry": {
        "type": "Point",
        "coordinates": [
          -75.239862,
          6.815069
        ]
      }
    },
    {
      "type": "Feature",
      "properties": {
        "id": "ANORÍ",
        "label": "ANORÍ",
        "code": "5040",
        "community": 3,
        "pagerank": 0.01303697554334942,
        "weight": 1.303697554334942,
        "size": 1303.697554334942,
        "color_r": 59,
        "color_g": 82,
        "color_b": 139,
        "color_a": 1.0
      },
      "geometry": {
        "type": "Point",
        "coordinates": [
          -75.148355,
          7.074703
        ]
      }
    },
    {
      "type": "Feature",
      "properties": {
        "id": "CAROLINA",
        "label": "CAROLINA",
        "code": "5150",
        "community": 3,
        "pagerank": 0.009677760650530005,
        "weight": 0.9677760650530005,
        "size": 967.7760650530006,
        "color_r": 59,
        "color_g": 82,
        "color_b": 139,
        "color_a": 1.0
      },
      "geometry": {
        "type": "Point",
        "coordinates": [
          -75.283192,
          6.725995
        ]
      }
    },
    {
      "type": "Feature",
      "properties": {
        "id": "SOPETRÁN",
        "label": "SOPETRÁN",
        "code": "5761",
        "community": 3,
        "pagerank": 0.010027972441445,
        "weight": 1.0027972441444999,
        "size": 1002.7972441445,
        "color_r": 59,
        "color_g": 82,
        "color_b": 139,
        "color_a": 1.0
      },
      "geometry": {
        "type": "Point",
        "coordinates": [
          -75.747378,
          6.500745
        ]
      }
    },
    {
      "type": "Feature",
      "properties": {
        "id": "SAN PEDRO DE LOS MILAGROS",
        "label": "SAN PEDRO DE LOS MILAGROS",
        "code": "5664",
        "community": 7,
        "pagerank": 0.008858833278557923,
        "weight": 0.8858833278557923,
        "size": 885.8833278557923,
        "color_r": 93,
        "color_g": 200,
        "color_b": 99,
        "color_a": 1.0
      },
      "geometry": {
        "type": "Point",
        "coordinates": [
          -75.556743,
          6.46012
        ]
      }
    },
    {
      "type": "Feature",
      "properties": {
        "id": "DONMATÍAS",
        "label": "DONMATÍAS",
        "code": "5237",
        "community": 7,
        "pagerank": 0.011404496869290622,
        "weight": 1.1404496869290621,
        "size": 1140.4496869290622,
        "color_r": 93,
        "color_g": 200,
        "color_b": 99,
        "color_a": 1.0
      },
      "geometry": {
        "type": "Point",
        "coordinates": [
          -75.39263,
          6.485603
        ]
      }
    },
    {
      "type": "Feature",
      "properties": {
        "id": "SAN JERÓNIMO",
        "label": "SAN JERÓNIMO",
        "code": "5656",
        "community": 4,
        "pagerank": 0.007914649289649897,
        "weight": 0.7914649289649898,
        "size": 791.4649289649897,
        "color_r": 44,
        "color_g": 114,
        "color_b": 142,
        "color_a": 1.0
      },
      "geometry": {
        "type": "Point",
        "coordinates": [
          -75.726975,
          6.44809
        ]
      }
    },
    {
      "type": "Feature",
      "properties": {
        "id": "COPACABANA",
        "label": "COPACABANA",
        "code": "5212",
        "community": 4,
        "pagerank": 0.008767084454219372,
        "weight": 0.8767084454219372,
        "size": 876.7084454219372,
        "color_r": 44,
        "color_g": 114,
        "color_b": 142,
        "color_a": 1.0
      },
      "geometry": {
        "type": "Point",
        "coordinates": [
          -75.509384,
          6.348557
        ]
      }
    },
    {
      "type": "Feature",
      "properties": {
        "id": "BELLO",
        "label": "BELLO",
        "code": "5088",
        "community": 4,
        "pagerank": 0.0098566166930394,
        "weight": 0.9856616693039401,
        "size": 985.66166930394,
        "color_r": 44,
        "color_g": 114,
        "color_b": 142,
        "color_a": 1.0
      },
      "geometry": {
        "type": "Point",
        "coordinates": [
          -75.555245,
          6.333587
        ]
      }
    },
    {
      "type": "Feature",
      "properties": {
        "id": "GIRARDOTA",
        "label": "GIRARDOTA",
        "code": "5308",
        "community": 1,
        "pagerank": 0.007603836814565059,
        "weight": 0.7603836814565059,
        "size": 760.3836814565059,
        "color_r": 68,
        "color_g": 1,
        "color_b": 84,
        "color_a": 1.0
      },
      "geometry": {
        "type": "Point",
        "coordinates": [
          -75.444238,
          6.379472
        ]
      }
    },
    {
      "type": "Feature",
      "properties": {
        "id": "BARBOSA",
        "label": "BARBOSA",
        "code": "5079",
        "community": 1,
        "pagerank": 0.009835127422317411,
        "weight": 0.9835127422317411,
        "size": 983.5127422317411,
        "color_r": 68,
        "color_g": 1,
        "color_b": 84,
        "color_a": 1.0
      },
      "geometry": {
        "type": "Point",
        "coordinates": [
          -75.331627,
          6.439195
        ]
      }
    },
    {
      "type": "Feature",
      "properties": {
        "id": "AMALFI",
        "label": "AMALFI",
        "code": "5031",
        "community": 11,
        "pagerank": 0.010275172650536454,
        "weight": 1.0275172650536453,
        "size": 1027.5172650536454,
        "color_r": 71,
        "color_g": 45,
        "color_b": 123,
        "color_a": 1.0
      },
      "geometry": {
        "type": "Point",
        "coordinates": [
          -75.077501,
          6.909655
        ]
      }
    },
    {
      "type": "Feature",
      "properties": {
        "id": "GÓMEZ PLATA",
        "label": "GÓMEZ PLATA",
        "code": "5310",
        "community": 3,
        "pagerank": 0.008337903391195469,
        "weight": 0.8337903391195469,
        "size": 833.790339119547,
        "color_r": 59,
        "color_g": 82,
        "color_b": 139,
        "color_a": 1.0
      },
      "geometry": {
        "type": "Point",
        "coordinates": [
          -75.220018,
          6.683269
        ]
      }
    },
    {
      "type": "Feature",
      "properties": {
        "id": "YOLOMBÓ",
        "label": "YOLOMBÓ",
        "code": "5890",
        "community": 11,
        "pagerank": 0.00931903814690427,
        "weight": 0.931903814690427,
        "size": 931.903814690427,
        "color_r": 71,
        "color_g": 45,
        "color_b": 123,
        "color_a": 1.0
      },
      "geometry": {
        "type": "Point",
        "coordinates": [
          -75.013385,
          6.594511
        ]
      }
    },
    {
      "type": "Feature",
      "properties": {
        "id": "SANTO DOMINGO",
        "label": "SANTO DOMINGO",
        "code": "5690",
        "community": 1,
        "pagerank": 0.008844582064058424,
        "weight": 0.8844582064058424,
        "size": 884.4582064058424,
        "color_r": 68,
        "color_g": 1,
        "color_b": 84,
        "color_a": 1.0
      },
      "geometry": {
        "type": "Point",
        "coordinates": [
          -75.164903,
          6.473032
        ]
      }
    },
    {
      "type": "Feature",
      "properties": {
        "id": "SANTA FÉ DE ANTIOQUIA",
        "label": "SANTA FÉ DE ANTIOQUIA",
        "code": "5042",
        "community": 2,
        "pagerank": 0.007133331082535503,
        "weight": 0.7133331082535503,
        "size": 713.3331082535503,
        "color_r": 71,
        "color_g": 45,
        "color_b": 123,
        "color_a": 1.0
      },
      "geometry": {
        "type": "Point",
        "coordinates": [
          -75.826648,
          6.556484
        ]
      }
    },
    {
      "type": "Feature",
      "properties": {
        "id": "GIRALDO",
        "label": "GIRALDO",
        "code": "5306",
        "community": 2,
        "pagerank": 0.005881501160518361,
        "weight": 0.5881501160518361,
        "size": 588.1501160518361,
        "color_r": 71,
        "color_g": 45,
        "color_b": 123,
        "color_a": 1.0
      },
      "geometry": {
        "type": "Point",
        "coordinates": [
          -75.952158,
          6.680808
        ]
      }
    },
    {
      "type": "Feature",
      "properties": {
        "id": "ABRIAQUÍ",
        "label": "ABRIAQUÍ",
        "code": "5004",
        "community": 2,
        "pagerank": 0.005910682053000021,
        "weight": 0.591068205300002,
        "size": 591.0682053000021,
        "color_r": 71,
        "color_g": 45,
        "color_b": 123,
        "color_a": 1.0
      },
      "geometry": {
        "type": "Point",
        "coordinates": [
          -76.064304,
          6.632282
        ]
      }
    },
    {
      "type": "Feature",
      "properties": {
        "id": "URRAO",
        "label": "URRAO",
        "code": "5847",
        "community": 2,
        "pagerank": 0.014189045873270469,
        "weight": 1.418904587327047,
        "size": 1418.9045873270468,
        "color_r": 71,
        "color_g": 45,
        "color_b": 123,
        "color_a": 1.0
      },
      "geometry": {
        "type": "Point",
        "coordinates": [
          -76.133951,
          6.317343
        ]
      }
    },
    {
      "type": "Feature",
      "properties": {
        "id": "CISNEROS",
        "label": "CISNEROS",
        "code": "5190",
        "community": 1,
        "pagerank": 0.008355156058627184,
        "weight": 0.8355156058627183,
        "size": 835.5156058627184,
        "color_r": 68,
        "color_g": 1,
        "color_b": 84,
        "color_a": 1.0
      },
      "geometry": {
        "type": "Point",
        "coordinates": [
          -75.087047,
          6.537829
        ]
      }
    },
    {
      "type": "Feature",
      "properties": {
        "id": "CAICEDO",
        "label": "CAICEDO",
        "code": "5125",
        "community": 2,
        "pagerank": 0.009651547197654172,
        "weight": 0.9651547197654172,
        "size": 965.1547197654172,
        "color_r": 71,
        "color_g": 45,
        "color_b": 123,
        "color_a": 1.0
      },
      "geometry": {
        "type": "Point",
        "coordinates": [
          -75.98293,
          6.405607
        ]
      }
    },
    {
      "type": "Feature",
      "properties": {
        "id": "VIGÍA DEL FUERTE",
        "label": "VIGÍA DEL FUERTE",
        "code": "5873",
        "community": 100,
        "pagerank": 0.015405293313900111,
        "weight": 1.540529331390011,
        "size": 1540.529331390011,
        "color_r": 44,
        "color_g": 114,
        "color_b": 142,
        "color_a": 1.0
      },
      "geometry": {
        "type": "Point",
        "coordinates": [
          -76.896004,
          6.588164
        ]
      }
    },
    {
      "type": "Feature",
      "properties": {
        "id": "BETULIA",
        "label": "BETULIA",
        "code": "5093",
        "community": 2,
        "pagerank": 0.006839991023089608,
        "weight": 0.6839991023089608,
        "size": 683.9991023089608,
        "color_r": 71,
        "color_g": 45,
        "color_b": 123,
        "color_a": 1.0
      },
      "geometry": {
        "type": "Point",
        "coordinates": [
          -75.984452,
          6.115208
        ]
      }
    },
    {
      "type": "Feature",
      "properties": {
        "id": "MEDELLÍN",
        "label": "MEDELLÍN",
        "code": "5001",
        "community": 4,
        "pagerank": 0.016124897743623967,
        "weight": 1.6124897743623967,
        "size": 1612.4897743623967,
        "color_r": 44,
        "color_g": 114,
        "color_b": 142,
        "color_a": 1.0
      },
      "geometry": {
        "type": "Point",
        "coordinates": [
          -75.581775,
          6.246631
        ]
      }
    },
    {
      "type": "Feature",
      "properties": {
        "id": "EBÉJICO",
        "label": "EBÉJICO",
        "code": "5240",
        "community": 4,
        "pagerank": 0.008967474468401288,
        "weight": 0.8967474468401287,
        "size": 896.7474468401288,
        "color_r": 44,
        "color_g": 114,
        "color_b": 142,
        "color_a": 1.0
      },
      "geometry": {
        "type": "Point",
        "coordinates": [
          -75.766413,
          6.325615
        ]
      }
    },
    {
      "type": "Feature",
      "properties": {
        "id": "HELICONIA",
        "label": "HELICONIA",
        "code": "5347",
        "community": 4,
        "pagerank": 0.014544568715189417,
        "weight": 1.4544568715189417,
        "size": 1454.4568715189416,
        "color_r": 44,
        "color_g": 114,
        "color_b": 142,
        "color_a": 1.0
      },
      "geometry": {
        "type": "Point",
        "coordinates": [
          -75.734322,
          6.206757
        ]
      }
    },
    {
      "type": "Feature",
      "properties": {
        "id": "VEGACHÍ",
        "label": "VEGACHÍ",
        "code": "5858",
        "community": 100,
        "pagerank": 0.009016806801822177,
        "weight": 0.9016806801822177,
        "size": 901.6806801822177,
        "color_r": 44,
        "color_g": 114,
        "color_b": 142,
        "color_a": 1.0
      },
      "geometry": {
        "type": "Point",
        "coordinates": [
          -74.798714,
          6.773525
        ]
      }
    },
    {
      "type": "Feature",
      "properties": {
        "id": "SAN ROQUE",
        "label": "SAN ROQUE",
        "code": "5670",
        "community": 1,
        "pagerank": 0.009089143165597793,
        "weight": 0.9089143165597793,
        "size": 908.9143165597793,
        "color_r": 68,
        "color_g": 1,
        "color_b": 84,
        "color_a": 1.0
      },
      "geometry": {
        "type": "Point",
        "coordinates": [
          -75.019109,
          6.485939
        ]
      }
    },
    {
      "type": "Feature",
      "properties": {
        "id": "CONCEPCIÓN",
        "label": "CONCEPCIÓN",
        "code": "5206",
        "community": 1,
        "pagerank": 0.011089398666194858,
        "weight": 1.1089398666194858,
        "size": 1108.9398666194859,
        "color_r": 68,
        "color_g": 1,
        "color_b": 84,
        "color_a": 1.0
      },
      "geometry": {
        "type": "Point",
        "coordinates": [
          -75.257587,
          6.394348
        ]
      }
    },
    {
      "type": "Feature",
      "properties": {
        "id": "YALÍ",
        "label": "YALÍ",
        "code": "5885",
        "community": 100,
        "pagerank": 0.0060266161164746375,
        "weight": 0.6026616116474638,
        "size": 602.6616116474637,
        "color_r": 44,
        "color_g": 114,
        "color_b": 142,
        "color_a": 1.0
      },
      "geometry": {
        "type": "Point",
        "coordinates": [
          -74.840059,
          6.676554
        ]
      }
    },
    {
      "type": "Feature",
      "properties": {
        "id": "SAN VICENTE FERRER",
        "label": "SAN VICENTE FERRER",
        "code": "5674",
        "community": 1,
        "pagerank": 0.010822764593329834,
        "weight": 1.0822764593329834,
        "size": 1082.2764593329834,
        "color_r": 68,
        "color_g": 1,
        "color_b": 84,
        "color_a": 1.0
      },
      "geometry": {
        "type": "Point",
        "coordinates": [
          -75.332616,
          6.282164
        ]
      }
    },
    {
      "type": "Feature",
      "properties": {
        "id": "GUARNE",
        "label": "GUARNE",
        "code": "5318",
        "community": 1,
        "pagerank": 0.010865450300305068,
        "weight": 1.0865450300305068,
        "size": 1086.5450300305067,
        "color_r": 68,
        "color_g": 1,
        "color_b": 84,
        "color_a": 1.0
      },
      "geometry": {
        "type": "Point",
        "coordinates": [
          -75.441612,
          6.27787
        ]
      }
    },
    {
      "type": "Feature",
      "properties": {
        "id": "ANZÁ",
        "label": "ANZÁ",
        "code": "5044",
        "community": 2,
        "pagerank": 0.006450597496593403,
        "weight": 0.6450597496593403,
        "size": 645.0597496593404,
        "color_r": 71,
        "color_g": 45,
        "color_b": 123,
        "color_a": 1.0
      },
      "geometry": {
        "type": "Point",
        "coordinates": [
          -75.854442,
          6.302641
        ]
      }
    },
    {
      "type": "Feature",
      "properties": {
        "id": "CÁCERES",
        "label": "CÁCERES",
        "code": "5120",
        "community": 100,
        "pagerank": 0.013145523674519153,
        "weight": 1.3145523674519153,
        "size": 1314.5523674519154,
        "color_r": 44,
        "color_g": 114,
        "color_b": 142,
        "color_a": 1.0
      },
      "geometry": {
        "type": "Point",
        "coordinates": [
          -75.35205,
          7.578366
        ]
      }
    },
    {
      "type": "Feature",
      "properties": {
        "id": "REMEDIOS",
        "label": "REMEDIOS",
        "code": "5604",
        "community": 100,
        "pagerank": 0.005361833819236732,
        "weight": 0.5361833819236732,
        "size": 536.1833819236732,
        "color_r": 44,
        "color_g": 114,
        "color_b": 142,
        "color_a": 1.0
      },
      "geometry": {
        "type": "Point",
        "coordinates": [
          -74.698135,
          7.029424
        ]
      }
    },
    {
      "type": "Feature",
      "properties": {
        "id": "ALEJANDRÍA",
        "label": "ALEJANDRÍA",
        "code": "5021",
        "community": 1,
        "pagerank": 0.006800478238328129,
        "weight": 0.6800478238328129,
        "size": 680.0478238328129,
        "color_r": 68,
        "color_g": 1,
        "color_b": 84,
        "color_a": 1.0
      },
      "geometry": {
        "type": "Point",
        "coordinates": [
          -75.141346,
          6.376061
        ]
      }
    },
    {
      "type": "Feature",
      "properties": {
        "id": "SAN RAFAEL",
        "label": "SAN RAFAEL",
        "code": "5667",
        "community": 1,
        "pagerank": 0.007893422237538219,
        "weight": 0.7893422237538219,
        "size": 789.3422237538219,
        "color_r": 68,
        "color_g": 1,
        "color_b": 84,
        "color_a": 1.0
      },
      "geometry": {
        "type": "Point",
        "coordinates": [
          -75.02849,
          6.293759
        ]
      }
    },
    {
      "type": "Feature",
      "properties": {
        "id": "PEÑOL",
        "label": "PEÑOL",
        "code": "5541",
        "community": 1,
        "pagerank": 0.007615546890524919,
        "weight": 0.7615546890524919,
        "size": 761.554689052492,
        "color_r": 68,
        "color_g": 1,
        "color_b": 84,
        "color_a": 1.0
      },
      "geometry": {
        "type": "Point",
        "coordinates": [
          -75.242693,
          6.219349
        ]
      }
    },
    {
      "type": "Feature",
      "properties": {
        "id": "GUATAPÉ",
        "label": "GUATAPÉ",
        "code": "5321",
        "community": 1,
        "pagerank": 0.010536992189346452,
        "weight": 1.0536992189346452,
        "size": 1053.6992189346452,
        "color_r": 68,
        "color_g": 1,
        "color_b": 84,
        "color_a": 1.0
      },
      "geometry": {
        "type": "Point",
        "coordinates": [
          -75.160041,
          6.232461
        ]
      }
    },
    {
      "type": "Feature",
      "properties": {
        "id": "RIONEGRO",
        "label": "RIONEGRO",
        "code": "5615",
        "community": 1,
        "pagerank": 0.011819274033338434,
        "weight": 1.1819274033338434,
        "size": 1181.9274033338434,
        "color_r": 68,
        "color_g": 1,
        "color_b": 84,
        "color_a": 1.0
      },
      "geometry": {
        "type": "Point",
        "coordinates": [
          -75.377316,
          6.147148
        ]
      }
    },
    {
      "type": "Feature",
      "properties": {
        "id": "MARINILLA",
        "label": "MARINILLA",
        "code": "5440",
        "community": 1,
        "pagerank": 0.010096774719901403,
        "weight": 1.0096774719901402,
        "size": 1009.6774719901404,
        "color_r": 68,
        "color_g": 1,
        "color_b": 84,
        "color_a": 1.0
      },
      "geometry": {
        "type": "Point",
        "coordinates": [
          -75.339345,
          6.173995
        ]
      }
    },
    {
      "type": "Feature",
      "properties": {
        "id": "MURINDÓ",
        "label": "MURINDÓ",
        "code": "5475",
        "community": 100,
        "pagerank": 0.008709248169230983,
        "weight": 0.8709248169230983,
        "size": 870.9248169230983,
        "color_r": 44,
        "color_g": 114,
        "color_b": 142,
        "color_a": 1.0
      },
      "geometry": {
        "type": "Point",
        "coordinates": [
          -76.817485,
          6.97771
        ]
      }
    },
    {
      "type": "Feature",
      "properties": {
        "id": "ANGELÓPOLIS",
        "label": "ANGELÓPOLIS",
        "code": "5036",
        "community": 4,
        "pagerank": 0.008480565026855055,
        "weight": 0.8480565026855056,
        "size": 848.0565026855055,
        "color_r": 44,
        "color_g": 114,
        "color_b": 142,
        "color_a": 1.0
      },
      "geometry": {
        "type": "Point",
        "coordinates": [
          -75.711389,
          6.109719
        ]
      }
    },
    {
      "type": "Feature",
      "properties": {
        "id": "ITAGÜÍ",
        "label": "ITAGÜÍ",
        "code": "5360",
        "community": 4,
        "pagerank": 0.010279348573363425,
        "weight": 1.0279348573363425,
        "size": 1027.9348573363425,
        "color_r": 44,
        "color_g": 114,
        "color_b": 142,
        "color_a": 1.0
      },
      "geometry": {
        "type": "Point",
        "coordinates": [
          -75.612056,
          6.175079
        ]
      }
    },
    {
      "type": "Feature",
      "properties": {
        "id": "LA ESTRELLA",
        "label": "LA ESTRELLA",
        "code": "5380",
        "community": 4,
        "pagerank": 0.008620796238070761,
        "weight": 0.8620796238070761,
        "size": 862.0796238070761,
        "color_r": 44,
        "color_g": 114,
        "color_b": 142,
        "color_a": 1.0
      },
      "geometry": {
        "type": "Point",
        "coordinates": [
          -75.637708,
          6.145238
        ]
      }
    },
    {
      "type": "Feature",
      "properties": {
        "id": "ARMENIA",
        "label": "ARMENIA",
        "code": "5059",
        "community": 4,
        "pagerank": 0.00981810057351612,
        "weight": 0.981810057351612,
        "size": 981.8100573516119,
        "color_r": 44,
        "color_g": 114,
        "color_b": 142,
        "color_a": 1.0
      },
      "geometry": {
        "type": "Point",
        "coordinates": [
          -75.786647,
          6.155667
        ]
      }
    },
    {
      "type": "Feature",
      "properties": {
        "id": "TITIRIBÍ",
        "label": "TITIRIBÍ",
        "code": "5809",
        "community": 4,
        "pagerank": 0.00931550896756888,
        "weight": 0.931550896756888,
        "size": 931.5508967568879,
        "color_r": 44,
        "color_g": 114,
        "color_b": 142,
        "color_a": 1.0
      },
      "geometry": {
        "type": "Point",
        "coordinates": [
          -75.791887,
          6.062391
        ]
      }
    },
    {
      "type": "Feature",
      "properties": {
        "id": "SABANETA",
        "label": "SABANETA",
        "code": "5631",
        "community": 6,
        "pagerank": 0.01785760692671188,
        "weight": 1.785760692671188,
        "size": 1785.7606926711878,
        "color_r": 39,
        "color_g": 173,
        "color_b": 129,
        "color_a": 1.0
      },
      "geometry": {
        "type": "Point",
        "coordinates": [
          -75.615479,
          6.149903
        ]
      }
    },
    {
      "type": "Feature",
      "properties": {
        "id": "CALDAS",
        "label": "CALDAS",
        "code": "5129",
        "community": 6,
        "pagerank": 0.011483737229985701,
        "weight": 1.1483737229985702,
        "size": 1148.3737229985702,
        "color_r": 39,
        "color_g": 173,
        "color_b": 129,
        "color_a": 1.0
      },
      "geometry": {
        "type": "Point",
        "coordinates": [
          -75.633673,
          6.091077
        ]
      }
    },
    {
      "type": "Feature",
      "properties": {
        "id": "AMAGÁ",
        "label": "AMAGÁ",
        "code": "5030",
        "community": 4,
        "pagerank": 0.010752301304804153,
        "weight": 1.0752301304804153,
        "size": 1075.2301304804153,
        "color_r": 44,
        "color_g": 114,
        "color_b": 142,
        "color_a": 1.0
      },
      "geometry": {
        "type": "Point",
        "coordinates": [
          -75.702188,
          6.038708
        ]
      }
    },
    {
      "type": "Feature",
      "properties": {
        "id": "ENVIGADO",
        "label": "ENVIGADO",
        "code": "5266",
        "community": 6,
        "pagerank": 0.013804214492944321,
        "weight": 1.3804214492944322,
        "size": 1380.421449294432,
        "color_r": 39,
        "color_g": 173,
        "color_b": 129,
        "color_a": 1.0
      },
      "geometry": {
        "type": "Point",
        "coordinates": [
          -75.582192,
          6.166695
        ]
      }
    },
    {
      "type": "Feature",
      "properties": {
        "id": "CONCORDIA",
        "label": "CONCORDIA",
        "code": "5209",
        "community": 2,
        "pagerank": 0.007759888460505333,
        "weight": 0.7759888460505333,
        "size": 775.9888460505333,
        "color_r": 71,
        "color_g": 45,
        "color_b": 123,
        "color_a": 1.0
      },
      "geometry": {
        "type": "Point",
        "coordinates": [
          -75.908448,
          6.045738
        ]
      }
    },
    {
      "type": "Feature",
      "properties": {
        "id": "VENECIA",
        "label": "VENECIA",
        "code": "5861",
        "community": 6,
        "pagerank": 0.008604550117075433,
        "weight": 0.8604550117075433,
        "size": 860.4550117075433,
        "color_r": 39,
        "color_g": 173,
        "color_b": 129,
        "color_a": 1.0
      },
      "geometry": {
        "type": "Point",
        "coordinates": [
          -75.735544,
          5.964693
        ]
      }
    },
    {
      "type": "Feature",
      "properties": {
        "id": "FREDONIA",
        "label": "FREDONIA",
        "code": "5282",
        "community": 6,
        "pagerank": 0.010741833192341704,
        "weight": 1.0741833192341703,
        "size": 1074.1833192341705,
        "color_r": 39,
        "color_g": 173,
        "color_b": 129,
        "color_a": 1.0
      },
      "geometry": {
        "type": "Point",
        "coordinates": [
          -75.675072,
          5.928039
        ]
      }
    },
    {
      "type": "Feature",
      "properties": {
        "id": "SANTA BÁRBARA",
        "label": "SANTA BÁRBARA",
        "code": "5679",
        "community": 6,
        "pagerank": 0.011286151058939807,
        "weight": 1.1286151058939808,
        "size": 1128.6151058939806,
        "color_r": 39,
        "color_g": 173,
        "color_b": 129,
        "color_a": 1.0
      },
      "geometry": {
        "type": "Point",
        "coordinates": [
          -75.567351,
          5.875527
        ]
      }
    },
    {
      "type": "Feature",
      "properties": {
        "id": "TARSO",
        "label": "TARSO",
        "code": "5792",
        "community": 5,
        "pagerank": 0.012701179178704182,
        "weight": 1.270117917870418,
        "size": 1270.117917870418,
        "color_r": 33,
        "color_g": 145,
        "color_b": 140,
        "color_a": 1.0
      },
      "geometry": {
        "type": "Point",
        "coordinates": [
          -75.822956,
          5.864542
        ]
      }
    },
    {
      "type": "Feature",
      "properties": {
        "id": "RETIRO",
        "label": "RETIRO",
        "code": "5607",
        "community": 6,
        "pagerank": 0.012774096797544992,
        "weight": 1.2774096797544991,
        "size": 1277.4096797544992,
        "color_r": 39,
        "color_g": 173,
        "color_b": 129,
        "color_a": 1.0
      },
      "geometry": {
        "type": "Point",
        "coordinates": [
          -75.501301,
          6.062454
        ]
      }
    },
    {
      "type": "Feature",
      "properties": {
        "id": "GRANADA",
        "label": "GRANADA",
        "code": "5313",
        "community": 1,
        "pagerank": 0.007030550910514536,
        "weight": 0.7030550910514536,
        "size": 703.0550910514536,
        "color_r": 68,
        "color_g": 1,
        "color_b": 84,
        "color_a": 1.0
      },
      "geometry": {
        "type": "Point",
        "coordinates": [
          -75.184446,
          6.142892
        ]
      }
    },
    {
      "type": "Feature",
      "properties": {
        "id": "SAN CARLOS",
        "label": "SAN CARLOS",
        "code": "5649",
        "community": 1,
        "pagerank": 0.008249201776548462,
        "weight": 0.8249201776548463,
        "size": 824.9201776548462,
        "color_r": 68,
        "color_g": 1,
        "color_b": 84,
        "color_a": 1.0
      },
      "geometry": {
        "type": "Point",
        "coordinates": [
          -74.988097,
          6.187746
        ]
      }
    },
    {
      "type": "Feature",
      "properties": {
        "id": "EL SANTUARIO",
        "label": "EL SANTUARIO",
        "code": "5697",
        "community": 1,
        "pagerank": 0.00897054942020304,
        "weight": 0.897054942020304,
        "size": 897.054942020304,
        "color_r": 68,
        "color_g": 1,
        "color_b": 84,
        "color_a": 1.0
      },
      "geometry": {
        "type": "Point",
        "coordinates": [
          -75.265465,
          6.136871
        ]
      }
    },
    {
      "type": "Feature",
      "properties": {
        "id": "COCORNÁ",
        "label": "COCORNÁ",
        "code": "5197",
        "community": 1,
        "pagerank": 0.009395736714739951,
        "weight": 0.9395736714739952,
        "size": 939.5736714739951,
        "color_r": 68,
        "color_g": 1,
        "color_b": 84,
        "color_a": 1.0
      },
      "geometry": {
        "type": "Point",
        "coordinates": [
          -75.185483,
          6.058295
        ]
      }
    },
    {
      "type": "Feature",
      "properties": {
        "id": "SAN LUIS",
        "label": "SAN LUIS",
        "code": "5660",
        "community": 1,
        "pagerank": 0.00830539878212561,
        "weight": 0.8305398782125609,
        "size": 830.5398782125609,
        "color_r": 68,
        "color_g": 1,
        "color_b": 84,
        "color_a": 1.0
      },
      "geometry": {
        "type": "Point",
        "coordinates": [
          -74.993619,
          6.043017
        ]
      }
    },
    {
      "type": "Feature",
      "properties": {
        "id": "MACEO",
        "label": "MACEO",
        "code": "5425",
        "community": 100,
        "pagerank": 0.010018286427295232,
        "weight": 1.001828642729523,
        "size": 1001.8286427295232,
        "color_r": 44,
        "color_g": 114,
        "color_b": 142,
        "color_a": 1.0
      },
      "geometry": {
        "type": "Point",
        "coordinates": [
          -74.78716,
          6.552116
        ]
      }
    },
    {
      "type": "Feature",
      "properties": {
        "id": "EL CARMEN DE VIBORAL",
        "label": "EL CARMEN DE VIBORAL",
        "code": "5148",
        "community": 1,
        "pagerank": 0.010646561668360251,
        "weight": 1.064656166836025,
        "size": 1064.6561668360252,
        "color_r": 68,
        "color_g": 1,
        "color_b": 84,
        "color_a": 1.0
      },
      "geometry": {
        "type": "Point",
        "coordinates": [
          -75.333901,
          6.082885
        ]
      }
    },
    {
      "type": "Feature",
      "properties": {
        "id": "LA CEJA",
        "label": "LA CEJA",
        "code": "5376",
        "community": 1,
        "pagerank": 0.010532972844761967,
        "weight": 1.0532972844761967,
        "size": 1053.2972844761966,
        "color_r": 68,
        "color_g": 1,
        "color_b": 84,
        "color_a": 1.0
      },
      "geometry": {
        "type": "Point",
        "coordinates": [
          -75.429433,
          6.028062
        ]
      }
    },
    {
      "type": "Feature",
      "properties": {
        "id": "LA UNIÓN",
        "label": "LA UNIÓN",
        "code": "5400",
        "community": 1,
        "pagerank": 0.007465034472437847,
        "weight": 0.7465034472437847,
        "size": 746.5034472437848,
        "color_r": 68,
        "color_g": 1,
        "color_b": 84,
        "color_a": 1.0
      },
      "geometry": {
        "type": "Point",
        "coordinates": [
          -75.360874,
          5.973845
        ]
      }
    },
    {
      "type": "Feature",
      "properties": {
        "id": "SAN FRANCISCO",
        "label": "SAN FRANCISCO",
        "code": "5652",
        "community": 8,
        "pagerank": 0.008209906782537475,
        "weight": 0.8209906782537475,
        "size": 820.9906782537475,
        "color_r": 170,
        "color_g": 220,
        "color_b": 50,
        "color_a": 1.0
      },
      "geometry": {
        "type": "Point",
        "coordinates": [
          -75.101562,
          5.963476
        ]
      }
    },
    {
      "type": "Feature",
      "properties": {
        "id": "SONSÓN",
        "label": "SONSÓN",
        "code": "5756",
        "community": 8,
        "pagerank": 0.009021809108287072,
        "weight": 0.9021809108287072,
        "size": 902.1809108287073,
        "color_r": 170,
        "color_g": 220,
        "color_b": 50,
        "color_a": 1.0
      },
      "geometry": {
        "type": "Point",
        "coordinates": [
          -75.309596,
          5.714851
        ]
      }
    },
    {
      "type": "Feature",
      "properties": {
        "id": "MONTEBELLO",
        "label": "MONTEBELLO",
        "code": "5467",
        "community": 6,
        "pagerank": 0.00844061797100535,
        "weight": 0.844061797100535,
        "size": 844.061797100535,
        "color_r": 39,
        "color_g": 173,
        "color_b": 129,
        "color_a": 1.0
      },
      "geometry": {
        "type": "Point",
        "coordinates": [
          -75.523455,
          5.946313
        ]
      }
    },
    {
      "type": "Feature",
      "properties": {
        "id": "ABEJORRAL",
        "label": "ABEJORRAL",
        "code": "5002",
        "community": 1,
        "pagerank": 0.01082682895273878,
        "weight": 1.082682895273878,
        "size": 1082.682895273878,
        "color_r": 68,
        "color_g": 1,
        "color_b": 84,
        "color_a": 1.0
      },
      "geometry": {
        "type": "Point",
        "coordinates": [
          -75.428739,
          5.789315
        ]
      }
    },
    {
      "type": "Feature",
      "properties": {
        "id": "SALGAR",
        "label": "SALGAR",
        "code": "5642",
        "community": 2,
        "pagerank": 0.00787858830055371,
        "weight": 0.7878588300553709,
        "size": 787.858830055371,
        "color_r": 71,
        "color_g": 45,
        "color_b": 123,
        "color_a": 1.0
      },
      "geometry": {
        "type": "Point",
        "coordinates": [
          -75.976807,
          5.964198
        ]
      }
    },
    {
      "type": "Feature",
      "properties": {
        "id": "CIUDAD BOLÍVAR",
        "label": "CIUDAD BOLÍVAR",
        "code": "5101",
        "community": 5,
        "pagerank": 0.006984239397724032,
        "weight": 0.6984239397724032,
        "size": 698.4239397724032,
        "color_r": 33,
        "color_g": 145,
        "color_b": 140,
        "color_a": 1.0
      },
      "geometry": {
        "type": "Point",
        "coordinates": [
          -76.021509,
          5.850273
        ]
      }
    },
    {
      "type": "Feature",
      "properties": {
        "id": "ARGELIA",
        "label": "ARGELIA",
        "code": "5055",
        "community": 8,
        "pagerank": 0.006046064993618941,
        "weight": 0.604606499361894,
        "size": 604.6064993618941,
        "color_r": 170,
        "color_g": 220,
        "color_b": 50,
        "color_a": 1.0
      },
      "geometry": {
        "type": "Point",
        "coordinates": [
          -75.14107,
          5.731474
        ]
      }
    },
    {
      "type": "Feature",
      "properties": {
        "id": "JERICÓ",
        "label": "JERICÓ",
        "code": "5368",
        "community": 5,
        "pagerank": 0.010417812097116407,
        "weight": 1.0417812097116408,
        "size": 1041.7812097116407,
        "color_r": 33,
        "color_g": 145,
        "color_b": 140,
        "color_a": 1.0
      },
      "geometry": {
        "type": "Point",
        "coordinates": [
          -75.785499,
          5.789748
        ]
      }
    },
    {
      "type": "Feature",
      "properties": {
        "id": "TÁMESIS",
        "label": "TÁMESIS",
        "code": "5789",
        "community": 5,
        "pagerank": 0.008212469996839826,
        "weight": 0.8212469996839826,
        "size": 821.2469996839826,
        "color_r": 33,
        "color_g": 145,
        "color_b": 140,
        "color_a": 1.0
      },
      "geometry": {
        "type": "Point",
        "coordinates": [
          -75.714429,
          5.664645
        ]
      }
    },
    {
      "type": "Feature",
      "properties": {
        "id": "LA PINTADA",
        "label": "LA PINTADA",
        "code": "5390",
        "community": 100,
        "pagerank": 0.008432416865104672,
        "weight": 0.8432416865104672,
        "size": 843.2416865104672,
        "color_r": 44,
        "color_g": 114,
        "color_b": 142,
        "color_a": 1.0
      },
      "geometry": {
        "type": "Point",
        "coordinates": [
          -75.60781,
          5.743808
        ]
      }
    },
    {
      "type": "Feature",
      "properties": {
        "id": "NARIÑO",
        "label": "NARIÑO",
        "code": "5483",
        "community": 8,
        "pagerank": 0.004944922088953389,
        "weight": 0.4944922088953389,
        "size": 494.4922088953389,
        "color_r": 170,
        "color_g": 220,
        "color_b": 50,
        "color_a": 1.0
      },
      "geometry": {
        "type": "Point",
        "coordinates": [
          -75.176262,
          5.610777
        ]
      }
    },
    {
      "type": "Feature",
      "properties": {
        "id": "CARACOLÍ",
        "label": "CARACOLÍ",
        "code": "5142",
        "community": 100,
        "pagerank": 0.009578167928910725,
        "weight": 0.9578167928910725,
        "size": 957.8167928910725,
        "color_r": 44,
        "color_g": 114,
        "color_b": 142,
        "color_a": 1.0
      },
      "geometry": {
        "type": "Point",
        "coordinates": [
          -74.757421,
          6.409829
        ]
      }
    },
    {
      "type": "Feature",
      "properties": {
        "id": "PUEBLORRICO",
        "label": "PUEBLORRICO",
        "code": "5576",
        "community": 5,
        "pagerank": 0.0069408866895914155,
        "weight": 0.6940886689591416,
        "size": 694.0886689591415,
        "color_r": 33,
        "color_g": 145,
        "color_b": 140,
        "color_a": 1.0
      },
      "geometry": {
        "type": "Point",
        "coordinates": [
          -75.839903,
          5.79158
        ]
      }
    },
    {
      "type": "Feature",
      "properties": {
        "id": "PUERTO NARE",
        "label": "PUERTO NARE",
        "code": "5585",
        "community": 100,
        "pagerank": 0.00832526617983678,
        "weight": 0.832526617983678,
        "size": 832.5266179836781,
        "color_r": 44,
        "color_g": 114,
        "color_b": 142,
        "color_a": 1.0
      },
      "geometry": {
        "type": "Point",
        "coordinates": [
          -74.583012,
          6.186025
        ]
      }
    },
    {
      "type": "Feature",
      "properties": {
        "id": "BETANIA",
        "label": "BETANIA",
        "code": "5091",
        "community": 5,
        "pagerank": 0.0075291801127319756,
        "weight": 0.7529180112731976,
        "size": 752.9180112731975,
        "color_r": 33,
        "color_g": 145,
        "color_b": 140,
        "color_a": 1.0
      },
      "geometry": {
        "type": "Point",
        "coordinates": [
          -75.97679,
          5.74615
        ]
      }
    },
    {
      "type": "Feature",
      "properties": {
        "id": "HISPANIA",
        "label": "HISPANIA",
        "code": "5353",
        "community": 5,
        "pagerank": 0.00835010599953043,
        "weight": 0.835010599953043,
        "size": 835.0105999530431,
        "color_r": 33,
        "color_g": 145,
        "color_b": 140,
        "color_a": 1.0
      },
      "geometry": {
        "type": "Point",
        "coordinates": [
          -75.906587,
          5.799461
        ]
      }
    },
    {
      "type": "Feature",
      "properties": {
        "id": "ANDES",
        "label": "ANDES",
        "code": "5034",
        "community": 5,
        "pagerank": 0.006758519985935807,
        "weight": 0.6758519985935807,
        "size": 675.8519985935807,
        "color_r": 33,
        "color_g": 145,
        "color_b": 140,
        "color_a": 1.0
      },
      "geometry": {
        "type": "Point",
        "coordinates": [
          -75.878828,
          5.657194
        ]
      }
    },
    {
      "type": "Feature",
      "properties": {
        "id": "JARDÍN",
        "label": "JARDÍN",
        "code": "5364",
        "community": 5,
        "pagerank": 0.005936475508633481,
        "weight": 0.5936475508633481,
        "size": 593.6475508633481,
        "color_r": 33,
        "color_g": 145,
        "color_b": 140,
        "color_a": 1.0
      },
      "geometry": {
        "type": "Point",
        "coordinates": [
          -75.818982,
          5.597542
        ]
      }
    },
    {
      "type": "Feature",
      "properties": {
        "id": "VALPARAÍSO",
        "label": "VALPARAÍSO",
        "code": "5856",
        "community": 5,
        "pagerank": 0.01011792638622342,
        "weight": 1.0117926386223421,
        "size": 1011.7926386223421,
        "color_r": 33,
        "color_g": 145,
        "color_b": 140,
        "color_a": 1.0
      },
      "geometry": {
        "type": "Point",
        "coordinates": [
          -75.624452,
          5.614555
        ]
      }
    },
    {
      "type": "Feature",
      "properties": {
        "id": "CARAMANTA",
        "label": "CARAMANTA",
        "code": "5145",
        "community": 5,
        "pagerank": 0.005293254910191611,
        "weight": 0.5293254910191612,
        "size": 529.3254910191611,
        "color_r": 33,
        "color_g": 145,
        "color_b": 140,
        "color_a": 1.0
      },
      "geometry": {
        "type": "Point",
        "coordinates": [
          -75.643868,
          5.54853
        ]
      }
    }
  ]
}