{
"type": "FeatureCollection",
"name": "fig2_undirected_Pperuviana_6km_10steps_10reps_municipalities_network_v2_nodes",
"crs": { "type": "name", "properties": { "name": "urn:ogc:def:crs:OGC:1.3:CRS84" } },
"features": [
{ "type": "Feature", "properties": { "id": "ITUANGO", "label": "ITUANGO", "code": "5361", "community": 10, "pagerank": 0.011776966752908262, "weight": 1.1776966752908262, "size": 1177.6966752908261, "color_r": 0, "color_g": 255, "color_b": 0, "color_a": 1.0 }, "geometry": { "type": "Point", "coordinates": [ -75.764673, 7.171629 ] } },
{ "type": "Feature", "properties": { "id": "TARAZÁ", "label": "TARAZÁ", "code": "5790", "community": 12, "pagerank": 0.0026050339952697838, "weight": 0.26050339952697837, "size": 260.5033995269784, "color_r": 75, "color_g": 0, "color_b": 130, "color_a": 1.0 }, "geometry": { "type": "Point", "coordinates": [ -75.401407, 7.580127 ] } },
{ "type": "Feature", "properties": { "id": "VALDIVIA", "label": "VALDIVIA", "code": "5854", "community": 9, "pagerank": 0.005740816696347256, "weight": 0.57408166963472562, "size": 574.08166963472559, "color_r": 128, "color_g": 128, "color_b": 128, "color_a": 1.0 }, "geometry": { "type": "Point", "coordinates": [ -75.439274, 7.1652 ] } },
{ "type": "Feature", "properties": { "id": "BRICEÑO", "label": "BRICEÑO", "code": "5107", "community": 9, "pagerank": 0.0063282641183613729, "weight": 0.6328264118361373, "size": 632.82641183613725, "color_r": 128, "color_g": 128, "color_b": 128, "color_a": 1.0 }, "geometry": { "type": "Point", "coordinates": [ -75.55036, 7.112803 ] } },
{ "type": "Feature", "properties": { "id": "MUTATÁ", "label": "MUTATÁ", "code": "5480", "community": 10, "pagerank": 0.040543699482688073, "weight": 4.0543699482688069, "size": 4054.3699482688071, "color_r": 0, "color_g": 255, "color_b": 0, "color_a": 1.0 }, "geometry": { "type": "Point", "coordinates": [ -76.435875, 7.242875 ] } },
{ "type": "Feature", "properties": { "id": "PEQUE", "label": "PEQUE", "code": "5543", "community": 2, "pagerank": 0.0043746105173811589, "weight": 0.43746105173811589, "size": 437.46105173811588, "color_r": 255, "color_g": 165, "color_b": 0, "color_a": 1.0 }, "geometry": { "type": "Point", "coordinates": [ -75.910357, 7.021029 ] } },
{ "type": "Feature", "properties": { "id": "DABEIBA", "label": "DABEIBA", "code": "5234", "community": 2, "pagerank": 0.0035126844267694916, "weight": 0.35126844267694918, "size": 351.26844267694918, "color_r": 255, "color_g": 165, "color_b": 0, "color_a": 1.0 }, "geometry": { "type": "Point", "coordinates": [ -76.261614, 6.998112 ] } },
{ "type": "Feature", "properties": { "id": "URAMITA", "label": "URAMITA", "code": "5842", "community": 2, "pagerank": 0.0045258174002021107, "weight": 0.45258174002021107, "size": 452.5817400202111, "color_r": 255, "color_g": 165, "color_b": 0, "color_a": 1.0 }, "geometry": { "type": "Point", "coordinates": [ -76.173284, 6.898393 ] } },
{ "type": "Feature", "properties": { "id": "TOLEDO", "label": "TOLEDO", "code": "5819", "community": 3, "pagerank": 0.0056128649458743705, "weight": 0.56128649458743707, "size": 561.28649458743701, "color_r": 128, "color_g": 0, "color_b": 128, "color_a": 1.0 }, "geometry": { "type": "Point", "coordinates": [ -75.692281, 7.010328 ] } },
{ "type": "Feature", "properties": { "id": "BURITICÁ", "label": "BURITICÁ", "code": "5113", "community": 2, "pagerank": 0.0043702868282061713, "weight": 0.43702868282061713, "size": 437.02868282061712, "color_r": 255, "color_g": 165, "color_b": 0, "color_a": 1.0 }, "geometry": { "type": "Point", "coordinates": [ -75.907, 6.720759 ] } },
{ "type": "Feature", "properties": { "id": "CAÑASGORDAS", "label": "CAÑASGORDAS", "code": "5138", "community": 2, "pagerank": 0.0094220045115054243, "weight": 0.94220045115054241, "size": 942.20045115054245, "color_r": 255, "color_g": 165, "color_b": 0, "color_a": 1.0 }, "geometry": { "type": "Point", "coordinates": [ -76.028228, 6.753859 ] } },
{ "type": "Feature", "properties": { "id": "SABANALARGA", "label": "SABANALARGA", "code": "5628", "community": 3, "pagerank": 0.0043655344778688954, "weight": 0.43655344778688954, "size": 436.55344778688954, "color_r": 128, "color_g": 0, "color_b": 128, "color_a": 1.0 }, "geometry": { "type": "Point", "coordinates": [ -75.816645, 6.850028 ] } },
{ "type": "Feature", "properties": { "id": "YARUMAL", "label": "YARUMAL", "code": "5887", "community": 9, "pagerank": 0.016134355313697626, "weight": 1.6134355313697626, "size": 1613.4355313697627, "color_r": 128, "color_g": 128, "color_b": 128, "color_a": 1.0 }, "geometry": { "type": "Point", "coordinates": [ -75.418828, 6.963832 ] } },
{ "type": "Feature", "properties": { "id": "SAN ANDRÉS DE CUERQUÍA", "label": "SAN ANDRÉS DE CUERQUÍA", "code": "5647", "community": 3, "pagerank": 0.013828669885008455, "weight": 1.3828669885008456, "size": 1382.8669885008455, "color_r": 128, "color_g": 0, "color_b": 128, "color_a": 1.0 }, "geometry": { "type": "Point", "coordinates": [ -75.674564, 6.916676 ] } },
{ "type": "Feature", "properties": { "id": "CAMPAMENTO", "label": "CAMPAMENTO", "code": "5134", "community": 3, "pagerank": 0.0051497154096166635, "weight": 0.51497154096166631, "size": 514.97154096166639, "color_r": 128, "color_g": 0, "color_b": 128, "color_a": 1.0 }, "geometry": { "type": "Point", "coordinates": [ -75.298091, 6.979771 ] } },
{ "type": "Feature", "properties": { "id": "ANGOSTURA", "label": "ANGOSTURA", "code": "5038", "community": 3, "pagerank": 0.02278446764984305, "weight": 2.278446764984305, "size": 2278.446764984305, "color_r": 128, "color_g": 0, "color_b": 128, "color_a": 1.0 }, "geometry": { "type": "Point", "coordinates": [ -75.335116, 6.885175 ] } },
{ "type": "Feature", "properties": { "id": "SANTA ROSA DE OSOS", "label": "SANTA ROSA DE OSOS", "code": "5686", "community": 3, "pagerank": 0.016185620358242513, "weight": 1.6185620358242514, "size": 1618.5620358242513, "color_r": 128, "color_g": 0, "color_b": 128, "color_a": 1.0 }, "geometry": { "type": "Point", "coordinates": [ -75.460723, 6.643366 ] } },
{ "type": "Feature", "properties": { "id": "ANORÍ", "label": "ANORÍ", "code": "5040", "community": 3, "pagerank": 0.0078661719600263465, "weight": 0.78661719600263469, "size": 786.61719600263461, "color_r": 128, "color_g": 0, "color_b": 128, "color_a": 1.0 }, "geometry": { "type": "Point", "coordinates": [ -75.148355, 7.074703 ] } },
{ "type": "Feature", "properties": { "id": "CAROLINA", "label": "CAROLINA", "code": "5150", "community": 3, "pagerank": 0.029696005845819093, "weight": 2.9696005845819093, "size": 2969.6005845819091, "color_r": 128, "color_g": 0, "color_b": 128, "color_a": 1.0 }, "geometry": { "type": "Point", "coordinates": [ -75.283192, 6.725995 ] } },
{ "type": "Feature", "properties": { "id": "AMALFI", "label": "AMALFI", "code": "5031", "community": 11, "pagerank": 0.0040714508728393285, "weight": 0.40714508728393284, "size": 407.14508728393287, "color_r": 0, "color_g": 128, "color_b": 128, "color_a": 1.0 }, "geometry": { "type": "Point", "coordinates": [ -75.077501, 6.909655 ] } },
{ "type": "Feature", "properties": { "id": "GUADALUPE", "label": "GUADALUPE", "code": "5315", "community": 3, "pagerank": 0.0071780333413244187, "weight": 0.71780333413244191, "size": 717.80333413244182, "color_r": 128, "color_g": 0, "color_b": 128, "color_a": 1.0 }, "geometry": { "type": "Point", "coordinates": [ -75.239862, 6.815069 ] } },
{ "type": "Feature", "properties": { "id": "SAN JOSÉ DE LA MONTAÑA", "label": "SAN JOSÉ DE LA MONTAÑA", "code": "5658", "community": 3, "pagerank": 0.0078842745350395545, "weight": 0.78842745350395549, "size": 788.42745350395546, "color_r": 128, "color_g": 0, "color_b": 128, "color_a": 1.0 }, "geometry": { "type": "Point", "coordinates": [ -75.683352, 6.85009 ] } },
{ "type": "Feature", "properties": { "id": "BELMIRA", "label": "BELMIRA", "code": "5086", "community": 7, "pagerank": 0.022177621458930381, "weight": 2.2177621458930381, "size": 2217.762145893038, "color_r": 255, "color_g": 255, "color_b": 0, "color_a": 1.0 }, "geometry": { "type": "Point", "coordinates": [ -75.667779, 6.606319 ] } },
{ "type": "Feature", "properties": { "id": "FRONTINO", "label": "FRONTINO", "code": "5284", "community": 2, "pagerank": 0.012304851090563765, "weight": 1.2304851090563764, "size": 1230.4851090563766, "color_r": 255, "color_g": 165, "color_b": 0, "color_a": 1.0 }, "geometry": { "type": "Point", "coordinates": [ -76.130765, 6.776066 ] } },
{ "type": "Feature", "properties": { "id": "LIBORINA", "label": "LIBORINA", "code": "5411", "community": 3, "pagerank": 0.0051225065607662535, "weight": 0.51225065607662534, "size": 512.25065607662532, "color_r": 128, "color_g": 0, "color_b": 128, "color_a": 1.0 }, "geometry": { "type": "Point", "coordinates": [ -75.812838, 6.677316 ] } },
{ "type": "Feature", "properties": { "id": "GÓMEZ PLATA", "label": "GÓMEZ PLATA", "code": "5310", "community": 3, "pagerank": 0.005487468584182335, "weight": 0.54874685841823345, "size": 548.7468584182335, "color_r": 128, "color_g": 0, "color_b": 128, "color_a": 1.0 }, "geometry": { "type": "Point", "coordinates": [ -75.220018, 6.683269 ] } },
{ "type": "Feature", "properties": { "id": "ABRIAQUÍ", "label": "ABRIAQUÍ", "code": "5004", "community": 2, "pagerank": 0.0092643270544735066, "weight": 0.92643270544735068, "size": 926.43270544735071, "color_r": 255, "color_g": 165, "color_b": 0, "color_a": 1.0 }, "geometry": { "type": "Point", "coordinates": [ -76.064304, 6.632282 ] } },
{ "type": "Feature", "properties": { "id": "GIRALDO", "label": "GIRALDO", "code": "5306", "community": 2, "pagerank": 0.0042574035402388024, "weight": 0.42574035402388022, "size": 425.74035402388023, "color_r": 255, "color_g": 165, "color_b": 0, "color_a": 1.0 }, "geometry": { "type": "Point", "coordinates": [ -75.952158, 6.680808 ] } },
{ "type": "Feature", "properties": { "id": "OLAYA", "label": "OLAYA", "code": "5501", "community": 3, "pagerank": 0.0045519363519458842, "weight": 0.45519363519458844, "size": 455.19363519458841, "color_r": 128, "color_g": 0, "color_b": 128, "color_a": 1.0 }, "geometry": { "type": "Point", "coordinates": [ -75.811773, 6.626492 ] } },
{ "type": "Feature", "properties": { "id": "ENTRERRÍOS", "label": "ENTRERRÍOS", "code": "5264", "community": 7, "pagerank": 0.0067168434663918732, "weight": 0.6716843466391873, "size": 671.68434663918731, "color_r": 255, "color_g": 255, "color_b": 0, "color_a": 1.0 }, "geometry": { "type": "Point", "coordinates": [ -75.517685, 6.566273 ] } },
{ "type": "Feature", "properties": { "id": "SOPETRÁN", "label": "SOPETRÁN", "code": "5761", "community": 3, "pagerank": 0.0047633974873777995, "weight": 0.47633974873777996, "size": 476.33974873777993, "color_r": 128, "color_g": 0, "color_b": 128, "color_a": 1.0 }, "geometry": { "type": "Point", "coordinates": [ -75.747378, 6.500745 ] } },
{ "type": "Feature", "properties": { "id": "YOLOMBÓ", "label": "YOLOMBÓ", "code": "5890", "community": 11, "pagerank": 0.0051713214002560189, "weight": 0.51713214002560193, "size": 517.13214002560187, "color_r": 0, "color_g": 128, "color_b": 128, "color_a": 1.0 }, "geometry": { "type": "Point", "coordinates": [ -75.013385, 6.594511 ] } },
{ "type": "Feature", "properties": { "id": "SANTA FÉ DE ANTIOQUIA", "label": "SANTA FÉ DE ANTIOQUIA", "code": "5042", "community": 2, "pagerank": 0.030536670206902705, "weight": 3.0536670206902707, "size": 3053.6670206902704, "color_r": 255, "color_g": 165, "color_b": 0, "color_a": 1.0 }, "geometry": { "type": "Point", "coordinates": [ -75.826648, 6.556484 ] } },
{ "type": "Feature", "properties": { "id": "DONMATÍAS", "label": "DONMATÍAS", "code": "5237", "community": 7, "pagerank": 0.021968349192447462, "weight": 2.1968349192447461, "size": 2196.8349192447463, "color_r": 255, "color_g": 255, "color_b": 0, "color_a": 1.0 }, "geometry": { "type": "Point", "coordinates": [ -75.39263, 6.485603 ] } },
{ "type": "Feature", "properties": { "id": "SAN PEDRO DE LOS MILAGROS", "label": "SAN PEDRO DE LOS MILAGROS", "code": "5664", "community": 7, "pagerank": 0.013885442821046326, "weight": 1.3885442821046325, "size": 1388.5442821046327, "color_r": 255, "color_g": 255, "color_b": 0, "color_a": 1.0 }, "geometry": { "type": "Point", "coordinates": [ -75.556743, 6.46012 ] } },
{ "type": "Feature", "properties": { "id": "SANTO DOMINGO", "label": "SANTO DOMINGO", "code": "5690", "community": 1, "pagerank": 0.0063476926844931291, "weight": 0.63476926844931292, "size": 634.7692684493129, "color_r": 0, "color_g": 0, "color_b": 255, "color_a": 1.0 }, "geometry": { "type": "Point", "coordinates": [ -75.164903, 6.473032 ] } },
{ "type": "Feature", "properties": { "id": "BARBOSA", "label": "BARBOSA", "code": "5079", "community": 1, "pagerank": 0.0052679133054644783, "weight": 0.52679133054644778, "size": 526.79133054644785, "color_r": 0, "color_g": 0, "color_b": 255, "color_a": 1.0 }, "geometry": { "type": "Point", "coordinates": [ -75.331627, 6.439195 ] } },
{ "type": "Feature", "properties": { "id": "URRAO", "label": "URRAO", "code": "5847", "community": 2, "pagerank": 0.021813829374684086, "weight": 2.1813829374684084, "size": 2181.3829374684087, "color_r": 255, "color_g": 165, "color_b": 0, "color_a": 1.0 }, "geometry": { "type": "Point", "coordinates": [ -76.133951, 6.317343 ] } },
{ "type": "Feature", "properties": { "id": "SAN JERÓNIMO", "label": "SAN JERÓNIMO", "code": "5656", "community": 4, "pagerank": 0.0044922652604289749, "weight": 0.44922652604289748, "size": 449.22652604289749, "color_r": 0, "color_g": 255, "color_b": 255, "color_a": 1.0 }, "geometry": { "type": "Point", "coordinates": [ -75.726975, 6.44809 ] } },
{ "type": "Feature", "properties": { "id": "CAICEDO", "label": "CAICEDO", "code": "5125", "community": 2, "pagerank": 0.0040552967693665946, "weight": 0.40552967693665948, "size": 405.52967693665948, "color_r": 255, "color_g": 165, "color_b": 0, "color_a": 1.0 }, "geometry": { "type": "Point", "coordinates": [ -75.98293, 6.405607 ] } },
{ "type": "Feature", "properties": { "id": "GIRARDOTA", "label": "GIRARDOTA", "code": "5308", "community": 1, "pagerank": 0.0066241182820432846, "weight": 0.66241182820432842, "size": 662.41182820432846, "color_r": 0, "color_g": 0, "color_b": 255, "color_a": 1.0 }, "geometry": { "type": "Point", "coordinates": [ -75.444238, 6.379472 ] } },
{ "type": "Feature", "properties": { "id": "COPACABANA", "label": "COPACABANA", "code": "5212", "community": 4, "pagerank": 0.017356638708509571, "weight": 1.7356638708509571, "size": 1735.6638708509572, "color_r": 0, "color_g": 255, "color_b": 255, "color_a": 1.0 }, "geometry": { "type": "Point", "coordinates": [ -75.509384, 6.348557 ] } },
{ "type": "Feature", "properties": { "id": "BELLO", "label": "BELLO", "code": "5088", "community": 4, "pagerank": 0.0057050887892889637, "weight": 0.57050887892889635, "size": 570.50887892889637, "color_r": 0, "color_g": 255, "color_b": 255, "color_a": 1.0 }, "geometry": { "type": "Point", "coordinates": [ -75.555245, 6.333587 ] } },
{ "type": "Feature", "properties": { "id": "CONCEPCIÓN", "label": "CONCEPCIÓN", "code": "5206", "community": 1, "pagerank": 0.0068644006092232071, "weight": 0.68644006092232068, "size": 686.44006092232075, "color_r": 0, "color_g": 0, "color_b": 255, "color_a": 1.0 }, "geometry": { "type": "Point", "coordinates": [ -75.257587, 6.394348 ] } },
{ "type": "Feature", "properties": { "id": "ALEJANDRÍA", "label": "ALEJANDRÍA", "code": "5021", "community": 1, "pagerank": 0.019958065154212733, "weight": 1.9958065154212734, "size": 1995.8065154212734, "color_r": 0, "color_g": 0, "color_b": 255, "color_a": 1.0 }, "geometry": { "type": "Point", "coordinates": [ -75.141346, 6.376061 ] } },
{ "type": "Feature", "properties": { "id": "CISNEROS", "label": "CISNEROS", "code": "5190", "community": 1, "pagerank": 0.0046509264366692169, "weight": 0.46509264366692171, "size": 465.09264366692167, "color_r": 0, "color_g": 0, "color_b": 255, "color_a": 1.0 }, "geometry": { "type": "Point", "coordinates": [ -75.087047, 6.537829 ] } },
{ "type": "Feature", "properties": { "id": "ANZÁ", "label": "ANZÁ", "code": "5044", "community": 2, "pagerank": 0.0063840793987252403, "weight": 0.63840793987252398, "size": 638.40793987252403, "color_r": 255, "color_g": 165, "color_b": 0, "color_a": 1.0 }, "geometry": { "type": "Point", "coordinates": [ -75.854442, 6.302641 ] } },
{ "type": "Feature", "properties": { "id": "MEDELLÍN", "label": "MEDELLÍN", "code": "5001", "community": 4, "pagerank": 0.012411513805696791, "weight": 1.2411513805696792, "size": 1241.1513805696791, "color_r": 0, "color_g": 255, "color_b": 255, "color_a": 1.0 }, "geometry": { "type": "Point", "coordinates": [ -75.581775, 6.246631 ] } },
{ "type": "Feature", "properties": { "id": "SAN VICENTE FERRER", "label": "SAN VICENTE FERRER", "code": "5674", "community": 1, "pagerank": 0.010470427748679862, "weight": 1.0470427748679862, "size": 1047.0427748679863, "color_r": 0, "color_g": 0, "color_b": 255, "color_a": 1.0 }, "geometry": { "type": "Point", "coordinates": [ -75.332616, 6.282164 ] } },
{ "type": "Feature", "properties": { "id": "MARINILLA", "label": "MARINILLA", "code": "5440", "community": 1, "pagerank": 0.011525187062992614, "weight": 1.1525187062992615, "size": 1152.5187062992613, "color_r": 0, "color_g": 0, "color_b": 255, "color_a": 1.0 }, "geometry": { "type": "Point", "coordinates": [ -75.339345, 6.173995 ] } },
{ "type": "Feature", "properties": { "id": "PEÑOL", "label": "PEÑOL", "code": "5541", "community": 1, "pagerank": 0.012885217048199425, "weight": 1.2885217048199424, "size": 1288.5217048199424, "color_r": 0, "color_g": 0, "color_b": 255, "color_a": 1.0 }, "geometry": { "type": "Point", "coordinates": [ -75.242693, 6.219349 ] } },
{ "type": "Feature", "properties": { "id": "GUARNE", "label": "GUARNE", "code": "5318", "community": 1, "pagerank": 0.012774116893550251, "weight": 1.2774116893550251, "size": 1277.4116893550251, "color_r": 0, "color_g": 0, "color_b": 255, "color_a": 1.0 }, "geometry": { "type": "Point", "coordinates": [ -75.441612, 6.27787 ] } },
{ "type": "Feature", "properties": { "id": "SAN ROQUE", "label": "SAN ROQUE", "code": "5670", "community": 1, "pagerank": 0.0046646634669202927, "weight": 0.46646634669202924, "size": 466.46634669202928, "color_r": 0, "color_g": 0, "color_b": 255, "color_a": 1.0 }, "geometry": { "type": "Point", "coordinates": [ -75.019109, 6.485939 ] } },
{ "type": "Feature", "properties": { "id": "EBÉJICO", "label": "EBÉJICO", "code": "5240", "community": 4, "pagerank": 0.0030228305082421296, "weight": 0.30228305082421297, "size": 302.28305082421298, "color_r": 0, "color_g": 255, "color_b": 255, "color_a": 1.0 }, "geometry": { "type": "Point", "coordinates": [ -75.766413, 6.325615 ] } },
{ "type": "Feature", "properties": { "id": "HELICONIA", "label": "HELICONIA", "code": "5347", "community": 4, "pagerank": 0.0053764901032208826, "weight": 0.53764901032208823, "size": 537.64901032208832, "color_r": 0, "color_g": 255, "color_b": 255, "color_a": 1.0 }, "geometry": { "type": "Point", "coordinates": [ -75.734322, 6.206757 ] } },
{ "type": "Feature", "properties": { "id": "SAN RAFAEL", "label": "SAN RAFAEL", "code": "5667", "community": 1, "pagerank": 0.010396225626979219, "weight": 1.0396225626979219, "size": 1039.6225626979219, "color_r": 0, "color_g": 0, "color_b": 255, "color_a": 1.0 }, "geometry": { "type": "Point", "coordinates": [ -75.02849, 6.293759 ] } },
{ "type": "Feature", "properties": { "id": "GUATAPÉ", "label": "GUATAPÉ", "code": "5321", "community": 1, "pagerank": 0.019413204796325065, "weight": 1.9413204796325065, "size": 1941.3204796325065, "color_r": 0, "color_g": 0, "color_b": 255, "color_a": 1.0 }, "geometry": { "type": "Point", "coordinates": [ -75.160041, 6.232461 ] } },
{ "type": "Feature", "properties": { "id": "BETULIA", "label": "BETULIA", "code": "5093", "community": 2, "pagerank": 0.0063830362502720721, "weight": 0.63830362502720717, "size": 638.3036250272072, "color_r": 255, "color_g": 165, "color_b": 0, "color_a": 1.0 }, "geometry": { "type": "Point", "coordinates": [ -75.984452, 6.115208 ] } },
{ "type": "Feature", "properties": { "id": "ITAGÜÍ", "label": "ITAGÜÍ", "code": "5360", "community": 4, "pagerank": 0.0080740880689082351, "weight": 0.8074088068908235, "size": 807.40880689082348, "color_r": 0, "color_g": 255, "color_b": 255, "color_a": 1.0 }, "geometry": { "type": "Point", "coordinates": [ -75.612056, 6.175079 ] } },
{ "type": "Feature", "properties": { "id": "ANGELÓPOLIS", "label": "ANGELÓPOLIS", "code": "5036", "community": 4, "pagerank": 0.0059148449512444815, "weight": 0.59148449512444812, "size": 591.48449512444813, "color_r": 0, "color_g": 255, "color_b": 255, "color_a": 1.0 }, "geometry": { "type": "Point", "coordinates": [ -75.711389, 6.109719 ] } },
{ "type": "Feature", "properties": { "id": "LA ESTRELLA", "label": "LA ESTRELLA", "code": "5380", "community": 4, "pagerank": 0.0085402240352198278, "weight": 0.85402240352198278, "size": 854.02240352198282, "color_r": 0, "color_g": 255, "color_b": 255, "color_a": 1.0 }, "geometry": { "type": "Point", "coordinates": [ -75.637708, 6.145238 ] } },
{ "type": "Feature", "properties": { "id": "RIONEGRO", "label": "RIONEGRO", "code": "5615", "community": 1, "pagerank": 0.012170485295159959, "weight": 1.2170485295159958, "size": 1217.0485295159958, "color_r": 0, "color_g": 0, "color_b": 255, "color_a": 1.0 }, "geometry": { "type": "Point", "coordinates": [ -75.377316, 6.147148 ] } },
{ "type": "Feature", "properties": { "id": "ARMENIA", "label": "ARMENIA", "code": "5059", "community": 4, "pagerank": 0.0055772169648022037, "weight": 0.55772169648022041, "size": 557.72169648022032, "color_r": 0, "color_g": 255, "color_b": 255, "color_a": 1.0 }, "geometry": { "type": "Point", "coordinates": [ -75.786647, 6.155667 ] } },
{ "type": "Feature", "properties": { "id": "CALDAS", "label": "CALDAS", "code": "5129", "community": 6, "pagerank": 0.010828360320167336, "weight": 1.0828360320167336, "size": 1082.8360320167335, "color_r": 165, "color_g": 42, "color_b": 42, "color_a": 1.0 }, "geometry": { "type": "Point", "coordinates": [ -75.633673, 6.091077 ] } },
{ "type": "Feature", "properties": { "id": "AMAGÁ", "label": "AMAGÁ", "code": "5030", "community": 4, "pagerank": 0.0060526157069550768, "weight": 0.60526157069550768, "size": 605.26157069550766, "color_r": 0, "color_g": 255, "color_b": 255, "color_a": 1.0 }, "geometry": { "type": "Point", "coordinates": [ -75.702188, 6.038708 ] } },
{ "type": "Feature", "properties": { "id": "SABANETA", "label": "SABANETA", "code": "5631", "community": 6, "pagerank": 0.012842149344992695, "weight": 1.2842149344992695, "size": 1284.2149344992695, "color_r": 165, "color_g": 42, "color_b": 42, "color_a": 1.0 }, "geometry": { "type": "Point", "coordinates": [ -75.615479, 6.149903 ] } },
{ "type": "Feature", "properties": { "id": "SAN CARLOS", "label": "SAN CARLOS", "code": "5649", "community": 1, "pagerank": 0.0058427219125137576, "weight": 0.58427219125137575, "size": 584.27219125137572, "color_r": 0, "color_g": 0, "color_b": 255, "color_a": 1.0 }, "geometry": { "type": "Point", "coordinates": [ -74.988097, 6.187746 ] } },
{ "type": "Feature", "properties": { "id": "GRANADA", "label": "GRANADA", "code": "5313", "community": 1, "pagerank": 0.014685743613648401, "weight": 1.4685743613648401, "size": 1468.5743613648401, "color_r": 0, "color_g": 0, "color_b": 255, "color_a": 1.0 }, "geometry": { "type": "Point", "coordinates": [ -75.184446, 6.142892 ] } },
{ "type": "Feature", "properties": { "id": "EL SANTUARIO", "label": "EL SANTUARIO", "code": "5697", "community": 1, "pagerank": 0.0081186027919159156, "weight": 0.81186027919159154, "size": 811.86027919159153, "color_r": 0, "color_g": 0, "color_b": 255, "color_a": 1.0 }, "geometry": { "type": "Point", "coordinates": [ -75.265465, 6.136871 ] } },
{ "type": "Feature", "properties": { "id": "EL CARMEN DE VIBORAL", "label": "EL CARMEN DE VIBORAL", "code": "5148", "community": 1, "pagerank": 0.0099364358013038015, "weight": 0.99364358013038012, "size": 993.6435801303802, "color_r": 0, "color_g": 0, "color_b": 255, "color_a": 1.0 }, "geometry": { "type": "Point", "coordinates": [ -75.333901, 6.082885 ] } },
{ "type": "Feature", "properties": { "id": "ENVIGADO", "label": "ENVIGADO", "code": "5266", "community": 6, "pagerank": 0.016640088694241786, "weight": 1.6640088694241786, "size": 1664.0088694241786, "color_r": 165, "color_g": 42, "color_b": 42, "color_a": 1.0 }, "geometry": { "type": "Point", "coordinates": [ -75.582192, 6.166695 ] } },
{ "type": "Feature", "properties": { "id": "RETIRO", "label": "RETIRO", "code": "5607", "community": 6, "pagerank": 0.022401739889887525, "weight": 2.2401739889887526, "size": 2240.1739889887526, "color_r": 165, "color_g": 42, "color_b": 42, "color_a": 1.0 }, "geometry": { "type": "Point", "coordinates": [ -75.501301, 6.062454 ] } },
{ "type": "Feature", "properties": { "id": "COCORNÁ", "label": "COCORNÁ", "code": "5197", "community": 1, "pagerank": 0.0041068895685639189, "weight": 0.4106889568563919, "size": 410.68895685639188, "color_r": 0, "color_g": 0, "color_b": 255, "color_a": 1.0 }, "geometry": { "type": "Point", "coordinates": [ -75.185483, 6.058295 ] } },
{ "type": "Feature", "properties": { "id": "SALGAR", "label": "SALGAR", "code": "5642", "community": 2, "pagerank": 0.0085443911281781054, "weight": 0.8544391128178106, "size": 854.4391128178105, "color_r": 255, "color_g": 165, "color_b": 0, "color_a": 1.0 }, "geometry": { "type": "Point", "coordinates": [ -75.976807, 5.964198 ] } },
{ "type": "Feature", "properties": { "id": "LA CEJA", "label": "LA CEJA", "code": "5376", "community": 1, "pagerank": 0.0094695591961579152, "weight": 0.94695591961579151, "size": 946.95591961579157, "color_r": 0, "color_g": 0, "color_b": 255, "color_a": 1.0 }, "geometry": { "type": "Point", "coordinates": [ -75.429433, 6.028062 ] } },
{ "type": "Feature", "properties": { "id": "SAN LUIS", "label": "SAN LUIS", "code": "5660", "community": 1, "pagerank": 0.0045035552267378353, "weight": 0.45035552267378354, "size": 450.35552267378353, "color_r": 0, "color_g": 0, "color_b": 255, "color_a": 1.0 }, "geometry": { "type": "Point", "coordinates": [ -74.993619, 6.043017 ] } },
{ "type": "Feature", "properties": { "id": "CONCORDIA", "label": "CONCORDIA", "code": "5209", "community": 2, "pagerank": 0.0055933593551886381, "weight": 0.55933593551886385, "size": 559.33593551886383, "color_r": 255, "color_g": 165, "color_b": 0, "color_a": 1.0 }, "geometry": { "type": "Point", "coordinates": [ -75.908448, 6.045738 ] } },
{ "type": "Feature", "properties": { "id": "TITIRIBÍ", "label": "TITIRIBÍ", "code": "5809", "community": 4, "pagerank": 0.0066159934161448726, "weight": 0.6615993416144873, "size": 661.59934161448723, "color_r": 0, "color_g": 255, "color_b": 255, "color_a": 1.0 }, "geometry": { "type": "Point", "coordinates": [ -75.791887, 6.062391 ] } },
{ "type": "Feature", "properties": { "id": "LA UNIÓN", "label": "LA UNIÓN", "code": "5400", "community": 1, "pagerank": 0.015718526472509754, "weight": 1.5718526472509753, "size": 1571.8526472509755, "color_r": 0, "color_g": 0, "color_b": 255, "color_a": 1.0 }, "geometry": { "type": "Point", "coordinates": [ -75.360874, 5.973845 ] } },
{ "type": "Feature", "properties": { "id": "SANTA BÁRBARA", "label": "SANTA BÁRBARA", "code": "5679", "community": 6, "pagerank": 0.0067338983696304316, "weight": 0.67338983696304311, "size": 673.38983696304319, "color_r": 165, "color_g": 42, "color_b": 42, "color_a": 1.0 }, "geometry": { "type": "Point", "coordinates": [ -75.567351, 5.875527 ] } },
{ "type": "Feature", "properties": { "id": "FREDONIA", "label": "FREDONIA", "code": "5282", "community": 6, "pagerank": 0.012790290835550356, "weight": 1.2790290835550355, "size": 1279.0290835550356, "color_r": 165, "color_g": 42, "color_b": 42, "color_a": 1.0 }, "geometry": { "type": "Point", "coordinates": [ -75.675072, 5.928039 ] } },
{ "type": "Feature", "properties": { "id": "MONTEBELLO", "label": "MONTEBELLO", "code": "5467", "community": 6, "pagerank": 0.005074517307921537, "weight": 0.50745173079215367, "size": 507.45173079215368, "color_r": 165, "color_g": 42, "color_b": 42, "color_a": 1.0 }, "geometry": { "type": "Point", "coordinates": [ -75.523455, 5.946313 ] } },
{ "type": "Feature", "properties": { "id": "SAN FRANCISCO", "label": "SAN FRANCISCO", "code": "5652", "community": 8, "pagerank": 0.0074586618673758154, "weight": 0.74586618673758154, "size": 745.86618673758153, "color_r": 0, "color_g": 0, "color_b": 0, "color_a": 1.0 }, "geometry": { "type": "Point", "coordinates": [ -75.101562, 5.963476 ] } },
{ "type": "Feature", "properties": { "id": "SONSÓN", "label": "SONSÓN", "code": "5756", "community": 8, "pagerank": 0.01685946044473919, "weight": 1.6859460444739189, "size": 1685.9460444739191, "color_r": 0, "color_g": 0, "color_b": 0, "color_a": 1.0 }, "geometry": { "type": "Point", "coordinates": [ -75.309596, 5.714851 ] } },
{ "type": "Feature", "properties": { "id": "ABEJORRAL", "label": "ABEJORRAL", "code": "5002", "community": 1, "pagerank": 0.014566839810133455, "weight": 1.4566839810133454, "size": 1456.6839810133456, "color_r": 0, "color_g": 0, "color_b": 255, "color_a": 1.0 }, "geometry": { "type": "Point", "coordinates": [ -75.428739, 5.789315 ] } },
{ "type": "Feature", "properties": { "id": "VENECIA", "label": "VENECIA", "code": "5861", "community": 6, "pagerank": 0.0043684582649335026, "weight": 0.43684582649335024, "size": 436.84582649335027, "color_r": 165, "color_g": 42, "color_b": 42, "color_a": 1.0 }, "geometry": { "type": "Point", "coordinates": [ -75.735544, 5.964693 ] } },
{ "type": "Feature", "properties": { "id": "CIUDAD BOLÍVAR", "label": "CIUDAD BOLÍVAR", "code": "5101", "community": 5, "pagerank": 0.0061518348765634704, "weight": 0.61518348765634701, "size": 615.18348765634698, "color_r": 255, "color_g": 192, "color_b": 203, "color_a": 1.0 }, "geometry": { "type": "Point", "coordinates": [ -76.021509, 5.850273 ] } },
{ "type": "Feature", "properties": { "id": "ARGELIA", "label": "ARGELIA", "code": "5055", "community": 8, "pagerank": 0.0060267602505356226, "weight": 0.60267602505356221, "size": 602.67602505356228, "color_r": 0, "color_g": 0, "color_b": 0, "color_a": 1.0 }, "geometry": { "type": "Point", "coordinates": [ -75.14107, 5.731474 ] } },
{ "type": "Feature", "properties": { "id": "HISPANIA", "label": "HISPANIA", "code": "5353", "community": 5, "pagerank": 0.011303404047465609, "weight": 1.1303404047465608, "size": 1130.3404047465608, "color_r": 255, "color_g": 192, "color_b": 203, "color_a": 1.0 }, "geometry": { "type": "Point", "coordinates": [ -75.906587, 5.799461 ] } },
{ "type": "Feature", "properties": { "id": "BETANIA", "label": "BETANIA", "code": "5091", "community": 5, "pagerank": 0.0072033301693910133, "weight": 0.72033301693910134, "size": 720.3330169391013, "color_r": 255, "color_g": 192, "color_b": 203, "color_a": 1.0 }, "geometry": { "type": "Point", "coordinates": [ -75.97679, 5.74615 ] } },
{ "type": "Feature", "properties": { "id": "TARSO", "label": "TARSO", "code": "5792", "community": 5, "pagerank": 0.005803265048910179, "weight": 0.58032650489101789, "size": 580.32650489101786, "color_r": 255, "color_g": 192, "color_b": 203, "color_a": 1.0 }, "geometry": { "type": "Point", "coordinates": [ -75.822956, 5.864542 ] } },
{ "type": "Feature", "properties": { "id": "PUEBLORRICO", "label": "PUEBLORRICO", "code": "5576", "community": 5, "pagerank": 0.015902559951817771, "weight": 1.590255995181777, "size": 1590.2559951817771, "color_r": 255, "color_g": 192, "color_b": 203, "color_a": 1.0 }, "geometry": { "type": "Point", "coordinates": [ -75.839903, 5.79158 ] } },
{ "type": "Feature", "properties": { "id": "ANDES", "label": "ANDES", "code": "5034", "community": 5, "pagerank": 0.015224449678932214, "weight": 1.5224449678932213, "size": 1522.4449678932212, "color_r": 255, "color_g": 192, "color_b": 203, "color_a": 1.0 }, "geometry": { "type": "Point", "coordinates": [ -75.878828, 5.657194 ] } },
{ "type": "Feature", "properties": { "id": "NARIÑO", "label": "NARIÑO", "code": "5483", "community": 8, "pagerank": 0.0027524524805226758, "weight": 0.27524524805226758, "size": 275.24524805226758, "color_r": 0, "color_g": 0, "color_b": 0, "color_a": 1.0 }, "geometry": { "type": "Point", "coordinates": [ -75.176262, 5.610777 ] } },
{ "type": "Feature", "properties": { "id": "JERICÓ", "label": "JERICÓ", "code": "5368", "community": 5, "pagerank": 0.011598092182881692, "weight": 1.1598092182881692, "size": 1159.8092182881692, "color_r": 255, "color_g": 192, "color_b": 203, "color_a": 1.0 }, "geometry": { "type": "Point", "coordinates": [ -75.785499, 5.789748 ] } },
{ "type": "Feature", "properties": { "id": "TÁMESIS", "label": "TÁMESIS", "code": "5789", "community": 5, "pagerank": 0.0082363447396036661, "weight": 0.8236344739603666, "size": 823.63447396036656, "color_r": 255, "color_g": 192, "color_b": 203, "color_a": 1.0 }, "geometry": { "type": "Point", "coordinates": [ -75.714429, 5.664645 ] } },
{ "type": "Feature", "properties": { "id": "JARDÍN", "label": "JARDÍN", "code": "5364", "community": 5, "pagerank": 0.015332156835445475, "weight": 1.5332156835445474, "size": 1533.2156835445473, "color_r": 255, "color_g": 192, "color_b": 203, "color_a": 1.0 }, "geometry": { "type": "Point", "coordinates": [ -75.818982, 5.597542 ] } },
{ "type": "Feature", "properties": { "id": "LA PINTADA", "label": "LA PINTADA", "code": "5390", "community": 100, "pagerank": 0.013425061026741885, "weight": 1.3425061026741885, "size": 1342.5061026741885, "color_r": 106, "color_g": 90, "color_b": 205, "color_a": 1.0 }, "geometry": { "type": "Point", "coordinates": [ -75.60781, 5.743808 ] } },
{ "type": "Feature", "properties": { "id": "VALPARAÍSO", "label": "VALPARAÍSO", "code": "5856", "community": 5, "pagerank": 0.0064913476272828088, "weight": 0.64913476272828086, "size": 649.13476272828086, "color_r": 255, "color_g": 192, "color_b": 203, "color_a": 1.0 }, "geometry": { "type": "Point", "coordinates": [ -75.624452, 5.614555 ] } },
{ "type": "Feature", "properties": { "id": "CARAMANTA", "label": "CARAMANTA", "code": "5145", "community": 5, "pagerank": 0.0055105058046289943, "weight": 0.55105058046289945, "size": 551.05058046289946, "color_r": 255, "color_g": 192, "color_b": 203, "color_a": 1.0 }, "geometry": { "type": "Point", "coordinates": [ -75.643868, 5.54853 ] } }
]
}
