{
"type": "FeatureCollection",
"name": "fig2_undirected_Pperuviana_18km_10steps_10reps_municipalities_network_v2_nodes",
"crs": { "type": "name", "properties": { "name": "urn:ogc:def:crs:OGC:1.3:CRS84" } },
"features": [
{ "type": "Feature", "properties": { "id": "ITUANGO", "label": "ITUANGO", "code": "5361", "community": 10, "pagerank": 0.0078653271070168018, "weight": 0.78653271070168018, "size": 786.53271070168023, "color_r": 0, "color_g": 255, "color_b": 0, "color_a": 1.0 }, "geometry": { "type": "Point", "coordinates": [ -75.764673, 7.171629 ] } },
{ "type": "Feature", "properties": { "id": "TARAZÁ", "label": "TARAZÁ", "code": "5790", "community": 12, "pagerank": 0.012604284170810817, "weight": 1.2604284170810818, "size": 1260.4284170810818, "color_r": 75, "color_g": 0, "color_b": 130, "color_a": 1.0 }, "geometry": { "type": "Point", "coordinates": [ -75.401407, 7.580127 ] } },
{ "type": "Feature", "properties": { "id": "VALDIVIA", "label": "VALDIVIA", "code": "5854", "community": 9, "pagerank": 0.0076773865116826628, "weight": 0.76773865116826623, "size": 767.7386511682663, "color_r": 128, "color_g": 128, "color_b": 128, "color_a": 1.0 }, "geometry": { "type": "Point", "coordinates": [ -75.439274, 7.1652 ] } },
{ "type": "Feature", "properties": { "id": "BRICEÑO", "label": "BRICEÑO", "code": "5107", "community": 9, "pagerank": 0.01217025530587805, "weight": 1.217025530587805, "size": 1217.025530587805, "color_r": 128, "color_g": 128, "color_b": 128, "color_a": 1.0 }, "geometry": { "type": "Point", "coordinates": [ -75.55036, 7.112803 ] } },
{ "type": "Feature", "properties": { "id": "PEQUE", "label": "PEQUE", "code": "5543", "community": 2, "pagerank": 0.0078367675276030911, "weight": 0.78367675276030913, "size": 783.67675276030911, "color_r": 255, "color_g": 165, "color_b": 0, "color_a": 1.0 }, "geometry": { "type": "Point", "coordinates": [ -75.910357, 7.021029 ] } },
{ "type": "Feature", "properties": { "id": "DABEIBA", "label": "DABEIBA", "code": "5234", "community": 2, "pagerank": 0.009948308024056083, "weight": 0.99483080240560828, "size": 994.83080240560832, "color_r": 255, "color_g": 165, "color_b": 0, "color_a": 1.0 }, "geometry": { "type": "Point", "coordinates": [ -76.261614, 6.998112 ] } },
{ "type": "Feature", "properties": { "id": "YARUMAL", "label": "YARUMAL", "code": "5887", "community": 9, "pagerank": 0.0087549345628914685, "weight": 0.87549345628914688, "size": 875.49345628914682, "color_r": 128, "color_g": 128, "color_b": 128, "color_a": 1.0 }, "geometry": { "type": "Point", "coordinates": [ -75.418828, 6.963832 ] } },
{ "type": "Feature", "properties": { "id": "CAMPAMENTO", "label": "CAMPAMENTO", "code": "5134", "community": 3, "pagerank": 0.0076293155348496509, "weight": 0.76293155348496511, "size": 762.93155348496509, "color_r": 128, "color_g": 0, "color_b": 128, "color_a": 1.0 }, "geometry": { "type": "Point", "coordinates": [ -75.298091, 6.979771 ] } },
{ "type": "Feature", "properties": { "id": "MUTATÁ", "label": "MUTATÁ", "code": "5480", "community": 10, "pagerank": 0.0061673119468805297, "weight": 0.61673119468805293, "size": 616.73119468805294, "color_r": 0, "color_g": 255, "color_b": 0, "color_a": 1.0 }, "geometry": { "type": "Point", "coordinates": [ -76.435875, 7.242875 ] } },
{ "type": "Feature", "properties": { "id": "TOLEDO", "label": "TOLEDO", "code": "5819", "community": 3, "pagerank": 0.0055221441592075461, "weight": 0.5522144159207546, "size": 552.21441592075462, "color_r": 128, "color_g": 0, "color_b": 128, "color_a": 1.0 }, "geometry": { "type": "Point", "coordinates": [ -75.692281, 7.010328 ] } },
{ "type": "Feature", "properties": { "id": "SABANALARGA", "label": "SABANALARGA", "code": "5628", "community": 3, "pagerank": 0.010405525393400887, "weight": 1.0405525393400887, "size": 1040.5525393400887, "color_r": 128, "color_g": 0, "color_b": 128, "color_a": 1.0 }, "geometry": { "type": "Point", "coordinates": [ -75.816645, 6.850028 ] } },
{ "type": "Feature", "properties": { "id": "SAN ANDRÉS DE CUERQUÍA", "label": "SAN ANDRÉS DE CUERQUÍA", "code": "5647", "community": 3, "pagerank": 0.012583821134233907, "weight": 1.2583821134233908, "size": 1258.3821134233908, "color_r": 128, "color_g": 0, "color_b": 128, "color_a": 1.0 }, "geometry": { "type": "Point", "coordinates": [ -75.674564, 6.916676 ] } },
{ "type": "Feature", "properties": { "id": "URAMITA", "label": "URAMITA", "code": "5842", "community": 2, "pagerank": 0.010546395140322426, "weight": 1.0546395140322427, "size": 1054.6395140322425, "color_r": 255, "color_g": 165, "color_b": 0, "color_a": 1.0 }, "geometry": { "type": "Point", "coordinates": [ -76.173284, 6.898393 ] } },
{ "type": "Feature", "properties": { "id": "BURITICÁ", "label": "BURITICÁ", "code": "5113", "community": 2, "pagerank": 0.010330246389517371, "weight": 1.033024638951737, "size": 1033.0246389517372, "color_r": 255, "color_g": 165, "color_b": 0, "color_a": 1.0 }, "geometry": { "type": "Point", "coordinates": [ -75.907, 6.720759 ] } },
{ "type": "Feature", "properties": { "id": "CAÑASGORDAS", "label": "CAÑASGORDAS", "code": "5138", "community": 2, "pagerank": 0.010358202813519485, "weight": 1.0358202813519486, "size": 1035.8202813519486, "color_r": 255, "color_g": 165, "color_b": 0, "color_a": 1.0 }, "geometry": { "type": "Point", "coordinates": [ -76.028228, 6.753859 ] } },
{ "type": "Feature", "properties": { "id": "SAN JOSÉ DE LA MONTAÑA", "label": "SAN JOSÉ DE LA MONTAÑA", "code": "5658", "community": 3, "pagerank": 0.0098496909878571879, "weight": 0.98496909878571881, "size": 984.96909878571876, "color_r": 128, "color_g": 0, "color_b": 128, "color_a": 1.0 }, "geometry": { "type": "Point", "coordinates": [ -75.683352, 6.85009 ] } },
{ "type": "Feature", "properties": { "id": "SANTA ROSA DE OSOS", "label": "SANTA ROSA DE OSOS", "code": "5686", "community": 3, "pagerank": 0.018687189594466417, "weight": 1.8687189594466418, "size": 1868.7189594466417, "color_r": 128, "color_g": 0, "color_b": 128, "color_a": 1.0 }, "geometry": { "type": "Point", "coordinates": [ -75.460723, 6.643366 ] } },
{ "type": "Feature", "properties": { "id": "BELMIRA", "label": "BELMIRA", "code": "5086", "community": 7, "pagerank": 0.01432920288049786, "weight": 1.432920288049786, "size": 1432.920288049786, "color_r": 255, "color_g": 255, "color_b": 0, "color_a": 1.0 }, "geometry": { "type": "Point", "coordinates": [ -75.667779, 6.606319 ] } },
{ "type": "Feature", "properties": { "id": "LIBORINA", "label": "LIBORINA", "code": "5411", "community": 3, "pagerank": 0.0083017754643373558, "weight": 0.83017754643373554, "size": 830.17754643373553, "color_r": 128, "color_g": 0, "color_b": 128, "color_a": 1.0 }, "geometry": { "type": "Point", "coordinates": [ -75.812838, 6.677316 ] } },
{ "type": "Feature", "properties": { "id": "FRONTINO", "label": "FRONTINO", "code": "5284", "community": 2, "pagerank": 0.0057150995757079435, "weight": 0.57150995757079437, "size": 571.50995757079431, "color_r": 255, "color_g": 165, "color_b": 0, "color_a": 1.0 }, "geometry": { "type": "Point", "coordinates": [ -76.130765, 6.776066 ] } },
{ "type": "Feature", "properties": { "id": "MURINDÓ", "label": "MURINDÓ", "code": "5475", "community": 100, "pagerank": 0.0043162269478411097, "weight": 0.43162269478411097, "size": 431.62269478411099, "color_r": 106, "color_g": 90, "color_b": 205, "color_a": 1.0 }, "geometry": { "type": "Point", "coordinates": [ -76.817485, 6.97771 ] } },
{ "type": "Feature", "properties": { "id": "ANGOSTURA", "label": "ANGOSTURA", "code": "5038", "community": 3, "pagerank": 0.01387259677357475, "weight": 1.387259677357475, "size": 1387.2596773574751, "color_r": 128, "color_g": 0, "color_b": 128, "color_a": 1.0 }, "geometry": { "type": "Point", "coordinates": [ -75.335116, 6.885175 ] } },
{ "type": "Feature", "properties": { "id": "ANORÍ", "label": "ANORÍ", "code": "5040", "community": 3, "pagerank": 0.0079121705437896258, "weight": 0.79121705437896261, "size": 791.21705437896253, "color_r": 128, "color_g": 0, "color_b": 128, "color_a": 1.0 }, "geometry": { "type": "Point", "coordinates": [ -75.148355, 7.074703 ] } },
{ "type": "Feature", "properties": { "id": "GUADALUPE", "label": "GUADALUPE", "code": "5315", "community": 3, "pagerank": 0.0072610613889049387, "weight": 0.72610613889049391, "size": 726.10613889049387, "color_r": 128, "color_g": 0, "color_b": 128, "color_a": 1.0 }, "geometry": { "type": "Point", "coordinates": [ -75.239862, 6.815069 ] } },
{ "type": "Feature", "properties": { "id": "CAROLINA", "label": "CAROLINA", "code": "5150", "community": 3, "pagerank": 0.013491720607638811, "weight": 1.3491720607638811, "size": 1349.1720607638811, "color_r": 128, "color_g": 0, "color_b": 128, "color_a": 1.0 }, "geometry": { "type": "Point", "coordinates": [ -75.283192, 6.725995 ] } },
{ "type": "Feature", "properties": { "id": "GÓMEZ PLATA", "label": "GÓMEZ PLATA", "code": "5310", "community": 3, "pagerank": 0.0087800845427296239, "weight": 0.87800845427296237, "size": 878.00845427296235, "color_r": 128, "color_g": 0, "color_b": 128, "color_a": 1.0 }, "geometry": { "type": "Point", "coordinates": [ -75.220018, 6.683269 ] } },
{ "type": "Feature", "properties": { "id": "AMALFI", "label": "AMALFI", "code": "5031", "community": 11, "pagerank": 0.0089346816057357149, "weight": 0.89346816057357148, "size": 893.46816057357148, "color_r": 0, "color_g": 128, "color_b": 128, "color_a": 1.0 }, "geometry": { "type": "Point", "coordinates": [ -75.077501, 6.909655 ] } },
{ "type": "Feature", "properties": { "id": "GIRALDO", "label": "GIRALDO", "code": "5306", "community": 2, "pagerank": 0.0073413459724004796, "weight": 0.73413459724004793, "size": 734.13459724004792, "color_r": 255, "color_g": 165, "color_b": 0, "color_a": 1.0 }, "geometry": { "type": "Point", "coordinates": [ -75.952158, 6.680808 ] } },
{ "type": "Feature", "properties": { "id": "ABRIAQUÍ", "label": "ABRIAQUÍ", "code": "5004", "community": 2, "pagerank": 0.01029937706039079, "weight": 1.0299377060390791, "size": 1029.9377060390789, "color_r": 255, "color_g": 165, "color_b": 0, "color_a": 1.0 }, "geometry": { "type": "Point", "coordinates": [ -76.064304, 6.632282 ] } },
{ "type": "Feature", "properties": { "id": "ENTRERRÍOS", "label": "ENTRERRÍOS", "code": "5264", "community": 7, "pagerank": 0.012651734383614626, "weight": 1.2651734383614626, "size": 1265.1734383614626, "color_r": 255, "color_g": 255, "color_b": 0, "color_a": 1.0 }, "geometry": { "type": "Point", "coordinates": [ -75.517685, 6.566273 ] } },
{ "type": "Feature", "properties": { "id": "OLAYA", "label": "OLAYA", "code": "5501", "community": 3, "pagerank": 0.010281831349293188, "weight": 1.0281831349293189, "size": 1028.1831349293188, "color_r": 128, "color_g": 0, "color_b": 128, "color_a": 1.0 }, "geometry": { "type": "Point", "coordinates": [ -75.811773, 6.626492 ] } },
{ "type": "Feature", "properties": { "id": "SOPETRÁN", "label": "SOPETRÁN", "code": "5761", "community": 3, "pagerank": 0.0071815505853555237, "weight": 0.71815505853555239, "size": 718.15505853555237, "color_r": 128, "color_g": 0, "color_b": 128, "color_a": 1.0 }, "geometry": { "type": "Point", "coordinates": [ -75.747378, 6.500745 ] } },
{ "type": "Feature", "properties": { "id": "SAN PEDRO DE LOS MILAGROS", "label": "SAN PEDRO DE LOS MILAGROS", "code": "5664", "community": 7, "pagerank": 0.0095839953881319325, "weight": 0.95839953881319329, "size": 958.3995388131932, "color_r": 255, "color_g": 255, "color_b": 0, "color_a": 1.0 }, "geometry": { "type": "Point", "coordinates": [ -75.556743, 6.46012 ] } },
{ "type": "Feature", "properties": { "id": "SAN JERÓNIMO", "label": "SAN JERÓNIMO", "code": "5656", "community": 4, "pagerank": 0.005620272794780644, "weight": 0.56202727947806441, "size": 562.02727947806443, "color_r": 0, "color_g": 255, "color_b": 255, "color_a": 1.0 }, "geometry": { "type": "Point", "coordinates": [ -75.726975, 6.44809 ] } },
{ "type": "Feature", "properties": { "id": "URRAO", "label": "URRAO", "code": "5847", "community": 2, "pagerank": 0.010752762435023835, "weight": 1.0752762435023835, "size": 1075.2762435023835, "color_r": 255, "color_g": 165, "color_b": 0, "color_a": 1.0 }, "geometry": { "type": "Point", "coordinates": [ -76.133951, 6.317343 ] } },
{ "type": "Feature", "properties": { "id": "SANTA FÉ DE ANTIOQUIA", "label": "SANTA FÉ DE ANTIOQUIA", "code": "5042", "community": 2, "pagerank": 0.010431387107261905, "weight": 1.0431387107261905, "size": 1043.1387107261905, "color_r": 255, "color_g": 165, "color_b": 0, "color_a": 1.0 }, "geometry": { "type": "Point", "coordinates": [ -75.826648, 6.556484 ] } },
{ "type": "Feature", "properties": { "id": "CAICEDO", "label": "CAICEDO", "code": "5125", "community": 2, "pagerank": 0.0081975939787679968, "weight": 0.81975939787679963, "size": 819.75939787679965, "color_r": 255, "color_g": 165, "color_b": 0, "color_a": 1.0 }, "geometry": { "type": "Point", "coordinates": [ -75.98293, 6.405607 ] } },
{ "type": "Feature", "properties": { "id": "DONMATÍAS", "label": "DONMATÍAS", "code": "5237", "community": 7, "pagerank": 0.012735138997611268, "weight": 1.2735138997611268, "size": 1273.5138997611268, "color_r": 255, "color_g": 255, "color_b": 0, "color_a": 1.0 }, "geometry": { "type": "Point", "coordinates": [ -75.39263, 6.485603 ] } },
{ "type": "Feature", "properties": { "id": "YOLOMBÓ", "label": "YOLOMBÓ", "code": "5890", "community": 11, "pagerank": 0.011287960746616444, "weight": 1.1287960746616443, "size": 1128.7960746616443, "color_r": 0, "color_g": 128, "color_b": 128, "color_a": 1.0 }, "geometry": { "type": "Point", "coordinates": [ -75.013385, 6.594511 ] } },
{ "type": "Feature", "properties": { "id": "BARBOSA", "label": "BARBOSA", "code": "5079", "community": 1, "pagerank": 0.010455464819277975, "weight": 1.0455464819277975, "size": 1045.5464819277975, "color_r": 0, "color_g": 0, "color_b": 255, "color_a": 1.0 }, "geometry": { "type": "Point", "coordinates": [ -75.331627, 6.439195 ] } },
{ "type": "Feature", "properties": { "id": "SANTO DOMINGO", "label": "SANTO DOMINGO", "code": "5690", "community": 1, "pagerank": 0.0084162116342999648, "weight": 0.84162116342999649, "size": 841.6211634299965, "color_r": 0, "color_g": 0, "color_b": 255, "color_a": 1.0 }, "geometry": { "type": "Point", "coordinates": [ -75.164903, 6.473032 ] } },
{ "type": "Feature", "properties": { "id": "CONCEPCIÓN", "label": "CONCEPCIÓN", "code": "5206", "community": 1, "pagerank": 0.013612142350667497, "weight": 1.3612142350667498, "size": 1361.2142350667498, "color_r": 0, "color_g": 0, "color_b": 255, "color_a": 1.0 }, "geometry": { "type": "Point", "coordinates": [ -75.257587, 6.394348 ] } },
{ "type": "Feature", "properties": { "id": "GIRARDOTA", "label": "GIRARDOTA", "code": "5308", "community": 1, "pagerank": 0.010101196917677139, "weight": 1.010119691767714, "size": 1010.1196917677139, "color_r": 0, "color_g": 0, "color_b": 255, "color_a": 1.0 }, "geometry": { "type": "Point", "coordinates": [ -75.444238, 6.379472 ] } },
{ "type": "Feature", "properties": { "id": "SAN VICENTE FERRER", "label": "SAN VICENTE FERRER", "code": "5674", "community": 1, "pagerank": 0.014567228840105849, "weight": 1.456722884010585, "size": 1456.7228840105849, "color_r": 0, "color_g": 0, "color_b": 255, "color_a": 1.0 }, "geometry": { "type": "Point", "coordinates": [ -75.332616, 6.282164 ] } },
{ "type": "Feature", "properties": { "id": "GUARNE", "label": "GUARNE", "code": "5318", "community": 1, "pagerank": 0.010719884984245136, "weight": 1.0719884984245136, "size": 1071.9884984245136, "color_r": 0, "color_g": 0, "color_b": 255, "color_a": 1.0 }, "geometry": { "type": "Point", "coordinates": [ -75.441612, 6.27787 ] } },
{ "type": "Feature", "properties": { "id": "COPACABANA", "label": "COPACABANA", "code": "5212", "community": 4, "pagerank": 0.010772193166925527, "weight": 1.0772193166925526, "size": 1077.2193166925526, "color_r": 0, "color_g": 255, "color_b": 255, "color_a": 1.0 }, "geometry": { "type": "Point", "coordinates": [ -75.509384, 6.348557 ] } },
{ "type": "Feature", "properties": { "id": "BELLO", "label": "BELLO", "code": "5088", "community": 4, "pagerank": 0.0087180996995948803, "weight": 0.87180996995948801, "size": 871.80996995948806, "color_r": 0, "color_g": 255, "color_b": 255, "color_a": 1.0 }, "geometry": { "type": "Point", "coordinates": [ -75.555245, 6.333587 ] } },
{ "type": "Feature", "properties": { "id": "MEDELLÍN", "label": "MEDELLÍN", "code": "5001", "community": 4, "pagerank": 0.013785800544738278, "weight": 1.3785800544738278, "size": 1378.5800544738279, "color_r": 0, "color_g": 255, "color_b": 255, "color_a": 1.0 }, "geometry": { "type": "Point", "coordinates": [ -75.581775, 6.246631 ] } },
{ "type": "Feature", "properties": { "id": "RIONEGRO", "label": "RIONEGRO", "code": "5615", "community": 1, "pagerank": 0.011628117648683704, "weight": 1.1628117648683705, "size": 1162.8117648683703, "color_r": 0, "color_g": 0, "color_b": 255, "color_a": 1.0 }, "geometry": { "type": "Point", "coordinates": [ -75.377316, 6.147148 ] } },
{ "type": "Feature", "properties": { "id": "PEÑOL", "label": "PEÑOL", "code": "5541", "community": 1, "pagerank": 0.0088617818265672079, "weight": 0.88617818265672077, "size": 886.17818265672076, "color_r": 0, "color_g": 0, "color_b": 255, "color_a": 1.0 }, "geometry": { "type": "Point", "coordinates": [ -75.242693, 6.219349 ] } },
{ "type": "Feature", "properties": { "id": "CISNEROS", "label": "CISNEROS", "code": "5190", "community": 1, "pagerank": 0.0062272888228730172, "weight": 0.62272888228730172, "size": 622.72888228730176, "color_r": 0, "color_g": 0, "color_b": 255, "color_a": 1.0 }, "geometry": { "type": "Point", "coordinates": [ -75.087047, 6.537829 ] } },
{ "type": "Feature", "properties": { "id": "VEGACHÍ", "label": "VEGACHÍ", "code": "5858", "community": 100, "pagerank": 0.0081177779142733476, "weight": 0.81177779142733475, "size": 811.77779142733482, "color_r": 106, "color_g": 90, "color_b": 205, "color_a": 1.0 }, "geometry": { "type": "Point", "coordinates": [ -74.798714, 6.773525 ] } },
{ "type": "Feature", "properties": { "id": "YALÍ", "label": "YALÍ", "code": "5885", "community": 100, "pagerank": 0.0076665639332670205, "weight": 0.7666563933267021, "size": 766.65639332670207, "color_r": 106, "color_g": 90, "color_b": 205, "color_a": 1.0 }, "geometry": { "type": "Point", "coordinates": [ -74.840059, 6.676554 ] } },
{ "type": "Feature", "properties": { "id": "EBÉJICO", "label": "EBÉJICO", "code": "5240", "community": 4, "pagerank": 0.0092006171473174598, "weight": 0.92006171473174603, "size": 920.06171473174595, "color_r": 0, "color_g": 255, "color_b": 255, "color_a": 1.0 }, "geometry": { "type": "Point", "coordinates": [ -75.766413, 6.325615 ] } },
{ "type": "Feature", "properties": { "id": "HELICONIA", "label": "HELICONIA", "code": "5347", "community": 4, "pagerank": 0.010041879379859299, "weight": 1.0041879379859298, "size": 1004.1879379859298, "color_r": 0, "color_g": 255, "color_b": 255, "color_a": 1.0 }, "geometry": { "type": "Point", "coordinates": [ -75.734322, 6.206757 ] } },
{ "type": "Feature", "properties": { "id": "SAN ROQUE", "label": "SAN ROQUE", "code": "5670", "community": 1, "pagerank": 0.010107425037549442, "weight": 1.0107425037549442, "size": 1010.7425037549442, "color_r": 0, "color_g": 0, "color_b": 255, "color_a": 1.0 }, "geometry": { "type": "Point", "coordinates": [ -75.019109, 6.485939 ] } },
{ "type": "Feature", "properties": { "id": "MARINILLA", "label": "MARINILLA", "code": "5440", "community": 1, "pagerank": 0.010313488621679027, "weight": 1.0313488621679028, "size": 1031.3488621679028, "color_r": 0, "color_g": 0, "color_b": 255, "color_a": 1.0 }, "geometry": { "type": "Point", "coordinates": [ -75.339345, 6.173995 ] } },
{ "type": "Feature", "properties": { "id": "ALEJANDRÍA", "label": "ALEJANDRÍA", "code": "5021", "community": 1, "pagerank": 0.0074030569239626389, "weight": 0.74030569239626387, "size": 740.30569239626391, "color_r": 0, "color_g": 0, "color_b": 255, "color_a": 1.0 }, "geometry": { "type": "Point", "coordinates": [ -75.141346, 6.376061 ] } },
{ "type": "Feature", "properties": { "id": "SAN RAFAEL", "label": "SAN RAFAEL", "code": "5667", "community": 1, "pagerank": 0.0086864521395193586, "weight": 0.86864521395193584, "size": 868.64521395193583, "color_r": 0, "color_g": 0, "color_b": 255, "color_a": 1.0 }, "geometry": { "type": "Point", "coordinates": [ -75.02849, 6.293759 ] } },
{ "type": "Feature", "properties": { "id": "GUATAPÉ", "label": "GUATAPÉ", "code": "5321", "community": 1, "pagerank": 0.010614660859177132, "weight": 1.0614660859177132, "size": 1061.4660859177131, "color_r": 0, "color_g": 0, "color_b": 255, "color_a": 1.0 }, "geometry": { "type": "Point", "coordinates": [ -75.160041, 6.232461 ] } },
{ "type": "Feature", "properties": { "id": "GRANADA", "label": "GRANADA", "code": "5313", "community": 1, "pagerank": 0.0076271448823423734, "weight": 0.76271448823423738, "size": 762.71448823423736, "color_r": 0, "color_g": 0, "color_b": 255, "color_a": 1.0 }, "geometry": { "type": "Point", "coordinates": [ -75.184446, 6.142892 ] } },
{ "type": "Feature", "properties": { "id": "SAN CARLOS", "label": "SAN CARLOS", "code": "5649", "community": 1, "pagerank": 0.0075763880032434124, "weight": 0.75763880032434128, "size": 757.63880032434122, "color_r": 0, "color_g": 0, "color_b": 255, "color_a": 1.0 }, "geometry": { "type": "Point", "coordinates": [ -74.988097, 6.187746 ] } },
{ "type": "Feature", "properties": { "id": "ANZÁ", "label": "ANZÁ", "code": "5044", "community": 2, "pagerank": 0.0075820973758485817, "weight": 0.75820973758485821, "size": 758.2097375848582, "color_r": 255, "color_g": 165, "color_b": 0, "color_a": 1.0 }, "geometry": { "type": "Point", "coordinates": [ -75.854442, 6.302641 ] } },
{ "type": "Feature", "properties": { "id": "EL SANTUARIO", "label": "EL SANTUARIO", "code": "5697", "community": 1, "pagerank": 0.0089907440752414382, "weight": 0.8990744075241438, "size": 899.07440752414379, "color_r": 0, "color_g": 0, "color_b": 255, "color_a": 1.0 }, "geometry": { "type": "Point", "coordinates": [ -75.265465, 6.136871 ] } },
{ "type": "Feature", "properties": { "id": "VIGÍA DEL FUERTE", "label": "VIGÍA DEL FUERTE", "code": "5873", "community": 100, "pagerank": 0.0023131413901890359, "weight": 0.2313141390189036, "size": 231.3141390189036, "color_r": 106, "color_g": 90, "color_b": 205, "color_a": 1.0 }, "geometry": { "type": "Point", "coordinates": [ -76.896004, 6.588164 ] } },
{ "type": "Feature", "properties": { "id": "BETULIA", "label": "BETULIA", "code": "5093", "community": 2, "pagerank": 0.0066016350848444264, "weight": 0.66016350848444261, "size": 660.16350848444267, "color_r": 255, "color_g": 165, "color_b": 0, "color_a": 1.0 }, "geometry": { "type": "Point", "coordinates": [ -75.984452, 6.115208 ] } },
{ "type": "Feature", "properties": { "id": "RETIRO", "label": "RETIRO", "code": "5607", "community": 6, "pagerank": 0.011126197545109405, "weight": 1.1126197545109404, "size": 1112.6197545109405, "color_r": 165, "color_g": 42, "color_b": 42, "color_a": 1.0 }, "geometry": { "type": "Point", "coordinates": [ -75.501301, 6.062454 ] } },
{ "type": "Feature", "properties": { "id": "ITAGÜÍ", "label": "ITAGÜÍ", "code": "5360", "community": 4, "pagerank": 0.011078453291400217, "weight": 1.1078453291400217, "size": 1107.8453291400217, "color_r": 0, "color_g": 255, "color_b": 255, "color_a": 1.0 }, "geometry": { "type": "Point", "coordinates": [ -75.612056, 6.175079 ] } },
{ "type": "Feature", "properties": { "id": "ENVIGADO", "label": "ENVIGADO", "code": "5266", "community": 6, "pagerank": 0.013024766497159427, "weight": 1.3024766497159426, "size": 1302.4766497159426, "color_r": 165, "color_g": 42, "color_b": 42, "color_a": 1.0 }, "geometry": { "type": "Point", "coordinates": [ -75.582192, 6.166695 ] } },
{ "type": "Feature", "properties": { "id": "REMEDIOS", "label": "REMEDIOS", "code": "5604", "community": 100, "pagerank": 0.0048592505047957884, "weight": 0.48592505047957885, "size": 485.92505047957883, "color_r": 106, "color_g": 90, "color_b": 205, "color_a": 1.0 }, "geometry": { "type": "Point", "coordinates": [ -74.698135, 7.029424 ] } },
{ "type": "Feature", "properties": { "id": "EL CARMEN DE VIBORAL", "label": "EL CARMEN DE VIBORAL", "code": "5148", "community": 1, "pagerank": 0.011660080012622023, "weight": 1.1660080012622023, "size": 1166.0080012622022, "color_r": 0, "color_g": 0, "color_b": 255, "color_a": 1.0 }, "geometry": { "type": "Point", "coordinates": [ -75.333901, 6.082885 ] } },
{ "type": "Feature", "properties": { "id": "COCORNÁ", "label": "COCORNÁ", "code": "5197", "community": 1, "pagerank": 0.008354240056924785, "weight": 0.83542400569247854, "size": 835.42400569247854, "color_r": 0, "color_g": 0, "color_b": 255, "color_a": 1.0 }, "geometry": { "type": "Point", "coordinates": [ -75.185483, 6.058295 ] } },
{ "type": "Feature", "properties": { "id": "ARMENIA", "label": "ARMENIA", "code": "5059", "community": 4, "pagerank": 0.0072358767252109638, "weight": 0.72358767252109635, "size": 723.58767252109635, "color_r": 0, "color_g": 255, "color_b": 255, "color_a": 1.0 }, "geometry": { "type": "Point", "coordinates": [ -75.786647, 6.155667 ] } },
{ "type": "Feature", "properties": { "id": "ANGELÓPOLIS", "label": "ANGELÓPOLIS", "code": "5036", "community": 4, "pagerank": 0.018111012377370138, "weight": 1.8111012377370137, "size": 1811.1012377370139, "color_r": 0, "color_g": 255, "color_b": 255, "color_a": 1.0 }, "geometry": { "type": "Point", "coordinates": [ -75.711389, 6.109719 ] } },
{ "type": "Feature", "properties": { "id": "SALGAR", "label": "SALGAR", "code": "5642", "community": 2, "pagerank": 0.006938208055189553, "weight": 0.69382080551895531, "size": 693.82080551895535, "color_r": 255, "color_g": 165, "color_b": 0, "color_a": 1.0 }, "geometry": { "type": "Point", "coordinates": [ -75.976807, 5.964198 ] } },
{ "type": "Feature", "properties": { "id": "CONCORDIA", "label": "CONCORDIA", "code": "5209", "community": 2, "pagerank": 0.012617776323550949, "weight": 1.2617776323550949, "size": 1261.777632355095, "color_r": 255, "color_g": 165, "color_b": 0, "color_a": 1.0 }, "geometry": { "type": "Point", "coordinates": [ -75.908448, 6.045738 ] } },
{ "type": "Feature", "properties": { "id": "LA ESTRELLA", "label": "LA ESTRELLA", "code": "5380", "community": 4, "pagerank": 0.008126839606314341, "weight": 0.81268396063143411, "size": 812.68396063143405, "color_r": 0, "color_g": 255, "color_b": 255, "color_a": 1.0 }, "geometry": { "type": "Point", "coordinates": [ -75.637708, 6.145238 ] } },
{ "type": "Feature", "properties": { "id": "SABANETA", "label": "SABANETA", "code": "5631", "community": 6, "pagerank": 0.013802988066192554, "weight": 1.3802988066192554, "size": 1380.2988066192554, "color_r": 165, "color_g": 42, "color_b": 42, "color_a": 1.0 }, "geometry": { "type": "Point", "coordinates": [ -75.615479, 6.149903 ] } },
{ "type": "Feature", "properties": { "id": "CALDAS", "label": "CALDAS", "code": "5129", "community": 6, "pagerank": 0.009846750970228052, "weight": 0.9846750970228052, "size": 984.67509702280518, "color_r": 165, "color_g": 42, "color_b": 42, "color_a": 1.0 }, "geometry": { "type": "Point", "coordinates": [ -75.633673, 6.091077 ] } },
{ "type": "Feature", "properties": { "id": "LA CEJA", "label": "LA CEJA", "code": "5376", "community": 1, "pagerank": 0.0082922547651151195, "weight": 0.82922547651151191, "size": 829.22547651151194, "color_r": 0, "color_g": 0, "color_b": 255, "color_a": 1.0 }, "geometry": { "type": "Point", "coordinates": [ -75.429433, 6.028062 ] } },
{ "type": "Feature", "properties": { "id": "LA UNIÓN", "label": "LA UNIÓN", "code": "5400", "community": 1, "pagerank": 0.0066211459040727855, "weight": 0.6621145904072786, "size": 662.11459040727857, "color_r": 0, "color_g": 0, "color_b": 255, "color_a": 1.0 }, "geometry": { "type": "Point", "coordinates": [ -75.360874, 5.973845 ] } },
{ "type": "Feature", "properties": { "id": "ABEJORRAL", "label": "ABEJORRAL", "code": "5002", "community": 1, "pagerank": 0.0090703695316203311, "weight": 0.90703695316203314, "size": 907.03695316203311, "color_r": 0, "color_g": 0, "color_b": 255, "color_a": 1.0 }, "geometry": { "type": "Point", "coordinates": [ -75.428739, 5.789315 ] } },
{ "type": "Feature", "properties": { "id": "AMAGÁ", "label": "AMAGÁ", "code": "5030", "community": 4, "pagerank": 0.014184990312356831, "weight": 1.4184990312356831, "size": 1418.4990312356831, "color_r": 0, "color_g": 255, "color_b": 255, "color_a": 1.0 }, "geometry": { "type": "Point", "coordinates": [ -75.702188, 6.038708 ] } },
{ "type": "Feature", "properties": { "id": "TITIRIBÍ", "label": "TITIRIBÍ", "code": "5809", "community": 4, "pagerank": 0.0083994872542999741, "weight": 0.83994872542999743, "size": 839.94872542999735, "color_r": 0, "color_g": 255, "color_b": 255, "color_a": 1.0 }, "geometry": { "type": "Point", "coordinates": [ -75.791887, 6.062391 ] } },
{ "type": "Feature", "properties": { "id": "SANTA BÁRBARA", "label": "SANTA BÁRBARA", "code": "5679", "community": 6, "pagerank": 0.014661196857715289, "weight": 1.4661196857715288, "size": 1466.1196857715288, "color_r": 165, "color_g": 42, "color_b": 42, "color_a": 1.0 }, "geometry": { "type": "Point", "coordinates": [ -75.567351, 5.875527 ] } },
{ "type": "Feature", "properties": { "id": "CIUDAD BOLÍVAR", "label": "CIUDAD BOLÍVAR", "code": "5101", "community": 5, "pagerank": 0.0065046053885805828, "weight": 0.65046053885805832, "size": 650.46053885805827, "color_r": 255, "color_g": 192, "color_b": 203, "color_a": 1.0 }, "geometry": { "type": "Point", "coordinates": [ -76.021509, 5.850273 ] } },
{ "type": "Feature", "properties": { "id": "FREDONIA", "label": "FREDONIA", "code": "5282", "community": 6, "pagerank": 0.0093777126046079781, "weight": 0.93777126046079784, "size": 937.77126046079786, "color_r": 165, "color_g": 42, "color_b": 42, "color_a": 1.0 }, "geometry": { "type": "Point", "coordinates": [ -75.675072, 5.928039 ] } },
{ "type": "Feature", "properties": { "id": "MONTEBELLO", "label": "MONTEBELLO", "code": "5467", "community": 6, "pagerank": 0.0060121177641130836, "weight": 0.60121177641130841, "size": 601.21177641130839, "color_r": 165, "color_g": 42, "color_b": 42, "color_a": 1.0 }, "geometry": { "type": "Point", "coordinates": [ -75.523455, 5.946313 ] } },
{ "type": "Feature", "properties": { "id": "SAN LUIS", "label": "SAN LUIS", "code": "5660", "community": 1, "pagerank": 0.0074103572367623287, "weight": 0.74103572367623283, "size": 741.03572367623292, "color_r": 0, "color_g": 0, "color_b": 255, "color_a": 1.0 }, "geometry": { "type": "Point", "coordinates": [ -74.993619, 6.043017 ] } },
{ "type": "Feature", "properties": { "id": "SONSÓN", "label": "SONSÓN", "code": "5756", "community": 8, "pagerank": 0.0083628790393372454, "weight": 0.83628790393372454, "size": 836.28790393372458, "color_r": 0, "color_g": 0, "color_b": 0, "color_a": 1.0 }, "geometry": { "type": "Point", "coordinates": [ -75.309596, 5.714851 ] } },
{ "type": "Feature", "properties": { "id": "VENECIA", "label": "VENECIA", "code": "5861", "community": 6, "pagerank": 0.0083642884378224043, "weight": 0.83642884378224047, "size": 836.42884378224039, "color_r": 165, "color_g": 42, "color_b": 42, "color_a": 1.0 }, "geometry": { "type": "Point", "coordinates": [ -75.735544, 5.964693 ] } },
{ "type": "Feature", "properties": { "id": "SAN FRANCISCO", "label": "SAN FRANCISCO", "code": "5652", "community": 8, "pagerank": 0.0071495692286852371, "weight": 0.71495692286852375, "size": 714.95692286852375, "color_r": 0, "color_g": 0, "color_b": 0, "color_a": 1.0 }, "geometry": { "type": "Point", "coordinates": [ -75.101562, 5.963476 ] } },
{ "type": "Feature", "properties": { "id": "JERICÓ", "label": "JERICÓ", "code": "5368", "community": 5, "pagerank": 0.008771959673289649, "weight": 0.87719596732896488, "size": 877.19596732896491, "color_r": 255, "color_g": 192, "color_b": 203, "color_a": 1.0 }, "geometry": { "type": "Point", "coordinates": [ -75.785499, 5.789748 ] } },
{ "type": "Feature", "properties": { "id": "TARSO", "label": "TARSO", "code": "5792", "community": 5, "pagerank": 0.0073496793506162431, "weight": 0.73496793506162428, "size": 734.9679350616243, "color_r": 255, "color_g": 192, "color_b": 203, "color_a": 1.0 }, "geometry": { "type": "Point", "coordinates": [ -75.822956, 5.864542 ] } },
{ "type": "Feature", "properties": { "id": "TÁMESIS", "label": "TÁMESIS", "code": "5789", "community": 5, "pagerank": 0.0087144357498440683, "weight": 0.87144357498440683, "size": 871.44357498440684, "color_r": 255, "color_g": 192, "color_b": 203, "color_a": 1.0 }, "geometry": { "type": "Point", "coordinates": [ -75.714429, 5.664645 ] } },
{ "type": "Feature", "properties": { "id": "MACEO", "label": "MACEO", "code": "5425", "community": 100, "pagerank": 0.0044642934077116989, "weight": 0.44642934077116991, "size": 446.4293407711699, "color_r": 106, "color_g": 90, "color_b": 205, "color_a": 1.0 }, "geometry": { "type": "Point", "coordinates": [ -74.78716, 6.552116 ] } },
{ "type": "Feature", "properties": { "id": "PUEBLORRICO", "label": "PUEBLORRICO", "code": "5576", "community": 5, "pagerank": 0.0070705112868113089, "weight": 0.70705112868113085, "size": 707.05112868113088, "color_r": 255, "color_g": 192, "color_b": 203, "color_a": 1.0 }, "geometry": { "type": "Point", "coordinates": [ -75.839903, 5.79158 ] } },
{ "type": "Feature", "properties": { "id": "ARGELIA", "label": "ARGELIA", "code": "5055", "community": 8, "pagerank": 0.0076611043296748874, "weight": 0.76611043296748871, "size": 766.11043296748869, "color_r": 0, "color_g": 0, "color_b": 0, "color_a": 1.0 }, "geometry": { "type": "Point", "coordinates": [ -75.14107, 5.731474 ] } },
{ "type": "Feature", "properties": { "id": "NARIÑO", "label": "NARIÑO", "code": "5483", "community": 8, "pagerank": 0.0037732404917297973, "weight": 0.37732404917297974, "size": 377.3240491729797, "color_r": 0, "color_g": 0, "color_b": 0, "color_a": 1.0 }, "geometry": { "type": "Point", "coordinates": [ -75.176262, 5.610777 ] } },
{ "type": "Feature", "properties": { "id": "LA PINTADA", "label": "LA PINTADA", "code": "5390", "community": 100, "pagerank": 0.010151270145856813, "weight": 1.0151270145856812, "size": 1015.1270145856813, "color_r": 106, "color_g": 90, "color_b": 205, "color_a": 1.0 }, "geometry": { "type": "Point", "coordinates": [ -75.60781, 5.743808 ] } },
{ "type": "Feature", "properties": { "id": "HISPANIA", "label": "HISPANIA", "code": "5353", "community": 5, "pagerank": 0.0067006414697508452, "weight": 0.67006414697508454, "size": 670.06414697508455, "color_r": 255, "color_g": 192, "color_b": 203, "color_a": 1.0 }, "geometry": { "type": "Point", "coordinates": [ -75.906587, 5.799461 ] } },
{ "type": "Feature", "properties": { "id": "ANDES", "label": "ANDES", "code": "5034", "community": 5, "pagerank": 0.006000460267265916, "weight": 0.60004602672659157, "size": 600.04602672659155, "color_r": 255, "color_g": 192, "color_b": 203, "color_a": 1.0 }, "geometry": { "type": "Point", "coordinates": [ -75.878828, 5.657194 ] } },
{ "type": "Feature", "properties": { "id": "BETANIA", "label": "BETANIA", "code": "5091", "community": 5, "pagerank": 0.0059867562224356187, "weight": 0.59867562224356186, "size": 598.67562224356186, "color_r": 255, "color_g": 192, "color_b": 203, "color_a": 1.0 }, "geometry": { "type": "Point", "coordinates": [ -75.97679, 5.74615 ] } },
{ "type": "Feature", "properties": { "id": "VALPARAÍSO", "label": "VALPARAÍSO", "code": "5856", "community": 5, "pagerank": 0.013838790904812338, "weight": 1.3838790904812337, "size": 1383.8790904812338, "color_r": 255, "color_g": 192, "color_b": 203, "color_a": 1.0 }, "geometry": { "type": "Point", "coordinates": [ -75.624452, 5.614555 ] } },
{ "type": "Feature", "properties": { "id": "PUERTO NARE", "label": "PUERTO NARE", "code": "5585", "community": 100, "pagerank": 0.0042951588626759614, "weight": 0.42951588626759613, "size": 429.51588626759616, "color_r": 106, "color_g": 90, "color_b": 205, "color_a": 1.0 }, "geometry": { "type": "Point", "coordinates": [ -74.583012, 6.186025 ] } },
{ "type": "Feature", "properties": { "id": "CARAMANTA", "label": "CARAMANTA", "code": "5145", "community": 5, "pagerank": 0.0054980369158026815, "weight": 0.54980369158026821, "size": 549.80369158026815, "color_r": 255, "color_g": 192, "color_b": 203, "color_a": 1.0 }, "geometry": { "type": "Point", "coordinates": [ -75.643868, 5.54853 ] } },
{ "type": "Feature", "properties": { "id": "JARDÍN", "label": "JARDÍN", "code": "5364", "community": 5, "pagerank": 0.0064256699507535169, "weight": 0.64256699507535164, "size": 642.56699507535166, "color_r": 255, "color_g": 192, "color_b": 203, "color_a": 1.0 }, "geometry": { "type": "Point", "coordinates": [ -75.818982, 5.597542 ] } },
{ "type": "Feature", "properties": { "id": "CARACOLÍ", "label": "CARACOLÍ", "code": "5142", "community": 100, "pagerank": 0.013179415155640231, "weight": 1.3179415155640231, "size": 1317.9415155640231, "color_r": 106, "color_g": 90, "color_b": 205, "color_a": 1.0 }, "geometry": { "type": "Point", "coordinates": [ -74.757421, 6.409829 ] } }
]
}
