{
"type": "FeatureCollection",
"name": "fig2_undirected_Pperuviana_12km_10steps_10reps_municipalities_network_v2_nodes",
"crs": { "type": "name", "properties": { "name": "urn:ogc:def:crs:OGC:1.3:CRS84" } },
"features": [
{ "type": "Feature", "properties": { "id": "ITUANGO", "label": "ITUANGO", "code": "5361", "community": 10, "pagerank": 0.0099098348258128306, "weight": 0.9909834825812831, "size": 990.98348258128306, "color_r": 0, "color_g": 255, "color_b": 0, "color_a": 1.0 }, "geometry": { "type": "Point", "coordinates": [ -75.764673, 7.171629 ] } },
{ "type": "Feature", "properties": { "id": "VALDIVIA", "label": "VALDIVIA", "code": "5854", "community": 9, "pagerank": 0.012650149882149542, "weight": 1.2650149882149542, "size": 1265.0149882149542, "color_r": 128, "color_g": 128, "color_b": 128, "color_a": 1.0 }, "geometry": { "type": "Point", "coordinates": [ -75.439274, 7.1652 ] } },
{ "type": "Feature", "properties": { "id": "TARAZÁ", "label": "TARAZÁ", "code": "5790", "community": 12, "pagerank": 0.0074243567691807677, "weight": 0.74243567691807677, "size": 742.43567691807675, "color_r": 75, "color_g": 0, "color_b": 130, "color_a": 1.0 }, "geometry": { "type": "Point", "coordinates": [ -75.401407, 7.580127 ] } },
{ "type": "Feature", "properties": { "id": "BRICEÑO", "label": "BRICEÑO", "code": "5107", "community": 9, "pagerank": 0.0068291214716275474, "weight": 0.68291214716275472, "size": 682.91214716275476, "color_r": 128, "color_g": 128, "color_b": 128, "color_a": 1.0 }, "geometry": { "type": "Point", "coordinates": [ -75.55036, 7.112803 ] } },
{ "type": "Feature", "properties": { "id": "MUTATÁ", "label": "MUTATÁ", "code": "5480", "community": 10, "pagerank": 0.0033694328655154613, "weight": 0.33694328655154615, "size": 336.94328655154612, "color_r": 0, "color_g": 255, "color_b": 0, "color_a": 1.0 }, "geometry": { "type": "Point", "coordinates": [ -76.435875, 7.242875 ] } },
{ "type": "Feature", "properties": { "id": "DABEIBA", "label": "DABEIBA", "code": "5234", "community": 2, "pagerank": 0.0082870331016176302, "weight": 0.82870331016176302, "size": 828.70331016176306, "color_r": 255, "color_g": 165, "color_b": 0, "color_a": 1.0 }, "geometry": { "type": "Point", "coordinates": [ -76.261614, 6.998112 ] } },
{ "type": "Feature", "properties": { "id": "PEQUE", "label": "PEQUE", "code": "5543", "community": 2, "pagerank": 0.0088257782130081782, "weight": 0.88257782130081786, "size": 882.57782130081785, "color_r": 255, "color_g": 165, "color_b": 0, "color_a": 1.0 }, "geometry": { "type": "Point", "coordinates": [ -75.910357, 7.021029 ] } },
{ "type": "Feature", "properties": { "id": "URAMITA", "label": "URAMITA", "code": "5842", "community": 2, "pagerank": 0.0075268027032623442, "weight": 0.75268027032623441, "size": 752.68027032623445, "color_r": 255, "color_g": 165, "color_b": 0, "color_a": 1.0 }, "geometry": { "type": "Point", "coordinates": [ -76.173284, 6.898393 ] } },
{ "type": "Feature", "properties": { "id": "YARUMAL", "label": "YARUMAL", "code": "5887", "community": 9, "pagerank": 0.017059600251269867, "weight": 1.7059600251269866, "size": 1705.9600251269867, "color_r": 128, "color_g": 128, "color_b": 128, "color_a": 1.0 }, "geometry": { "type": "Point", "coordinates": [ -75.418828, 6.963832 ] } },
{ "type": "Feature", "properties": { "id": "SAN ANDRÉS DE CUERQUÍA", "label": "SAN ANDRÉS DE CUERQUÍA", "code": "5647", "community": 3, "pagerank": 0.012411023031543707, "weight": 1.2411023031543706, "size": 1241.1023031543707, "color_r": 128, "color_g": 0, "color_b": 128, "color_a": 1.0 }, "geometry": { "type": "Point", "coordinates": [ -75.674564, 6.916676 ] } },
{ "type": "Feature", "properties": { "id": "TOLEDO", "label": "TOLEDO", "code": "5819", "community": 3, "pagerank": 0.013154909929691242, "weight": 1.3154909929691241, "size": 1315.4909929691241, "color_r": 128, "color_g": 0, "color_b": 128, "color_a": 1.0 }, "geometry": { "type": "Point", "coordinates": [ -75.692281, 7.010328 ] } },
{ "type": "Feature", "properties": { "id": "BURITICÁ", "label": "BURITICÁ", "code": "5113", "community": 2, "pagerank": 0.010344313488529065, "weight": 1.0344313488529064, "size": 1034.4313488529065, "color_r": 255, "color_g": 165, "color_b": 0, "color_a": 1.0 }, "geometry": { "type": "Point", "coordinates": [ -75.907, 6.720759 ] } },
{ "type": "Feature", "properties": { "id": "SABANALARGA", "label": "SABANALARGA", "code": "5628", "community": 3, "pagerank": 0.0057410322788818205, "weight": 0.57410322788818202, "size": 574.103227888182, "color_r": 128, "color_g": 0, "color_b": 128, "color_a": 1.0 }, "geometry": { "type": "Point", "coordinates": [ -75.816645, 6.850028 ] } },
{ "type": "Feature", "properties": { "id": "CAÑASGORDAS", "label": "CAÑASGORDAS", "code": "5138", "community": 2, "pagerank": 0.0077616709345199259, "weight": 0.77616709345199264, "size": 776.16709345199263, "color_r": 255, "color_g": 165, "color_b": 0, "color_a": 1.0 }, "geometry": { "type": "Point", "coordinates": [ -76.028228, 6.753859 ] } },
{ "type": "Feature", "properties": { "id": "SAN JOSÉ DE LA MONTAÑA", "label": "SAN JOSÉ DE LA MONTAÑA", "code": "5658", "community": 3, "pagerank": 0.0056346437613480904, "weight": 0.56346437613480904, "size": 563.46437613480907, "color_r": 128, "color_g": 0, "color_b": 128, "color_a": 1.0 }, "geometry": { "type": "Point", "coordinates": [ -75.683352, 6.85009 ] } },
{ "type": "Feature", "properties": { "id": "ANGOSTURA", "label": "ANGOSTURA", "code": "5038", "community": 3, "pagerank": 0.011678635091199227, "weight": 1.1678635091199228, "size": 1167.8635091199226, "color_r": 128, "color_g": 0, "color_b": 128, "color_a": 1.0 }, "geometry": { "type": "Point", "coordinates": [ -75.335116, 6.885175 ] } },
{ "type": "Feature", "properties": { "id": "CAMPAMENTO", "label": "CAMPAMENTO", "code": "5134", "community": 3, "pagerank": 0.0078435511668852303, "weight": 0.78435511668852298, "size": 784.35511668852303, "color_r": 128, "color_g": 0, "color_b": 128, "color_a": 1.0 }, "geometry": { "type": "Point", "coordinates": [ -75.298091, 6.979771 ] } },
{ "type": "Feature", "properties": { "id": "CAROLINA", "label": "CAROLINA", "code": "5150", "community": 3, "pagerank": 0.0076970158775565211, "weight": 0.76970158775565212, "size": 769.7015877556521, "color_r": 128, "color_g": 0, "color_b": 128, "color_a": 1.0 }, "geometry": { "type": "Point", "coordinates": [ -75.283192, 6.725995 ] } },
{ "type": "Feature", "properties": { "id": "GUADALUPE", "label": "GUADALUPE", "code": "5315", "community": 3, "pagerank": 0.008095600282737106, "weight": 0.80956002827371054, "size": 809.5600282737106, "color_r": 128, "color_g": 0, "color_b": 128, "color_a": 1.0 }, "geometry": { "type": "Point", "coordinates": [ -75.239862, 6.815069 ] } },
{ "type": "Feature", "properties": { "id": "SANTA ROSA DE OSOS", "label": "SANTA ROSA DE OSOS", "code": "5686", "community": 3, "pagerank": 0.014184824829495209, "weight": 1.4184824829495208, "size": 1418.482482949521, "color_r": 128, "color_g": 0, "color_b": 128, "color_a": 1.0 }, "geometry": { "type": "Point", "coordinates": [ -75.460723, 6.643366 ] } },
{ "type": "Feature", "properties": { "id": "FRONTINO", "label": "FRONTINO", "code": "5284", "community": 2, "pagerank": 0.0038439526242349262, "weight": 0.38439526242349265, "size": 384.39526242349262, "color_r": 255, "color_g": 165, "color_b": 0, "color_a": 1.0 }, "geometry": { "type": "Point", "coordinates": [ -76.130765, 6.776066 ] } },
{ "type": "Feature", "properties": { "id": "GIRALDO", "label": "GIRALDO", "code": "5306", "community": 2, "pagerank": 0.004743370225585109, "weight": 0.4743370225585109, "size": 474.33702255851091, "color_r": 255, "color_g": 165, "color_b": 0, "color_a": 1.0 }, "geometry": { "type": "Point", "coordinates": [ -75.952158, 6.680808 ] } },
{ "type": "Feature", "properties": { "id": "LIBORINA", "label": "LIBORINA", "code": "5411", "community": 3, "pagerank": 0.0062422692028033947, "weight": 0.62422692028033944, "size": 624.22692028033941, "color_r": 128, "color_g": 0, "color_b": 128, "color_a": 1.0 }, "geometry": { "type": "Point", "coordinates": [ -75.812838, 6.677316 ] } },
{ "type": "Feature", "properties": { "id": "BELMIRA", "label": "BELMIRA", "code": "5086", "community": 7, "pagerank": 0.018961220632946058, "weight": 1.8961220632946056, "size": 1896.1220632946058, "color_r": 255, "color_g": 255, "color_b": 0, "color_a": 1.0 }, "geometry": { "type": "Point", "coordinates": [ -75.667779, 6.606319 ] } },
{ "type": "Feature", "properties": { "id": "ABRIAQUÍ", "label": "ABRIAQUÍ", "code": "5004", "community": 2, "pagerank": 0.0077355507942132749, "weight": 0.77355507942132751, "size": 773.55507942132749, "color_r": 255, "color_g": 165, "color_b": 0, "color_a": 1.0 }, "geometry": { "type": "Point", "coordinates": [ -76.064304, 6.632282 ] } },
{ "type": "Feature", "properties": { "id": "ANORÍ", "label": "ANORÍ", "code": "5040", "community": 3, "pagerank": 0.0084143421384628089, "weight": 0.84143421384628092, "size": 841.43421384628084, "color_r": 128, "color_g": 0, "color_b": 128, "color_a": 1.0 }, "geometry": { "type": "Point", "coordinates": [ -75.148355, 7.074703 ] } },
{ "type": "Feature", "properties": { "id": "SANTA FÉ DE ANTIOQUIA", "label": "SANTA FÉ DE ANTIOQUIA", "code": "5042", "community": 2, "pagerank": 0.0087512843281476443, "weight": 0.87512843281476438, "size": 875.12843281476444, "color_r": 255, "color_g": 165, "color_b": 0, "color_a": 1.0 }, "geometry": { "type": "Point", "coordinates": [ -75.826648, 6.556484 ] } },
{ "type": "Feature", "properties": { "id": "GÓMEZ PLATA", "label": "GÓMEZ PLATA", "code": "5310", "community": 3, "pagerank": 0.010743153835519699, "weight": 1.0743153835519699, "size": 1074.3153835519699, "color_r": 128, "color_g": 0, "color_b": 128, "color_a": 1.0 }, "geometry": { "type": "Point", "coordinates": [ -75.220018, 6.683269 ] } },
{ "type": "Feature", "properties": { "id": "AMALFI", "label": "AMALFI", "code": "5031", "community": 11, "pagerank": 0.010929927844112794, "weight": 1.0929927844112794, "size": 1092.9927844112794, "color_r": 0, "color_g": 128, "color_b": 128, "color_a": 1.0 }, "geometry": { "type": "Point", "coordinates": [ -75.077501, 6.909655 ] } },
{ "type": "Feature", "properties": { "id": "ENTRERRÍOS", "label": "ENTRERRÍOS", "code": "5264", "community": 7, "pagerank": 0.02944303514817459, "weight": 2.944303514817459, "size": 2944.303514817459, "color_r": 255, "color_g": 255, "color_b": 0, "color_a": 1.0 }, "geometry": { "type": "Point", "coordinates": [ -75.517685, 6.566273 ] } },
{ "type": "Feature", "properties": { "id": "DONMATÍAS", "label": "DONMATÍAS", "code": "5237", "community": 7, "pagerank": 0.013973978536551766, "weight": 1.3973978536551765, "size": 1397.3978536551767, "color_r": 255, "color_g": 255, "color_b": 0, "color_a": 1.0 }, "geometry": { "type": "Point", "coordinates": [ -75.39263, 6.485603 ] } },
{ "type": "Feature", "properties": { "id": "URRAO", "label": "URRAO", "code": "5847", "community": 2, "pagerank": 0.018192253203313222, "weight": 1.8192253203313222, "size": 1819.2253203313223, "color_r": 255, "color_g": 165, "color_b": 0, "color_a": 1.0 }, "geometry": { "type": "Point", "coordinates": [ -76.133951, 6.317343 ] } },
{ "type": "Feature", "properties": { "id": "CAICEDO", "label": "CAICEDO", "code": "5125", "community": 2, "pagerank": 0.0080798535227055001, "weight": 0.80798535227055002, "size": 807.98535227055004, "color_r": 255, "color_g": 165, "color_b": 0, "color_a": 1.0 }, "geometry": { "type": "Point", "coordinates": [ -75.98293, 6.405607 ] } },
{ "type": "Feature", "properties": { "id": "YOLOMBÓ", "label": "YOLOMBÓ", "code": "5890", "community": 11, "pagerank": 0.010424427810965238, "weight": 1.0424427810965238, "size": 1042.4427810965237, "color_r": 0, "color_g": 128, "color_b": 128, "color_a": 1.0 }, "geometry": { "type": "Point", "coordinates": [ -75.013385, 6.594511 ] } },
{ "type": "Feature", "properties": { "id": "OLAYA", "label": "OLAYA", "code": "5501", "community": 3, "pagerank": 0.0089453859029542358, "weight": 0.8945385902954236, "size": 894.53859029542355, "color_r": 128, "color_g": 0, "color_b": 128, "color_a": 1.0 }, "geometry": { "type": "Point", "coordinates": [ -75.811773, 6.626492 ] } },
{ "type": "Feature", "properties": { "id": "SOPETRÁN", "label": "SOPETRÁN", "code": "5761", "community": 3, "pagerank": 0.010587415081127259, "weight": 1.0587415081127258, "size": 1058.7415081127258, "color_r": 128, "color_g": 0, "color_b": 128, "color_a": 1.0 }, "geometry": { "type": "Point", "coordinates": [ -75.747378, 6.500745 ] } },
{ "type": "Feature", "properties": { "id": "SAN JERÓNIMO", "label": "SAN JERÓNIMO", "code": "5656", "community": 4, "pagerank": 0.0075308498038367489, "weight": 0.75308498038367488, "size": 753.08498038367486, "color_r": 0, "color_g": 255, "color_b": 255, "color_a": 1.0 }, "geometry": { "type": "Point", "coordinates": [ -75.726975, 6.44809 ] } },
{ "type": "Feature", "properties": { "id": "SAN PEDRO DE LOS MILAGROS", "label": "SAN PEDRO DE LOS MILAGROS", "code": "5664", "community": 7, "pagerank": 0.011000726888990136, "weight": 1.1000726888990136, "size": 1100.0726888990137, "color_r": 255, "color_g": 255, "color_b": 0, "color_a": 1.0 }, "geometry": { "type": "Point", "coordinates": [ -75.556743, 6.46012 ] } },
{ "type": "Feature", "properties": { "id": "BARBOSA", "label": "BARBOSA", "code": "5079", "community": 1, "pagerank": 0.010342737292914022, "weight": 1.0342737292914022, "size": 1034.2737292914023, "color_r": 0, "color_g": 0, "color_b": 255, "color_a": 1.0 }, "geometry": { "type": "Point", "coordinates": [ -75.331627, 6.439195 ] } },
{ "type": "Feature", "properties": { "id": "GIRARDOTA", "label": "GIRARDOTA", "code": "5308", "community": 1, "pagerank": 0.0073574573463014272, "weight": 0.7357457346301427, "size": 735.74573463014269, "color_r": 0, "color_g": 0, "color_b": 255, "color_a": 1.0 }, "geometry": { "type": "Point", "coordinates": [ -75.444238, 6.379472 ] } },
{ "type": "Feature", "properties": { "id": "BELLO", "label": "BELLO", "code": "5088", "community": 4, "pagerank": 0.0093736362395158163, "weight": 0.93736362395158168, "size": 937.36362395158164, "color_r": 0, "color_g": 255, "color_b": 255, "color_a": 1.0 }, "geometry": { "type": "Point", "coordinates": [ -75.555245, 6.333587 ] } },
{ "type": "Feature", "properties": { "id": "COPACABANA", "label": "COPACABANA", "code": "5212", "community": 4, "pagerank": 0.01008394575407987, "weight": 1.008394575407987, "size": 1008.394575407987, "color_r": 0, "color_g": 255, "color_b": 255, "color_a": 1.0 }, "geometry": { "type": "Point", "coordinates": [ -75.509384, 6.348557 ] } },
{ "type": "Feature", "properties": { "id": "SANTO DOMINGO", "label": "SANTO DOMINGO", "code": "5690", "community": 1, "pagerank": 0.010404682494066947, "weight": 1.0404682494066948, "size": 1040.4682494066947, "color_r": 0, "color_g": 0, "color_b": 255, "color_a": 1.0 }, "geometry": { "type": "Point", "coordinates": [ -75.164903, 6.473032 ] } },
{ "type": "Feature", "properties": { "id": "ANZÁ", "label": "ANZÁ", "code": "5044", "community": 2, "pagerank": 0.011195998980230919, "weight": 1.1195998980230919, "size": 1119.599898023092, "color_r": 255, "color_g": 165, "color_b": 0, "color_a": 1.0 }, "geometry": { "type": "Point", "coordinates": [ -75.854442, 6.302641 ] } },
{ "type": "Feature", "properties": { "id": "GUARNE", "label": "GUARNE", "code": "5318", "community": 1, "pagerank": 0.0081472613257040759, "weight": 0.8147261325704076, "size": 814.72613257040757, "color_r": 0, "color_g": 0, "color_b": 255, "color_a": 1.0 }, "geometry": { "type": "Point", "coordinates": [ -75.441612, 6.27787 ] } },
{ "type": "Feature", "properties": { "id": "MEDELLÍN", "label": "MEDELLÍN", "code": "5001", "community": 4, "pagerank": 0.011979456764317418, "weight": 1.1979456764317418, "size": 1197.9456764317417, "color_r": 0, "color_g": 255, "color_b": 255, "color_a": 1.0 }, "geometry": { "type": "Point", "coordinates": [ -75.581775, 6.246631 ] } },
{ "type": "Feature", "properties": { "id": "VEGACHÍ", "label": "VEGACHÍ", "code": "5858", "community": 100, "pagerank": 0.0059433849404947788, "weight": 0.59433849404947792, "size": 594.33849404947784, "color_r": 106, "color_g": 90, "color_b": 205, "color_a": 1.0 }, "geometry": { "type": "Point", "coordinates": [ -74.798714, 6.773525 ] } },
{ "type": "Feature", "properties": { "id": "SAN VICENTE FERRER", "label": "SAN VICENTE FERRER", "code": "5674", "community": 1, "pagerank": 0.011158426523535651, "weight": 1.1158426523535652, "size": 1115.8426523535652, "color_r": 0, "color_g": 0, "color_b": 255, "color_a": 1.0 }, "geometry": { "type": "Point", "coordinates": [ -75.332616, 6.282164 ] } },
{ "type": "Feature", "properties": { "id": "CISNEROS", "label": "CISNEROS", "code": "5190", "community": 1, "pagerank": 0.0051493188575891125, "weight": 0.51493188575891125, "size": 514.93188575891122, "color_r": 0, "color_g": 0, "color_b": 255, "color_a": 1.0 }, "geometry": { "type": "Point", "coordinates": [ -75.087047, 6.537829 ] } },
{ "type": "Feature", "properties": { "id": "YALÍ", "label": "YALÍ", "code": "5885", "community": 100, "pagerank": 0.0051018906856439353, "weight": 0.5101890685643935, "size": 510.18906856439355, "color_r": 106, "color_g": 90, "color_b": 205, "color_a": 1.0 }, "geometry": { "type": "Point", "coordinates": [ -74.840059, 6.676554 ] } },
{ "type": "Feature", "properties": { "id": "CONCEPCIÓN", "label": "CONCEPCIÓN", "code": "5206", "community": 1, "pagerank": 0.011414060749205869, "weight": 1.141406074920587, "size": 1141.4060749205869, "color_r": 0, "color_g": 0, "color_b": 255, "color_a": 1.0 }, "geometry": { "type": "Point", "coordinates": [ -75.257587, 6.394348 ] } },
{ "type": "Feature", "properties": { "id": "ALEJANDRÍA", "label": "ALEJANDRÍA", "code": "5021", "community": 1, "pagerank": 0.0097908145103992403, "weight": 0.97908145103992406, "size": 979.08145103992399, "color_r": 0, "color_g": 0, "color_b": 255, "color_a": 1.0 }, "geometry": { "type": "Point", "coordinates": [ -75.141346, 6.376061 ] } },
{ "type": "Feature", "properties": { "id": "SAN ROQUE", "label": "SAN ROQUE", "code": "5670", "community": 1, "pagerank": 0.0087376126293403598, "weight": 0.873761262934036, "size": 873.76126293403604, "color_r": 0, "color_g": 0, "color_b": 255, "color_a": 1.0 }, "geometry": { "type": "Point", "coordinates": [ -75.019109, 6.485939 ] } },
{ "type": "Feature", "properties": { "id": "EBÉJICO", "label": "EBÉJICO", "code": "5240", "community": 4, "pagerank": 0.0085163516486021495, "weight": 0.85163516486021495, "size": 851.6351648602149, "color_r": 0, "color_g": 255, "color_b": 255, "color_a": 1.0 }, "geometry": { "type": "Point", "coordinates": [ -75.766413, 6.325615 ] } },
{ "type": "Feature", "properties": { "id": "HELICONIA", "label": "HELICONIA", "code": "5347", "community": 4, "pagerank": 0.0088153894746059829, "weight": 0.88153894746059824, "size": 881.53894746059825, "color_r": 0, "color_g": 255, "color_b": 255, "color_a": 1.0 }, "geometry": { "type": "Point", "coordinates": [ -75.734322, 6.206757 ] } },
{ "type": "Feature", "properties": { "id": "BETULIA", "label": "BETULIA", "code": "5093", "community": 2, "pagerank": 0.01115343498213007, "weight": 1.115343498213007, "size": 1115.343498213007, "color_r": 255, "color_g": 165, "color_b": 0, "color_a": 1.0 }, "geometry": { "type": "Point", "coordinates": [ -75.984452, 6.115208 ] } },
{ "type": "Feature", "properties": { "id": "PEÑOL", "label": "PEÑOL", "code": "5541", "community": 1, "pagerank": 0.0087258457809128633, "weight": 0.87258457809128631, "size": 872.58457809128629, "color_r": 0, "color_g": 0, "color_b": 255, "color_a": 1.0 }, "geometry": { "type": "Point", "coordinates": [ -75.242693, 6.219349 ] } },
{ "type": "Feature", "properties": { "id": "MARINILLA", "label": "MARINILLA", "code": "5440", "community": 1, "pagerank": 0.0086145608571472059, "weight": 0.86145608571472054, "size": 861.45608571472064, "color_r": 0, "color_g": 0, "color_b": 255, "color_a": 1.0 }, "geometry": { "type": "Point", "coordinates": [ -75.339345, 6.173995 ] } },
{ "type": "Feature", "properties": { "id": "RIONEGRO", "label": "RIONEGRO", "code": "5615", "community": 1, "pagerank": 0.0087202880292831797, "weight": 0.87202880292831797, "size": 872.02880292831799, "color_r": 0, "color_g": 0, "color_b": 255, "color_a": 1.0 }, "geometry": { "type": "Point", "coordinates": [ -75.377316, 6.147148 ] } },
{ "type": "Feature", "properties": { "id": "ENVIGADO", "label": "ENVIGADO", "code": "5266", "community": 6, "pagerank": 0.02053964613951284, "weight": 2.0539646139512842, "size": 2053.9646139512843, "color_r": 165, "color_g": 42, "color_b": 42, "color_a": 1.0 }, "geometry": { "type": "Point", "coordinates": [ -75.582192, 6.166695 ] } },
{ "type": "Feature", "properties": { "id": "RETIRO", "label": "RETIRO", "code": "5607", "community": 6, "pagerank": 0.014400610033503614, "weight": 1.4400610033503614, "size": 1440.0610033503615, "color_r": 165, "color_g": 42, "color_b": 42, "color_a": 1.0 }, "geometry": { "type": "Point", "coordinates": [ -75.501301, 6.062454 ] } },
{ "type": "Feature", "properties": { "id": "GUATAPÉ", "label": "GUATAPÉ", "code": "5321", "community": 1, "pagerank": 0.01144465569270911, "weight": 1.1444655692709111, "size": 1144.4655692709109, "color_r": 0, "color_g": 0, "color_b": 255, "color_a": 1.0 }, "geometry": { "type": "Point", "coordinates": [ -75.160041, 6.232461 ] } },
{ "type": "Feature", "properties": { "id": "SAN RAFAEL", "label": "SAN RAFAEL", "code": "5667", "community": 1, "pagerank": 0.008629107340973316, "weight": 0.86291073409733166, "size": 862.91073409733156, "color_r": 0, "color_g": 0, "color_b": 255, "color_a": 1.0 }, "geometry": { "type": "Point", "coordinates": [ -75.02849, 6.293759 ] } },
{ "type": "Feature", "properties": { "id": "SAN CARLOS", "label": "SAN CARLOS", "code": "5649", "community": 1, "pagerank": 0.0079762221969343055, "weight": 0.7976222196934305, "size": 797.62221969343057, "color_r": 0, "color_g": 0, "color_b": 255, "color_a": 1.0 }, "geometry": { "type": "Point", "coordinates": [ -74.988097, 6.187746 ] } },
{ "type": "Feature", "properties": { "id": "GRANADA", "label": "GRANADA", "code": "5313", "community": 1, "pagerank": 0.010320728024012857, "weight": 1.0320728024012857, "size": 1032.0728024012858, "color_r": 0, "color_g": 0, "color_b": 255, "color_a": 1.0 }, "geometry": { "type": "Point", "coordinates": [ -75.184446, 6.142892 ] } },
{ "type": "Feature", "properties": { "id": "ITAGÜÍ", "label": "ITAGÜÍ", "code": "5360", "community": 4, "pagerank": 0.011226571441037418, "weight": 1.1226571441037418, "size": 1122.6571441037418, "color_r": 0, "color_g": 255, "color_b": 255, "color_a": 1.0 }, "geometry": { "type": "Point", "coordinates": [ -75.612056, 6.175079 ] } },
{ "type": "Feature", "properties": { "id": "LA ESTRELLA", "label": "LA ESTRELLA", "code": "5380", "community": 4, "pagerank": 0.0075367297356197507, "weight": 0.75367297356197505, "size": 753.67297356197503, "color_r": 0, "color_g": 255, "color_b": 255, "color_a": 1.0 }, "geometry": { "type": "Point", "coordinates": [ -75.637708, 6.145238 ] } },
{ "type": "Feature", "properties": { "id": "ANGELÓPOLIS", "label": "ANGELÓPOLIS", "code": "5036", "community": 4, "pagerank": 0.013802138485973746, "weight": 1.3802138485973745, "size": 1380.2138485973746, "color_r": 0, "color_g": 255, "color_b": 255, "color_a": 1.0 }, "geometry": { "type": "Point", "coordinates": [ -75.711389, 6.109719 ] } },
{ "type": "Feature", "properties": { "id": "SABANETA", "label": "SABANETA", "code": "5631", "community": 6, "pagerank": 0.0099234200413583981, "weight": 0.99234200413583984, "size": 992.34200413583983, "color_r": 165, "color_g": 42, "color_b": 42, "color_a": 1.0 }, "geometry": { "type": "Point", "coordinates": [ -75.615479, 6.149903 ] } },
{ "type": "Feature", "properties": { "id": "ARMENIA", "label": "ARMENIA", "code": "5059", "community": 4, "pagerank": 0.011498381921560887, "weight": 1.1498381921560887, "size": 1149.8381921560888, "color_r": 0, "color_g": 255, "color_b": 255, "color_a": 1.0 }, "geometry": { "type": "Point", "coordinates": [ -75.786647, 6.155667 ] } },
{ "type": "Feature", "properties": { "id": "CALDAS", "label": "CALDAS", "code": "5129", "community": 6, "pagerank": 0.015340993369786036, "weight": 1.5340993369786036, "size": 1534.0993369786036, "color_r": 165, "color_g": 42, "color_b": 42, "color_a": 1.0 }, "geometry": { "type": "Point", "coordinates": [ -75.633673, 6.091077 ] } },
{ "type": "Feature", "properties": { "id": "LA CEJA", "label": "LA CEJA", "code": "5376", "community": 1, "pagerank": 0.008529396034528158, "weight": 0.85293960345281583, "size": 852.93960345281585, "color_r": 0, "color_g": 0, "color_b": 255, "color_a": 1.0 }, "geometry": { "type": "Point", "coordinates": [ -75.429433, 6.028062 ] } },
{ "type": "Feature", "properties": { "id": "EL CARMEN DE VIBORAL", "label": "EL CARMEN DE VIBORAL", "code": "5148", "community": 1, "pagerank": 0.010303166798922236, "weight": 1.0303166798922236, "size": 1030.3166798922236, "color_r": 0, "color_g": 0, "color_b": 255, "color_a": 1.0 }, "geometry": { "type": "Point", "coordinates": [ -75.333901, 6.082885 ] } },
{ "type": "Feature", "properties": { "id": "EL SANTUARIO", "label": "EL SANTUARIO", "code": "5697", "community": 1, "pagerank": 0.006423199563261991, "weight": 0.64231995632619909, "size": 642.31995632619908, "color_r": 0, "color_g": 0, "color_b": 255, "color_a": 1.0 }, "geometry": { "type": "Point", "coordinates": [ -75.265465, 6.136871 ] } },
{ "type": "Feature", "properties": { "id": "CONCORDIA", "label": "CONCORDIA", "code": "5209", "community": 2, "pagerank": 0.011355888288666002, "weight": 1.1355888288666003, "size": 1135.5888288666001, "color_r": 255, "color_g": 165, "color_b": 0, "color_a": 1.0 }, "geometry": { "type": "Point", "coordinates": [ -75.908448, 6.045738 ] } },
{ "type": "Feature", "properties": { "id": "SALGAR", "label": "SALGAR", "code": "5642", "community": 2, "pagerank": 0.013878681368664214, "weight": 1.3878681368664214, "size": 1387.8681368664213, "color_r": 255, "color_g": 165, "color_b": 0, "color_a": 1.0 }, "geometry": { "type": "Point", "coordinates": [ -75.976807, 5.964198 ] } },
{ "type": "Feature", "properties": { "id": "AMAGÁ", "label": "AMAGÁ", "code": "5030", "community": 4, "pagerank": 0.0096320491750081644, "weight": 0.96320491750081638, "size": 963.20491750081646, "color_r": 0, "color_g": 255, "color_b": 255, "color_a": 1.0 }, "geometry": { "type": "Point", "coordinates": [ -75.702188, 6.038708 ] } },
{ "type": "Feature", "properties": { "id": "FREDONIA", "label": "FREDONIA", "code": "5282", "community": 6, "pagerank": 0.0095311293126191278, "weight": 0.95311293126191277, "size": 953.11293126191276, "color_r": 165, "color_g": 42, "color_b": 42, "color_a": 1.0 }, "geometry": { "type": "Point", "coordinates": [ -75.675072, 5.928039 ] } },
{ "type": "Feature", "properties": { "id": "SANTA BÁRBARA", "label": "SANTA BÁRBARA", "code": "5679", "community": 6, "pagerank": 0.012068389448360218, "weight": 1.2068389448360217, "size": 1206.8389448360217, "color_r": 165, "color_g": 42, "color_b": 42, "color_a": 1.0 }, "geometry": { "type": "Point", "coordinates": [ -75.567351, 5.875527 ] } },
{ "type": "Feature", "properties": { "id": "TITIRIBÍ", "label": "TITIRIBÍ", "code": "5809", "community": 4, "pagerank": 0.0070312238764959492, "weight": 0.70312238764959489, "size": 703.12238764959488, "color_r": 0, "color_g": 255, "color_b": 255, "color_a": 1.0 }, "geometry": { "type": "Point", "coordinates": [ -75.791887, 6.062391 ] } },
{ "type": "Feature", "properties": { "id": "MONTEBELLO", "label": "MONTEBELLO", "code": "5467", "community": 6, "pagerank": 0.0081796160739628677, "weight": 0.81796160739628676, "size": 817.96160739628681, "color_r": 165, "color_g": 42, "color_b": 42, "color_a": 1.0 }, "geometry": { "type": "Point", "coordinates": [ -75.523455, 5.946313 ] } },
{ "type": "Feature", "properties": { "id": "ABEJORRAL", "label": "ABEJORRAL", "code": "5002", "community": 1, "pagerank": 0.0060537057685510582, "weight": 0.60537057685510587, "size": 605.37057685510581, "color_r": 0, "color_g": 0, "color_b": 255, "color_a": 1.0 }, "geometry": { "type": "Point", "coordinates": [ -75.428739, 5.789315 ] } },
{ "type": "Feature", "properties": { "id": "LA UNIÓN", "label": "LA UNIÓN", "code": "5400", "community": 1, "pagerank": 0.010370617287108669, "weight": 1.0370617287108668, "size": 1037.0617287108669, "color_r": 0, "color_g": 0, "color_b": 255, "color_a": 1.0 }, "geometry": { "type": "Point", "coordinates": [ -75.360874, 5.973845 ] } },
{ "type": "Feature", "properties": { "id": "SAN LUIS", "label": "SAN LUIS", "code": "5660", "community": 1, "pagerank": 0.0065196705182016994, "weight": 0.6519670518201699, "size": 651.9670518201699, "color_r": 0, "color_g": 0, "color_b": 255, "color_a": 1.0 }, "geometry": { "type": "Point", "coordinates": [ -74.993619, 6.043017 ] } },
{ "type": "Feature", "properties": { "id": "COCORNÁ", "label": "COCORNÁ", "code": "5197", "community": 1, "pagerank": 0.01032040971461083, "weight": 1.032040971461083, "size": 1032.040971461083, "color_r": 0, "color_g": 0, "color_b": 255, "color_a": 1.0 }, "geometry": { "type": "Point", "coordinates": [ -75.185483, 6.058295 ] } },
{ "type": "Feature", "properties": { "id": "VENECIA", "label": "VENECIA", "code": "5861", "community": 6, "pagerank": 0.015035279626932936, "weight": 1.5035279626932936, "size": 1503.5279626932936, "color_r": 165, "color_g": 42, "color_b": 42, "color_a": 1.0 }, "geometry": { "type": "Point", "coordinates": [ -75.735544, 5.964693 ] } },
{ "type": "Feature", "properties": { "id": "CIUDAD BOLÍVAR", "label": "CIUDAD BOLÍVAR", "code": "5101", "community": 5, "pagerank": 0.0075159147772296446, "weight": 0.75159147772296442, "size": 751.59147772296444, "color_r": 255, "color_g": 192, "color_b": 203, "color_a": 1.0 }, "geometry": { "type": "Point", "coordinates": [ -76.021509, 5.850273 ] } },
{ "type": "Feature", "properties": { "id": "SAN FRANCISCO", "label": "SAN FRANCISCO", "code": "5652", "community": 8, "pagerank": 0.0056011801191374957, "weight": 0.56011801191374955, "size": 560.11801191374957, "color_r": 0, "color_g": 0, "color_b": 0, "color_a": 1.0 }, "geometry": { "type": "Point", "coordinates": [ -75.101562, 5.963476 ] } },
{ "type": "Feature", "properties": { "id": "SONSÓN", "label": "SONSÓN", "code": "5756", "community": 8, "pagerank": 0.0070878589877601938, "weight": 0.70878589877601939, "size": 708.78589877601939, "color_r": 0, "color_g": 0, "color_b": 0, "color_a": 1.0 }, "geometry": { "type": "Point", "coordinates": [ -75.309596, 5.714851 ] } },
{ "type": "Feature", "properties": { "id": "ARGELIA", "label": "ARGELIA", "code": "5055", "community": 8, "pagerank": 0.0048130335858163863, "weight": 0.48130335858163864, "size": 481.30335858163863, "color_r": 0, "color_g": 0, "color_b": 0, "color_a": 1.0 }, "geometry": { "type": "Point", "coordinates": [ -75.14107, 5.731474 ] } },
{ "type": "Feature", "properties": { "id": "TARSO", "label": "TARSO", "code": "5792", "community": 5, "pagerank": 0.0073232991982568468, "weight": 0.73232991982568474, "size": 732.32991982568467, "color_r": 255, "color_g": 192, "color_b": 203, "color_a": 1.0 }, "geometry": { "type": "Point", "coordinates": [ -75.822956, 5.864542 ] } },
{ "type": "Feature", "properties": { "id": "LA PINTADA", "label": "LA PINTADA", "code": "5390", "community": 100, "pagerank": 0.020532706453970373, "weight": 2.0532706453970375, "size": 2053.2706453970372, "color_r": 106, "color_g": 90, "color_b": 205, "color_a": 1.0 }, "geometry": { "type": "Point", "coordinates": [ -75.60781, 5.743808 ] } },
{ "type": "Feature", "properties": { "id": "BETANIA", "label": "BETANIA", "code": "5091", "community": 5, "pagerank": 0.0066164372865420498, "weight": 0.66164372865420495, "size": 661.64372865420501, "color_r": 255, "color_g": 192, "color_b": 203, "color_a": 1.0 }, "geometry": { "type": "Point", "coordinates": [ -75.97679, 5.74615 ] } },
{ "type": "Feature", "properties": { "id": "HISPANIA", "label": "HISPANIA", "code": "5353", "community": 5, "pagerank": 0.010774343111164214, "weight": 1.0774343111164213, "size": 1077.4343111164214, "color_r": 255, "color_g": 192, "color_b": 203, "color_a": 1.0 }, "geometry": { "type": "Point", "coordinates": [ -75.906587, 5.799461 ] } },
{ "type": "Feature", "properties": { "id": "ANDES", "label": "ANDES", "code": "5034", "community": 5, "pagerank": 0.0083021038819613962, "weight": 0.83021038819613957, "size": 830.21038819613966, "color_r": 255, "color_g": 192, "color_b": 203, "color_a": 1.0 }, "geometry": { "type": "Point", "coordinates": [ -75.878828, 5.657194 ] } },
{ "type": "Feature", "properties": { "id": "NARIÑO", "label": "NARIÑO", "code": "5483", "community": 8, "pagerank": 0.0034321421266808282, "weight": 0.34321421266808283, "size": 343.21421266808284, "color_r": 0, "color_g": 0, "color_b": 0, "color_a": 1.0 }, "geometry": { "type": "Point", "coordinates": [ -75.176262, 5.610777 ] } },
{ "type": "Feature", "properties": { "id": "PUEBLORRICO", "label": "PUEBLORRICO", "code": "5576", "community": 5, "pagerank": 0.010176410042204459, "weight": 1.017641004220446, "size": 1017.6410042204459, "color_r": 255, "color_g": 192, "color_b": 203, "color_a": 1.0 }, "geometry": { "type": "Point", "coordinates": [ -75.839903, 5.79158 ] } },
{ "type": "Feature", "properties": { "id": "JERICÓ", "label": "JERICÓ", "code": "5368", "community": 5, "pagerank": 0.0098372052255416755, "weight": 0.98372052255416753, "size": 983.72052255416759, "color_r": 255, "color_g": 192, "color_b": 203, "color_a": 1.0 }, "geometry": { "type": "Point", "coordinates": [ -75.785499, 5.789748 ] } },
{ "type": "Feature", "properties": { "id": "TÁMESIS", "label": "TÁMESIS", "code": "5789", "community": 5, "pagerank": 0.014105849527135722, "weight": 1.4105849527135723, "size": 1410.5849527135722, "color_r": 255, "color_g": 192, "color_b": 203, "color_a": 1.0 }, "geometry": { "type": "Point", "coordinates": [ -75.714429, 5.664645 ] } },
{ "type": "Feature", "properties": { "id": "VALPARAÍSO", "label": "VALPARAÍSO", "code": "5856", "community": 5, "pagerank": 0.0058155034910232946, "weight": 0.5815503491023295, "size": 581.55034910232951, "color_r": 255, "color_g": 192, "color_b": 203, "color_a": 1.0 }, "geometry": { "type": "Point", "coordinates": [ -75.624452, 5.614555 ] } },
{ "type": "Feature", "properties": { "id": "JARDÍN", "label": "JARDÍN", "code": "5364", "community": 5, "pagerank": 0.0071461107248472567, "weight": 0.71461107248472566, "size": 714.6110724847257, "color_r": 255, "color_g": 192, "color_b": 203, "color_a": 1.0 }, "geometry": { "type": "Point", "coordinates": [ -75.818982, 5.597542 ] } },
{ "type": "Feature", "properties": { "id": "CARAMANTA", "label": "CARAMANTA", "code": "5145", "community": 5, "pagerank": 0.005311165780080165, "weight": 0.53111657800801648, "size": 531.11657800801652, "color_r": 255, "color_g": 192, "color_b": 203, "color_a": 1.0 }, "geometry": { "type": "Point", "coordinates": [ -75.643868, 5.54853 ] } },
{ "type": "Feature", "properties": { "id": "CARACOLÍ", "label": "CARACOLÍ", "code": "5142", "community": 100, "pagerank": 0.0020382242552748862, "weight": 0.20382242552748864, "size": 203.82242552748863, "color_r": 106, "color_g": 90, "color_b": 205, "color_a": 1.0 }, "geometry": { "type": "Point", "coordinates": [ -74.757421, 6.409829 ] } }
]
}
