{
  "type": "FeatureCollection",
  "name": "fig2_undirected_Pperuviana_23km_10steps_10reps_municipalities_network_v2_nodes",
  "crs": {
    "type": "name",
    "properties": {
      "name": "urn:ogc:def:crs:OGC:1.3:CRS84"
    }
  },
  "features": [
    {
      "type": "Feature",
      "properties": {
        "id": "ITUANGO",
        "label": "ITUANGO",
        "code": "5361",
        "community": 10,
        "pagerank": 0.008928039900040076,
        "weight": 0.8928039900040076,
        "size": 892.8039900040076,
        "color_r": 68,
        "color_g": 1,
        "color_b": 84,
        "color_a": 1.0
      },
      "geometry": {
        "type": "Point",
        "coordinates": [
          -75.764673,
          7.171629
        ]
      }
    },
    {
      "type": "Feature",
      "properties": {
        "id": "TARAZÁ",
        "label": "TARAZÁ",
        "code": "5790",
        "community": 12,
        "pagerank": 0.0045327595217935735,
        "weight": 0.45327595217935734,
        "size": 453.2759521793574,
        "color_r": 59,
        "color_g": 82,
        "color_b": 139,
        "color_a": 1.0
      },
      "geometry": {
        "type": "Point",
        "coordinates": [
          -75.401407,
          7.580127
        ]
      }
    },
    {
      "type": "Feature",
      "properties": {
        "id": "VALDIVIA",
        "label": "VALDIVIA",
        "code": "5854",
        "community": 9,
        "pagerank": 0.0072934621341882964,
        "weight": 0.7293462134188297,
        "size": 729.3462134188296,
        "color_r": 253,
        "color_g": 231,
        "color_b": 37,
        "color_a": 1.0
      },
      "geometry": {
        "type": "Point",
        "coordinates": [
          -75.439274,
          7.1652
        ]
      }
    },
    {
      "type": "Feature",
      "properties": {
        "id": "BRICEÑO",
        "label": "BRICEÑO",
        "code": "5107",
        "community": 9,
        "pagerank": 0.007977144265723131,
        "weight": 0.7977144265723132,
        "size": 797.7144265723131,
        "color_r": 253,
        "color_g": 231,
        "color_b": 37,
        "color_a": 1.0
      },
      "geometry": {
        "type": "Point",
        "coordinates": [
          -75.55036,
          7.112803
        ]
      }
    },
    {
      "type": "Feature",
      "properties": {
        "id": "YARUMAL",
        "label": "YARUMAL",
        "code": "5887",
        "community": 9,
        "pagerank": 0.010618031071507498,
        "weight": 1.0618031071507499,
        "size": 1061.8031071507498,
        "color_r": 253,
        "color_g": 231,
        "color_b": 37,
        "color_a": 1.0
      },
      "geometry": {
        "type": "Point",
        "coordinates": [
          -75.418828,
          6.963832
        ]
      }
    },
    {
      "type": "Feature",
      "properties": {
        "id": "PEQUE",
        "label": "PEQUE",
        "code": "5543",
        "community": 2,
        "pagerank": 0.008019664511502557,
        "weight": 0.8019664511502557,
        "size": 801.9664511502557,
        "color_r": 71,
        "color_g": 45,
        "color_b": 123,
        "color_a": 1.0
      },
      "geometry": {
        "type": "Point",
        "coordinates": [
          -75.910357,
          7.021029
        ]
      }
    },
    {
      "type": "Feature",
      "properties": {
        "id": "SAN ANDRÉS DE CUERQUÍA",
        "label": "SAN ANDRÉS DE CUERQUÍA",
        "code": "5647",
        "community": 3,
        "pagerank": 0.010423911887558607,
        "weight": 1.0423911887558608,
        "size": 1042.3911887558606,
        "color_r": 59,
        "color_g": 82,
        "color_b": 139,
        "color_a": 1.0
      },
      "geometry": {
        "type": "Point",
        "coordinates": [
          -75.674564,
          6.916676
        ]
      }
    },
    {
      "type": "Feature",
      "properties": {
        "id": "TOLEDO",
        "label": "TOLEDO",
        "code": "5819",
        "community": 3,
        "pagerank": 0.0069658821396176894,
        "weight": 0.696588213961769,
        "size": 696.5882139617689,
        "color_r": 59,
        "color_g": 82,
        "color_b": 139,
        "color_a": 1.0
      },
      "geometry": {
        "type": "Point",
        "coordinates": [
          -75.692281,
          7.010328
        ]
      }
    },
    {
      "type": "Feature",
      "properties": {
        "id": "SABANALARGA",
        "label": "SABANALARGA",
        "code": "5628",
        "community": 3,
        "pagerank": 0.010297817787535002,
        "weight": 1.0297817787535002,
        "size": 1029.7817787535002,
        "color_r": 59,
        "color_g": 82,
        "color_b": 139,
        "color_a": 1.0
      },
      "geometry": {
        "type": "Point",
        "coordinates": [
          -75.816645,
          6.850028
        ]
      }
    },
    {
      "type": "Feature",
      "properties": {
        "id": "SAN JOSÉ DE LA MONTAÑA",
        "label": "SAN JOSÉ DE LA MONTAÑA",
        "code": "5658",
        "community": 3,
        "pagerank": 0.008538163297355109,
        "weight": 0.8538163297355109,
        "size": 853.8163297355109,
        "color_r": 59,
        "color_g": 82,
        "color_b": 139,
        "color_a": 1.0
      },
      "geometry": {
        "type": "Point",
        "coordinates": [
          -75.683352,
          6.85009
        ]
      }
    },
    {
      "type": "Feature",
      "properties": {
        "id": "SANTA ROSA DE OSOS",
        "label": "SANTA ROSA DE OSOS",
        "code": "5686",
        "community": 3,
        "pagerank": 0.015441900230264769,
        "weight": 1.544190023026477,
        "size": 1544.1900230264769,
        "color_r": 59,
        "color_g": 82,
        "color_b": 139,
        "color_a": 1.0
      },
      "geometry": {
        "type": "Point",
        "coordinates": [
          -75.460723,
          6.643366
        ]
      }
    },
    {
      "type": "Feature",
      "properties": {
        "id": "DABEIBA",
        "label": "DABEIBA",
        "code": "5234",
        "community": 2,
        "pagerank": 0.008392663963299359,
        "weight": 0.8392663963299358,
        "size": 839.2663963299359,
        "color_r": 71,
        "color_g": 45,
        "color_b": 123,
        "color_a": 1.0
      },
      "geometry": {
        "type": "Point",
        "coordinates": [
          -76.261614,
          6.998112
        ]
      }
    },
    {
      "type": "Feature",
      "properties": {
        "id": "MUTATÁ",
        "label": "MUTATÁ",
        "code": "5480",
        "community": 10,
        "pagerank": 0.0032719678321401964,
        "weight": 0.3271967832140196,
        "size": 327.19678321401966,
        "color_r": 68,
        "color_g": 1,
        "color_b": 84,
        "color_a": 1.0
      },
      "geometry": {
        "type": "Point",
        "coordinates": [
          -76.435875,
          7.242875
        ]
      }
    },
    {
      "type": "Feature",
      "properties": {
        "id": "CAÑASGORDAS",
        "label": "CAÑASGORDAS",
        "code": "5138",
        "community": 2,
        "pagerank": 0.011884319945102964,
        "weight": 1.1884319945102964,
        "size": 1188.4319945102964,
        "color_r": 71,
        "color_g": 45,
        "color_b": 123,
        "color_a": 1.0
      },
      "geometry": {
        "type": "Point",
        "coordinates": [
          -76.028228,
          6.753859
        ]
      }
    },
    {
      "type": "Feature",
      "properties": {
        "id": "URAMITA",
        "label": "URAMITA",
        "code": "5842",
        "community": 2,
        "pagerank": 0.007789993311347874,
        "weight": 0.7789993311347874,
        "size": 778.9993311347874,
        "color_r": 71,
        "color_g": 45,
        "color_b": 123,
        "color_a": 1.0
      },
      "geometry": {
        "type": "Point",
        "coordinates": [
          -76.173284,
          6.898393
        ]
      }
    },
    {
      "type": "Feature",
      "properties": {
        "id": "FRONTINO",
        "label": "FRONTINO",
        "code": "5284",
        "community": 2,
        "pagerank": 0.009155735701683872,
        "weight": 0.9155735701683873,
        "size": 915.5735701683873,
        "color_r": 71,
        "color_g": 45,
        "color_b": 123,
        "color_a": 1.0
      },
      "geometry": {
        "type": "Point",
        "coordinates": [
          -76.130765,
          6.776066
        ]
      }
    },
    {
      "type": "Feature",
      "properties": {
        "id": "BURITICÁ",
        "label": "BURITICÁ",
        "code": "5113",
        "community": 2,
        "pagerank": 0.00835328349165603,
        "weight": 0.835328349165603,
        "size": 835.328349165603,
        "color_r": 71,
        "color_g": 45,
        "color_b": 123,
        "color_a": 1.0
      },
      "geometry": {
        "type": "Point",
        "coordinates": [
          -75.907,
          6.720759
        ]
      }
    },
    {
      "type": "Feature",
      "properties": {
        "id": "LIBORINA",
        "label": "LIBORINA",
        "code": "5411",
        "community": 3,
        "pagerank": 0.013171167626637153,
        "weight": 1.3171167626637152,
        "size": 1317.1167626637152,
        "color_r": 59,
        "color_g": 82,
        "color_b": 139,
        "color_a": 1.0
      },
      "geometry": {
        "type": "Point",
        "coordinates": [
          -75.812838,
          6.677316
        ]
      }
    },
    {
      "type": "Feature",
      "properties": {
        "id": "BELMIRA",
        "label": "BELMIRA",
        "code": "5086",
        "community": 7,
        "pagerank": 0.012292268214217555,
        "weight": 1.2292268214217557,
        "size": 1229.2268214217556,
        "color_r": 93,
        "color_g": 200,
        "color_b": 99,
        "color_a": 1.0
      },
      "geometry": {
        "type": "Point",
        "coordinates": [
          -75.667779,
          6.606319
        ]
      }
    },
    {
      "type": "Feature",
      "properties": {
        "id": "GIRALDO",
        "label": "GIRALDO",
        "code": "5306",
        "community": 2,
        "pagerank": 0.006675279955370419,
        "weight": 0.6675279955370419,
        "size": 667.5279955370419,
        "color_r": 71,
        "color_g": 45,
        "color_b": 123,
        "color_a": 1.0
      },
      "geometry": {
        "type": "Point",
        "coordinates": [
          -75.952158,
          6.680808
        ]
      }
    },
    {
      "type": "Feature",
      "properties": {
        "id": "OLAYA",
        "label": "OLAYA",
        "code": "5501",
        "community": 3,
        "pagerank": 0.005823323956996336,
        "weight": 0.5823323956996337,
        "size": 582.3323956996336,
        "color_r": 59,
        "color_g": 82,
        "color_b": 139,
        "color_a": 1.0
      },
      "geometry": {
        "type": "Point",
        "coordinates": [
          -75.811773,
          6.626492
        ]
      }
    },
    {
      "type": "Feature",
      "properties": {
        "id": "ENTRERRÍOS",
        "label": "ENTRERRÍOS",
        "code": "5264",
        "community": 7,
        "pagerank": 0.0124864506205868,
        "weight": 1.24864506205868,
        "size": 1248.64506205868,
        "color_r": 93,
        "color_g": 200,
        "color_b": 99,
        "color_a": 1.0
      },
      "geometry": {
        "type": "Point",
        "coordinates": [
          -75.517685,
          6.566273
        ]
      }
    },
    {
      "type": "Feature",
      "properties": {
        "id": "SANTA FÉ DE ANTIOQUIA",
        "label": "SANTA FÉ DE ANTIOQUIA",
        "code": "5042",
        "community": 2,
        "pagerank": 0.008889280020149631,
        "weight": 0.8889280020149631,
        "size": 888.9280020149631,
        "color_r": 71,
        "color_g": 45,
        "color_b": 123,
        "color_a": 1.0
      },
      "geometry": {
        "type": "Point",
        "coordinates": [
          -75.826648,
          6.556484
        ]
      }
    },
    {
      "type": "Feature",
      "properties": {
        "id": "ANGOSTURA",
        "label": "ANGOSTURA",
        "code": "5038",
        "community": 3,
        "pagerank": 0.010701879585168576,
        "weight": 1.0701879585168577,
        "size": 1070.1879585168576,
        "color_r": 59,
        "color_g": 82,
        "color_b": 139,
        "color_a": 1.0
      },
      "geometry": {
        "type": "Point",
        "coordinates": [
          -75.335116,
          6.885175
        ]
      }
    },
    {
      "type": "Feature",
      "properties": {
        "id": "CAMPAMENTO",
        "label": "CAMPAMENTO",
        "code": "5134",
        "community": 3,
        "pagerank": 0.0069641765264355894,
        "weight": 0.6964176526435589,
        "size": 696.417652643559,
        "color_r": 59,
        "color_g": 82,
        "color_b": 139,
        "color_a": 1.0
      },
      "geometry": {
        "type": "Point",
        "coordinates": [
          -75.298091,
          6.979771
        ]
      }
    },
    {
      "type": "Feature",
      "properties": {
        "id": "ANORÍ",
        "label": "ANORÍ",
        "code": "5040",
        "community": 3,
        "pagerank": 0.006225900722635995,
        "weight": 0.6225900722635995,
        "size": 622.5900722635995,
        "color_r": 59,
        "color_g": 82,
        "color_b": 139,
        "color_a": 1.0
      },
      "geometry": {
        "type": "Point",
        "coordinates": [
          -75.148355,
          7.074703
        ]
      }
    },
    {
      "type": "Feature",
      "properties": {
        "id": "CAROLINA",
        "label": "CAROLINA",
        "code": "5150",
        "community": 3,
        "pagerank": 0.01055073687430986,
        "weight": 1.055073687430986,
        "size": 1055.073687430986,
        "color_r": 59,
        "color_g": 82,
        "color_b": 139,
        "color_a": 1.0
      },
      "geometry": {
        "type": "Point",
        "coordinates": [
          -75.283192,
          6.725995
        ]
      }
    },
    {
      "type": "Feature",
      "properties": {
        "id": "GUADALUPE",
        "label": "GUADALUPE",
        "code": "5315",
        "community": 3,
        "pagerank": 0.006132743852654041,
        "weight": 0.6132743852654041,
        "size": 613.274385265404,
        "color_r": 59,
        "color_g": 82,
        "color_b": 139,
        "color_a": 1.0
      },
      "geometry": {
        "type": "Point",
        "coordinates": [
          -75.239862,
          6.815069
        ]
      }
    },
    {
      "type": "Feature",
      "properties": {
        "id": "GÓMEZ PLATA",
        "label": "GÓMEZ PLATA",
        "code": "5310",
        "community": 3,
        "pagerank": 0.007554838703589573,
        "weight": 0.7554838703589574,
        "size": 755.4838703589573,
        "color_r": 59,
        "color_g": 82,
        "color_b": 139,
        "color_a": 1.0
      },
      "geometry": {
        "type": "Point",
        "coordinates": [
          -75.220018,
          6.683269
        ]
      }
    },
    {
      "type": "Feature",
      "properties": {
        "id": "AMALFI",
        "label": "AMALFI",
        "code": "5031",
        "community": 11,
        "pagerank": 0.00931248478132523,
        "weight": 0.931248478132523,
        "size": 931.2484781325229,
        "color_r": 71,
        "color_g": 45,
        "color_b": 123,
        "color_a": 1.0
      },
      "geometry": {
        "type": "Point",
        "coordinates": [
          -75.077501,
          6.909655
        ]
      }
    },
    {
      "type": "Feature",
      "properties": {
        "id": "YOLOMBÓ",
        "label": "YOLOMBÓ",
        "code": "5890",
        "community": 11,
        "pagerank": 0.01133795338071634,
        "weight": 1.133795338071634,
        "size": 1133.795338071634,
        "color_r": 71,
        "color_g": 45,
        "color_b": 123,
        "color_a": 1.0
      },
      "geometry": {
        "type": "Point",
        "coordinates": [
          -75.013385,
          6.594511
        ]
      }
    },
    {
      "type": "Feature",
      "properties": {
        "id": "ABRIAQUÍ",
        "label": "ABRIAQUÍ",
        "code": "5004",
        "community": 2,
        "pagerank": 0.0091488567810137,
        "weight": 0.91488567810137,
        "size": 914.88567810137,
        "color_r": 71,
        "color_g": 45,
        "color_b": 123,
        "color_a": 1.0
      },
      "geometry": {
        "type": "Point",
        "coordinates": [
          -76.064304,
          6.632282
        ]
      }
    },
    {
      "type": "Feature",
      "properties": {
        "id": "MURINDÓ",
        "label": "MURINDÓ",
        "code": "5475",
        "community": 100,
        "pagerank": 0.005280660713779448,
        "weight": 0.5280660713779448,
        "size": 528.0660713779448,
        "color_r": 44,
        "color_g": 114,
        "color_b": 142,
        "color_a": 1.0
      },
      "geometry": {
        "type": "Point",
        "coordinates": [
          -76.817485,
          6.97771
        ]
      }
    },
    {
      "type": "Feature",
      "properties": {
        "id": "SOPETRÁN",
        "label": "SOPETRÁN",
        "code": "5761",
        "community": 3,
        "pagerank": 0.011121089015710817,
        "weight": 1.1121089015710817,
        "size": 1112.1089015710818,
        "color_r": 59,
        "color_g": 82,
        "color_b": 139,
        "color_a": 1.0
      },
      "geometry": {
        "type": "Point",
        "coordinates": [
          -75.747378,
          6.500745
        ]
      }
    },
    {
      "type": "Feature",
      "properties": {
        "id": "URRAO",
        "label": "URRAO",
        "code": "5847",
        "community": 2,
        "pagerank": 0.01968842798153989,
        "weight": 1.9688427981539889,
        "size": 1968.842798153989,
        "color_r": 71,
        "color_g": 45,
        "color_b": 123,
        "color_a": 1.0
      },
      "geometry": {
        "type": "Point",
        "coordinates": [
          -76.133951,
          6.317343
        ]
      }
    },
    {
      "type": "Feature",
      "properties": {
        "id": "CAICEDO",
        "label": "CAICEDO",
        "code": "5125",
        "community": 2,
        "pagerank": 0.011222996024138208,
        "weight": 1.1222996024138208,
        "size": 1122.2996024138208,
        "color_r": 71,
        "color_g": 45,
        "color_b": 123,
        "color_a": 1.0
      },
      "geometry": {
        "type": "Point",
        "coordinates": [
          -75.98293,
          6.405607
        ]
      }
    },
    {
      "type": "Feature",
      "properties": {
        "id": "VIGÍA DEL FUERTE",
        "label": "VIGÍA DEL FUERTE",
        "code": "5873",
        "community": 100,
        "pagerank": 0.005465392052834986,
        "weight": 0.5465392052834985,
        "size": 546.5392052834986,
        "color_r": 44,
        "color_g": 114,
        "color_b": 142,
        "color_a": 1.0
      },
      "geometry": {
        "type": "Point",
        "coordinates": [
          -76.896004,
          6.588164
        ]
      }
    },
    {
      "type": "Feature",
      "properties": {
        "id": "BETULIA",
        "label": "BETULIA",
        "code": "5093",
        "community": 2,
        "pagerank": 0.00639422103769286,
        "weight": 0.639422103769286,
        "size": 639.4221037692861,
        "color_r": 71,
        "color_g": 45,
        "color_b": 123,
        "color_a": 1.0
      },
      "geometry": {
        "type": "Point",
        "coordinates": [
          -75.984452,
          6.115208
        ]
      }
    },
    {
      "type": "Feature",
      "properties": {
        "id": "SANTO DOMINGO",
        "label": "SANTO DOMINGO",
        "code": "5690",
        "community": 1,
        "pagerank": 0.008019143540583905,
        "weight": 0.8019143540583905,
        "size": 801.9143540583905,
        "color_r": 68,
        "color_g": 1,
        "color_b": 84,
        "color_a": 1.0
      },
      "geometry": {
        "type": "Point",
        "coordinates": [
          -75.164903,
          6.473032
        ]
      }
    },
    {
      "type": "Feature",
      "properties": {
        "id": "DONMATÍAS",
        "label": "DONMATÍAS",
        "code": "5237",
        "community": 7,
        "pagerank": 0.012113246326442896,
        "weight": 1.2113246326442897,
        "size": 1211.3246326442897,
        "color_r": 93,
        "color_g": 200,
        "color_b": 99,
        "color_a": 1.0
      },
      "geometry": {
        "type": "Point",
        "coordinates": [
          -75.39263,
          6.485603
        ]
      }
    },
    {
      "type": "Feature",
      "properties": {
        "id": "BARBOSA",
        "label": "BARBOSA",
        "code": "5079",
        "community": 1,
        "pagerank": 0.009241087305177958,
        "weight": 0.9241087305177957,
        "size": 924.1087305177958,
        "color_r": 68,
        "color_g": 1,
        "color_b": 84,
        "color_a": 1.0
      },
      "geometry": {
        "type": "Point",
        "coordinates": [
          -75.331627,
          6.439195
        ]
      }
    },
    {
      "type": "Feature",
      "properties": {
        "id": "SAN PEDRO DE LOS MILAGROS",
        "label": "SAN PEDRO DE LOS MILAGROS",
        "code": "5664",
        "community": 7,
        "pagerank": 0.009495547414827272,
        "weight": 0.9495547414827271,
        "size": 949.5547414827272,
        "color_r": 93,
        "color_g": 200,
        "color_b": 99,
        "color_a": 1.0
      },
      "geometry": {
        "type": "Point",
        "coordinates": [
          -75.556743,
          6.46012
        ]
      }
    },
    {
      "type": "Feature",
      "properties": {
        "id": "CÁCERES",
        "label": "CÁCERES",
        "code": "5120",
        "community": 100,
        "pagerank": 0.01502437109692625,
        "weight": 1.502437109692625,
        "size": 1502.437109692625,
        "color_r": 44,
        "color_g": 114,
        "color_b": 142,
        "color_a": 1.0
      },
      "geometry": {
        "type": "Point",
        "coordinates": [
          -75.35205,
          7.578366
        ]
      }
    },
    {
      "type": "Feature",
      "properties": {
        "id": "SAN JERÓNIMO",
        "label": "SAN JERÓNIMO",
        "code": "5656",
        "community": 4,
        "pagerank": 0.009087159073000168,
        "weight": 0.9087159073000167,
        "size": 908.7159073000167,
        "color_r": 44,
        "color_g": 114,
        "color_b": 142,
        "color_a": 1.0
      },
      "geometry": {
        "type": "Point",
        "coordinates": [
          -75.726975,
          6.44809
        ]
      }
    },
    {
      "type": "Feature",
      "properties": {
        "id": "ANZÁ",
        "label": "ANZÁ",
        "code": "5044",
        "community": 2,
        "pagerank": 0.006680036283151825,
        "weight": 0.6680036283151826,
        "size": 668.0036283151825,
        "color_r": 71,
        "color_g": 45,
        "color_b": 123,
        "color_a": 1.0
      },
      "geometry": {
        "type": "Point",
        "coordinates": [
          -75.854442,
          6.302641
        ]
      }
    },
    {
      "type": "Feature",
      "properties": {
        "id": "COPACABANA",
        "label": "COPACABANA",
        "code": "5212",
        "community": 4,
        "pagerank": 0.014204977394541745,
        "weight": 1.4204977394541745,
        "size": 1420.4977394541745,
        "color_r": 44,
        "color_g": 114,
        "color_b": 142,
        "color_a": 1.0
      },
      "geometry": {
        "type": "Point",
        "coordinates": [
          -75.509384,
          6.348557
        ]
      }
    },
    {
      "type": "Feature",
      "properties": {
        "id": "SAN ROQUE",
        "label": "SAN ROQUE",
        "code": "5670",
        "community": 1,
        "pagerank": 0.011069300296268188,
        "weight": 1.1069300296268187,
        "size": 1106.9300296268189,
        "color_r": 68,
        "color_g": 1,
        "color_b": 84,
        "color_a": 1.0
      },
      "geometry": {
        "type": "Point",
        "coordinates": [
          -75.019109,
          6.485939
        ]
      }
    },
    {
      "type": "Feature",
      "properties": {
        "id": "CONCEPCIÓN",
        "label": "CONCEPCIÓN",
        "code": "5206",
        "community": 1,
        "pagerank": 0.010145365129326548,
        "weight": 1.0145365129326547,
        "size": 1014.5365129326548,
        "color_r": 68,
        "color_g": 1,
        "color_b": 84,
        "color_a": 1.0
      },
      "geometry": {
        "type": "Point",
        "coordinates": [
          -75.257587,
          6.394348
        ]
      }
    },
    {
      "type": "Feature",
      "properties": {
        "id": "CISNEROS",
        "label": "CISNEROS",
        "code": "5190",
        "community": 1,
        "pagerank": 0.006686904337202348,
        "weight": 0.6686904337202348,
        "size": 668.6904337202349,
        "color_r": 68,
        "color_g": 1,
        "color_b": 84,
        "color_a": 1.0
      },
      "geometry": {
        "type": "Point",
        "coordinates": [
          -75.087047,
          6.537829
        ]
      }
    },
    {
      "type": "Feature",
      "properties": {
        "id": "VEGACHÍ",
        "label": "VEGACHÍ",
        "code": "5858",
        "community": 100,
        "pagerank": 0.00473838976525947,
        "weight": 0.47383897652594703,
        "size": 473.83897652594703,
        "color_r": 44,
        "color_g": 114,
        "color_b": 142,
        "color_a": 1.0
      },
      "geometry": {
        "type": "Point",
        "coordinates": [
          -74.798714,
          6.773525
        ]
      }
    },
    {
      "type": "Feature",
      "properties": {
        "id": "REMEDIOS",
        "label": "REMEDIOS",
        "code": "5604",
        "community": 100,
        "pagerank": 0.006603441200583803,
        "weight": 0.6603441200583803,
        "size": 660.3441200583803,
        "color_r": 44,
        "color_g": 114,
        "color_b": 142,
        "color_a": 1.0
      },
      "geometry": {
        "type": "Point",
        "coordinates": [
          -74.698135,
          7.029424
        ]
      }
    },
    {
      "type": "Feature",
      "properties": {
        "id": "YALÍ",
        "label": "YALÍ",
        "code": "5885",
        "community": 100,
        "pagerank": 0.007790448302030518,
        "weight": 0.7790448302030518,
        "size": 779.0448302030518,
        "color_r": 44,
        "color_g": 114,
        "color_b": 142,
        "color_a": 1.0
      },
      "geometry": {
        "type": "Point",
        "coordinates": [
          -74.840059,
          6.676554
        ]
      }
    },
    {
      "type": "Feature",
      "properties": {
        "id": "GIRARDOTA",
        "label": "GIRARDOTA",
        "code": "5308",
        "community": 1,
        "pagerank": 0.007503157408990807,
        "weight": 0.7503157408990807,
        "size": 750.3157408990808,
        "color_r": 68,
        "color_g": 1,
        "color_b": 84,
        "color_a": 1.0
      },
      "geometry": {
        "type": "Point",
        "coordinates": [
          -75.444238,
          6.379472
        ]
      }
    },
    {
      "type": "Feature",
      "properties": {
        "id": "BELLO",
        "label": "BELLO",
        "code": "5088",
        "community": 4,
        "pagerank": 0.010310192444083646,
        "weight": 1.0310192444083646,
        "size": 1031.0192444083646,
        "color_r": 44,
        "color_g": 114,
        "color_b": 142,
        "color_a": 1.0
      },
      "geometry": {
        "type": "Point",
        "coordinates": [
          -75.555245,
          6.333587
        ]
      }
    },
    {
      "type": "Feature",
      "properties": {
        "id": "MEDELLÍN",
        "label": "MEDELLÍN",
        "code": "5001",
        "community": 4,
        "pagerank": 0.012854741025772845,
        "weight": 1.2854741025772844,
        "size": 1285.4741025772846,
        "color_r": 44,
        "color_g": 114,
        "color_b": 142,
        "color_a": 1.0
      },
      "geometry": {
        "type": "Point",
        "coordinates": [
          -75.581775,
          6.246631
        ]
      }
    },
    {
      "type": "Feature",
      "properties": {
        "id": "EBÉJICO",
        "label": "EBÉJICO",
        "code": "5240",
        "community": 4,
        "pagerank": 0.010429346072712963,
        "weight": 1.0429346072712964,
        "size": 1042.9346072712963,
        "color_r": 44,
        "color_g": 114,
        "color_b": 142,
        "color_a": 1.0
      },
      "geometry": {
        "type": "Point",
        "coordinates": [
          -75.766413,
          6.325615
        ]
      }
    },
    {
      "type": "Feature",
      "properties": {
        "id": "GUARNE",
        "label": "GUARNE",
        "code": "5318",
        "community": 1,
        "pagerank": 0.01042939109158211,
        "weight": 1.042939109158211,
        "size": 1042.939109158211,
        "color_r": 68,
        "color_g": 1,
        "color_b": 84,
        "color_a": 1.0
      },
      "geometry": {
        "type": "Point",
        "coordinates": [
          -75.441612,
          6.27787
        ]
      }
    },
    {
      "type": "Feature",
      "properties": {
        "id": "SAN VICENTE FERRER",
        "label": "SAN VICENTE FERRER",
        "code": "5674",
        "community": 1,
        "pagerank": 0.011775977143455565,
        "weight": 1.1775977143455565,
        "size": 1177.5977143455566,
        "color_r": 68,
        "color_g": 1,
        "color_b": 84,
        "color_a": 1.0
      },
      "geometry": {
        "type": "Point",
        "coordinates": [
          -75.332616,
          6.282164
        ]
      }
    },
    {
      "type": "Feature",
      "properties": {
        "id": "ITAGÜÍ",
        "label": "ITAGÜÍ",
        "code": "5360",
        "community": 4,
        "pagerank": 0.011741143728148147,
        "weight": 1.1741143728148147,
        "size": 1174.1143728148147,
        "color_r": 44,
        "color_g": 114,
        "color_b": 142,
        "color_a": 1.0
      },
      "geometry": {
        "type": "Point",
        "coordinates": [
          -75.612056,
          6.175079
        ]
      }
    },
    {
      "type": "Feature",
      "properties": {
        "id": "HELICONIA",
        "label": "HELICONIA",
        "code": "5347",
        "community": 4,
        "pagerank": 0.010408170439273865,
        "weight": 1.0408170439273865,
        "size": 1040.8170439273865,
        "color_r": 44,
        "color_g": 114,
        "color_b": 142,
        "color_a": 1.0
      },
      "geometry": {
        "type": "Point",
        "coordinates": [
          -75.734322,
          6.206757
        ]
      }
    },
    {
      "type": "Feature",
      "properties": {
        "id": "ALEJANDRÍA",
        "label": "ALEJANDRÍA",
        "code": "5021",
        "community": 1,
        "pagerank": 0.008904394642368064,
        "weight": 0.8904394642368064,
        "size": 890.4394642368064,
        "color_r": 68,
        "color_g": 1,
        "color_b": 84,
        "color_a": 1.0
      },
      "geometry": {
        "type": "Point",
        "coordinates": [
          -75.141346,
          6.376061
        ]
      }
    },
    {
      "type": "Feature",
      "properties": {
        "id": "ANGELÓPOLIS",
        "label": "ANGELÓPOLIS",
        "code": "5036",
        "community": 4,
        "pagerank": 0.01206862670422718,
        "weight": 1.206862670422718,
        "size": 1206.862670422718,
        "color_r": 44,
        "color_g": 114,
        "color_b": 142,
        "color_a": 1.0
      },
      "geometry": {
        "type": "Point",
        "coordinates": [
          -75.711389,
          6.109719
        ]
      }
    },
    {
      "type": "Feature",
      "properties": {
        "id": "LA ESTRELLA",
        "label": "LA ESTRELLA",
        "code": "5380",
        "community": 4,
        "pagerank": 0.00837752205057304,
        "weight": 0.8377522050573041,
        "size": 837.7522050573041,
        "color_r": 44,
        "color_g": 114,
        "color_b": 142,
        "color_a": 1.0
      },
      "geometry": {
        "type": "Point",
        "coordinates": [
          -75.637708,
          6.145238
        ]
      }
    },
    {
      "type": "Feature",
      "properties": {
        "id": "ARMENIA",
        "label": "ARMENIA",
        "code": "5059",
        "community": 4,
        "pagerank": 0.015427876444640267,
        "weight": 1.5427876444640267,
        "size": 1542.7876444640267,
        "color_r": 44,
        "color_g": 114,
        "color_b": 142,
        "color_a": 1.0
      },
      "geometry": {
        "type": "Point",
        "coordinates": [
          -75.786647,
          6.155667
        ]
      }
    },
    {
      "type": "Feature",
      "properties": {
        "id": "ENVIGADO",
        "label": "ENVIGADO",
        "code": "5266",
        "community": 6,
        "pagerank": 0.011256566599871903,
        "weight": 1.1256566599871902,
        "size": 1125.6566599871903,
        "color_r": 39,
        "color_g": 173,
        "color_b": 129,
        "color_a": 1.0
      },
      "geometry": {
        "type": "Point",
        "coordinates": [
          -75.582192,
          6.166695
        ]
      }
    },
    {
      "type": "Feature",
      "properties": {
        "id": "SABANETA",
        "label": "SABANETA",
        "code": "5631",
        "community": 6,
        "pagerank": 0.011318570000956424,
        "weight": 1.1318570000956425,
        "size": 1131.8570000956424,
        "color_r": 39,
        "color_g": 173,
        "color_b": 129,
        "color_a": 1.0
      },
      "geometry": {
        "type": "Point",
        "coordinates": [
          -75.615479,
          6.149903
        ]
      }
    },
    {
      "type": "Feature",
      "properties": {
        "id": "CALDAS",
        "label": "CALDAS",
        "code": "5129",
        "community": 6,
        "pagerank": 0.01040332540949829,
        "weight": 1.040332540949829,
        "size": 1040.3325409498289,
        "color_r": 39,
        "color_g": 173,
        "color_b": 129,
        "color_a": 1.0
      },
      "geometry": {
        "type": "Point",
        "coordinates": [
          -75.633673,
          6.091077
        ]
      }
    },
    {
      "type": "Feature",
      "properties": {
        "id": "RIONEGRO",
        "label": "RIONEGRO",
        "code": "5615",
        "community": 1,
        "pagerank": 0.01082763168467916,
        "weight": 1.082763168467916,
        "size": 1082.7631684679159,
        "color_r": 68,
        "color_g": 1,
        "color_b": 84,
        "color_a": 1.0
      },
      "geometry": {
        "type": "Point",
        "coordinates": [
          -75.377316,
          6.147148
        ]
      }
    },
    {
      "type": "Feature",
      "properties": {
        "id": "MARINILLA",
        "label": "MARINILLA",
        "code": "5440",
        "community": 1,
        "pagerank": 0.00814823116644137,
        "weight": 0.814823116644137,
        "size": 814.823116644137,
        "color_r": 68,
        "color_g": 1,
        "color_b": 84,
        "color_a": 1.0
      },
      "geometry": {
        "type": "Point",
        "coordinates": [
          -75.339345,
          6.173995
        ]
      }
    },
    {
      "type": "Feature",
      "properties": {
        "id": "PEÑOL",
        "label": "PEÑOL",
        "code": "5541",
        "community": 1,
        "pagerank": 0.009694676239341993,
        "weight": 0.9694676239341994,
        "size": 969.4676239341993,
        "color_r": 68,
        "color_g": 1,
        "color_b": 84,
        "color_a": 1.0
      },
      "geometry": {
        "type": "Point",
        "coordinates": [
          -75.242693,
          6.219349
        ]
      }
    },
    {
      "type": "Feature",
      "properties": {
        "id": "SAN RAFAEL",
        "label": "SAN RAFAEL",
        "code": "5667",
        "community": 1,
        "pagerank": 0.00718908628665744,
        "weight": 0.718908628665744,
        "size": 718.908628665744,
        "color_r": 68,
        "color_g": 1,
        "color_b": 84,
        "color_a": 1.0
      },
      "geometry": {
        "type": "Point",
        "coordinates": [
          -75.02849,
          6.293759
        ]
      }
    },
    {
      "type": "Feature",
      "properties": {
        "id": "GUATAPÉ",
        "label": "GUATAPÉ",
        "code": "5321",
        "community": 1,
        "pagerank": 0.008410939681360391,
        "weight": 0.8410939681360391,
        "size": 841.093968136039,
        "color_r": 68,
        "color_g": 1,
        "color_b": 84,
        "color_a": 1.0
      },
      "geometry": {
        "type": "Point",
        "coordinates": [
          -75.160041,
          6.232461
        ]
      }
    },
    {
      "type": "Feature",
      "properties": {
        "id": "GRANADA",
        "label": "GRANADA",
        "code": "5313",
        "community": 1,
        "pagerank": 0.008262218925355743,
        "weight": 0.8262218925355743,
        "size": 826.2218925355744,
        "color_r": 68,
        "color_g": 1,
        "color_b": 84,
        "color_a": 1.0
      },
      "geometry": {
        "type": "Point",
        "coordinates": [
          -75.184446,
          6.142892
        ]
      }
    },
    {
      "type": "Feature",
      "properties": {
        "id": "COCORNÁ",
        "label": "COCORNÁ",
        "code": "5197",
        "community": 1,
        "pagerank": 0.009496891213645862,
        "weight": 0.9496891213645862,
        "size": 949.6891213645862,
        "color_r": 68,
        "color_g": 1,
        "color_b": 84,
        "color_a": 1.0
      },
      "geometry": {
        "type": "Point",
        "coordinates": [
          -75.185483,
          6.058295
        ]
      }
    },
    {
      "type": "Feature",
      "properties": {
        "id": "EL SANTUARIO",
        "label": "EL SANTUARIO",
        "code": "5697",
        "community": 1,
        "pagerank": 0.008638326758977001,
        "weight": 0.8638326758977001,
        "size": 863.8326758977001,
        "color_r": 68,
        "color_g": 1,
        "color_b": 84,
        "color_a": 1.0
      },
      "geometry": {
        "type": "Point",
        "coordinates": [
          -75.265465,
          6.136871
        ]
      }
    },
    {
      "type": "Feature",
      "properties": {
        "id": "EL CARMEN DE VIBORAL",
        "label": "EL CARMEN DE VIBORAL",
        "code": "5148",
        "community": 1,
        "pagerank": 0.010312247990349795,
        "weight": 1.0312247990349794,
        "size": 1031.2247990349795,
        "color_r": 68,
        "color_g": 1,
        "color_b": 84,
        "color_a": 1.0
      },
      "geometry": {
        "type": "Point",
        "coordinates": [
          -75.333901,
          6.082885
        ]
      }
    },
    {
      "type": "Feature",
      "properties": {
        "id": "SAN CARLOS",
        "label": "SAN CARLOS",
        "code": "5649",
        "community": 1,
        "pagerank": 0.011144001336254698,
        "weight": 1.1144001336254699,
        "size": 1114.4001336254698,
        "color_r": 68,
        "color_g": 1,
        "color_b": 84,
        "color_a": 1.0
      },
      "geometry": {
        "type": "Point",
        "coordinates": [
          -74.988097,
          6.187746
        ]
      }
    },
    {
      "type": "Feature",
      "properties": {
        "id": "SAN LUIS",
        "label": "SAN LUIS",
        "code": "5660",
        "community": 1,
        "pagerank": 0.007172023964962821,
        "weight": 0.7172023964962821,
        "size": 717.2023964962821,
        "color_r": 68,
        "color_g": 1,
        "color_b": 84,
        "color_a": 1.0
      },
      "geometry": {
        "type": "Point",
        "coordinates": [
          -74.993619,
          6.043017
        ]
      }
    },
    {
      "type": "Feature",
      "properties": {
        "id": "RETIRO",
        "label": "RETIRO",
        "code": "5607",
        "community": 6,
        "pagerank": 0.011421774930385233,
        "weight": 1.1421774930385233,
        "size": 1142.1774930385234,
        "color_r": 39,
        "color_g": 173,
        "color_b": 129,
        "color_a": 1.0
      },
      "geometry": {
        "type": "Point",
        "coordinates": [
          -75.501301,
          6.062454
        ]
      }
    },
    {
      "type": "Feature",
      "properties": {
        "id": "LA CEJA",
        "label": "LA CEJA",
        "code": "5376",
        "community": 1,
        "pagerank": 0.009775148639685304,
        "weight": 0.9775148639685304,
        "size": 977.5148639685303,
        "color_r": 68,
        "color_g": 1,
        "color_b": 84,
        "color_a": 1.0
      },
      "geometry": {
        "type": "Point",
        "coordinates": [
          -75.429433,
          6.028062
        ]
      }
    },
    {
      "type": "Feature",
      "properties": {
        "id": "LA UNIÓN",
        "label": "LA UNIÓN",
        "code": "5400",
        "community": 1,
        "pagerank": 0.008705608940657346,
        "weight": 0.8705608940657346,
        "size": 870.5608940657346,
        "color_r": 68,
        "color_g": 1,
        "color_b": 84,
        "color_a": 1.0
      },
      "geometry": {
        "type": "Point",
        "coordinates": [
          -75.360874,
          5.973845
        ]
      }
    },
    {
      "type": "Feature",
      "properties": {
        "id": "MACEO",
        "label": "MACEO",
        "code": "5425",
        "community": 100,
        "pagerank": 0.007109192342983351,
        "weight": 0.7109192342983351,
        "size": 710.9192342983351,
        "color_r": 44,
        "color_g": 114,
        "color_b": 142,
        "color_a": 1.0
      },
      "geometry": {
        "type": "Point",
        "coordinates": [
          -74.78716,
          6.552116
        ]
      }
    },
    {
      "type": "Feature",
      "properties": {
        "id": "CARACOLÍ",
        "label": "CARACOLÍ",
        "code": "5142",
        "community": 100,
        "pagerank": 0.005095365294030742,
        "weight": 0.5095365294030741,
        "size": 509.53652940307416,
        "color_r": 44,
        "color_g": 114,
        "color_b": 142,
        "color_a": 1.0
      },
      "geometry": {
        "type": "Point",
        "coordinates": [
          -74.757421,
          6.409829
        ]
      }
    },
    {
      "type": "Feature",
      "properties": {
        "id": "SAN FRANCISCO",
        "label": "SAN FRANCISCO",
        "code": "5652",
        "community": 8,
        "pagerank": 0.005867833485269587,
        "weight": 0.5867833485269587,
        "size": 586.7833485269587,
        "color_r": 170,
        "color_g": 220,
        "color_b": 50,
        "color_a": 1.0
      },
      "geometry": {
        "type": "Point",
        "coordinates": [
          -75.101562,
          5.963476
        ]
      }
    },
    {
      "type": "Feature",
      "properties": {
        "id": "TITIRIBÍ",
        "label": "TITIRIBÍ",
        "code": "5809",
        "community": 4,
        "pagerank": 0.009716776224976584,
        "weight": 0.9716776224976584,
        "size": 971.6776224976584,
        "color_r": 44,
        "color_g": 114,
        "color_b": 142,
        "color_a": 1.0
      },
      "geometry": {
        "type": "Point",
        "coordinates": [
          -75.791887,
          6.062391
        ]
      }
    },
    {
      "type": "Feature",
      "properties": {
        "id": "AMAGÁ",
        "label": "AMAGÁ",
        "code": "5030",
        "community": 4,
        "pagerank": 0.008180805673906645,
        "weight": 0.8180805673906645,
        "size": 818.0805673906646,
        "color_r": 44,
        "color_g": 114,
        "color_b": 142,
        "color_a": 1.0
      },
      "geometry": {
        "type": "Point",
        "coordinates": [
          -75.702188,
          6.038708
        ]
      }
    },
    {
      "type": "Feature",
      "properties": {
        "id": "VENECIA",
        "label": "VENECIA",
        "code": "5861",
        "community": 6,
        "pagerank": 0.00938814642331621,
        "weight": 0.938814642331621,
        "size": 938.814642331621,
        "color_r": 39,
        "color_g": 173,
        "color_b": 129,
        "color_a": 1.0
      },
      "geometry": {
        "type": "Point",
        "coordinates": [
          -75.735544,
          5.964693
        ]
      }
    },
    {
      "type": "Feature",
      "properties": {
        "id": "FREDONIA",
        "label": "FREDONIA",
        "code": "5282",
        "community": 6,
        "pagerank": 0.01074034813912176,
        "weight": 1.074034813912176,
        "size": 1074.0348139121759,
        "color_r": 39,
        "color_g": 173,
        "color_b": 129,
        "color_a": 1.0
      },
      "geometry": {
        "type": "Point",
        "coordinates": [
          -75.675072,
          5.928039
        ]
      }
    },
    {
      "type": "Feature",
      "properties": {
        "id": "CONCORDIA",
        "label": "CONCORDIA",
        "code": "5209",
        "community": 2,
        "pagerank": 0.007719579383015129,
        "weight": 0.7719579383015129,
        "size": 771.9579383015129,
        "color_r": 71,
        "color_g": 45,
        "color_b": 123,
        "color_a": 1.0
      },
      "geometry": {
        "type": "Point",
        "coordinates": [
          -75.908448,
          6.045738
        ]
      }
    },
    {
      "type": "Feature",
      "properties": {
        "id": "SALGAR",
        "label": "SALGAR",
        "code": "5642",
        "community": 2,
        "pagerank": 0.0068592102605314785,
        "weight": 0.6859210260531479,
        "size": 685.9210260531479,
        "color_r": 71,
        "color_g": 45,
        "color_b": 123,
        "color_a": 1.0
      },
      "geometry": {
        "type": "Point",
        "coordinates": [
          -75.976807,
          5.964198
        ]
      }
    },
    {
      "type": "Feature",
      "properties": {
        "id": "CIUDAD BOLÍVAR",
        "label": "CIUDAD BOLÍVAR",
        "code": "5101",
        "community": 5,
        "pagerank": 0.006087849334238623,
        "weight": 0.6087849334238623,
        "size": 608.7849334238623,
        "color_r": 33,
        "color_g": 145,
        "color_b": 140,
        "color_a": 1.0
      },
      "geometry": {
        "type": "Point",
        "coordinates": [
          -76.021509,
          5.850273
        ]
      }
    },
    {
      "type": "Feature",
      "properties": {
        "id": "SANTA BÁRBARA",
        "label": "SANTA BÁRBARA",
        "code": "5679",
        "community": 6,
        "pagerank": 0.009990027518816192,
        "weight": 0.9990027518816191,
        "size": 999.0027518816191,
        "color_r": 39,
        "color_g": 173,
        "color_b": 129,
        "color_a": 1.0
      },
      "geometry": {
        "type": "Point",
        "coordinates": [
          -75.567351,
          5.875527
        ]
      }
    },
    {
      "type": "Feature",
      "properties": {
        "id": "MONTEBELLO",
        "label": "MONTEBELLO",
        "code": "5467",
        "community": 6,
        "pagerank": 0.008001610416796345,
        "weight": 0.8001610416796345,
        "size": 800.1610416796345,
        "color_r": 39,
        "color_g": 173,
        "color_b": 129,
        "color_a": 1.0
      },
      "geometry": {
        "type": "Point",
        "coordinates": [
          -75.523455,
          5.946313
        ]
      }
    },
    {
      "type": "Feature",
      "properties": {
        "id": "SONSÓN",
        "label": "SONSÓN",
        "code": "5756",
        "community": 8,
        "pagerank": 0.008156772351300587,
        "weight": 0.8156772351300587,
        "size": 815.6772351300588,
        "color_r": 170,
        "color_g": 220,
        "color_b": 50,
        "color_a": 1.0
      },
      "geometry": {
        "type": "Point",
        "coordinates": [
          -75.309596,
          5.714851
        ]
      }
    },
    {
      "type": "Feature",
      "properties": {
        "id": "ABEJORRAL",
        "label": "ABEJORRAL",
        "code": "5002",
        "community": 1,
        "pagerank": 0.008598177768932035,
        "weight": 0.8598177768932035,
        "size": 859.8177768932035,
        "color_r": 68,
        "color_g": 1,
        "color_b": 84,
        "color_a": 1.0
      },
      "geometry": {
        "type": "Point",
        "coordinates": [
          -75.428739,
          5.789315
        ]
      }
    },
    {
      "type": "Feature",
      "properties": {
        "id": "PUEBLORRICO",
        "label": "PUEBLORRICO",
        "code": "5576",
        "community": 5,
        "pagerank": 0.007854114719984177,
        "weight": 0.7854114719984177,
        "size": 785.4114719984177,
        "color_r": 33,
        "color_g": 145,
        "color_b": 140,
        "color_a": 1.0
      },
      "geometry": {
        "type": "Point",
        "coordinates": [
          -75.839903,
          5.79158
        ]
      }
    },
    {
      "type": "Feature",
      "properties": {
        "id": "ARGELIA",
        "label": "ARGELIA",
        "code": "5055",
        "community": 8,
        "pagerank": 0.007052605428439295,
        "weight": 0.7052605428439296,
        "size": 705.2605428439296,
        "color_r": 170,
        "color_g": 220,
        "color_b": 50,
        "color_a": 1.0
      },
      "geometry": {
        "type": "Point",
        "coordinates": [
          -75.14107,
          5.731474
        ]
      }
    },
    {
      "type": "Feature",
      "properties": {
        "id": "NARIÑO",
        "label": "NARIÑO",
        "code": "5483",
        "community": 8,
        "pagerank": 0.00507087679393434,
        "weight": 0.507087679393434,
        "size": 507.08767939343403,
        "color_r": 170,
        "color_g": 220,
        "color_b": 50,
        "color_a": 1.0
      },
      "geometry": {
        "type": "Point",
        "coordinates": [
          -75.176262,
          5.610777
        ]
      }
    },
    {
      "type": "Feature",
      "properties": {
        "id": "JERICÓ",
        "label": "JERICÓ",
        "code": "5368",
        "community": 5,
        "pagerank": 0.008033275529959557,
        "weight": 0.8033275529959557,
        "size": 803.3275529959557,
        "color_r": 33,
        "color_g": 145,
        "color_b": 140,
        "color_a": 1.0
      },
      "geometry": {
        "type": "Point",
        "coordinates": [
          -75.785499,
          5.789748
        ]
      }
    },
    {
      "type": "Feature",
      "properties": {
        "id": "TARSO",
        "label": "TARSO",
        "code": "5792",
        "community": 5,
        "pagerank": 0.008663859335015588,
        "weight": 0.8663859335015588,
        "size": 866.3859335015587,
        "color_r": 33,
        "color_g": 145,
        "color_b": 140,
        "color_a": 1.0
      },
      "geometry": {
        "type": "Point",
        "coordinates": [
          -75.822956,
          5.864542
        ]
      }
    },
    {
      "type": "Feature",
      "properties": {
        "id": "BETANIA",
        "label": "BETANIA",
        "code": "5091",
        "community": 5,
        "pagerank": 0.0059492371805853084,
        "weight": 0.5949237180585308,
        "size": 594.9237180585309,
        "color_r": 33,
        "color_g": 145,
        "color_b": 140,
        "color_a": 1.0
      },
      "geometry": {
        "type": "Point",
        "coordinates": [
          -75.97679,
          5.74615
        ]
      }
    },
    {
      "type": "Feature",
      "properties": {
        "id": "HISPANIA",
        "label": "HISPANIA",
        "code": "5353",
        "community": 5,
        "pagerank": 0.010498050175389798,
        "weight": 1.04980501753898,
        "size": 1049.8050175389799,
        "color_r": 33,
        "color_g": 145,
        "color_b": 140,
        "color_a": 1.0
      },
      "geometry": {
        "type": "Point",
        "coordinates": [
          -75.906587,
          5.799461
        ]
      }
    },
    {
      "type": "Feature",
      "properties": {
        "id": "LA PINTADA",
        "label": "LA PINTADA",
        "code": "5390",
        "community": 100,
        "pagerank": 0.013715222876707452,
        "weight": 1.3715222876707451,
        "size": 1371.5222876707453,
        "color_r": 44,
        "color_g": 114,
        "color_b": 142,
        "color_a": 1.0
      },
      "geometry": {
        "type": "Point",
        "coordinates": [
          -75.60781,
          5.743808
        ]
      }
    },
    {
      "type": "Feature",
      "properties": {
        "id": "CARAMANTA",
        "label": "CARAMANTA",
        "code": "5145",
        "community": 5,
        "pagerank": 0.0037844094964682336,
        "weight": 0.37844094964682334,
        "size": 378.44094964682336,
        "color_r": 33,
        "color_g": 145,
        "color_b": 140,
        "color_a": 1.0
      },
      "geometry": {
        "type": "Point",
        "coordinates": [
          -75.643868,
          5.54853
        ]
      }
    },
    {
      "type": "Feature",
      "properties": {
        "id": "TÁMESIS",
        "label": "TÁMESIS",
        "code": "5789",
        "community": 5,
        "pagerank": 0.007307103866643561,
        "weight": 0.7307103866643562,
        "size": 730.7103866643562,
        "color_r": 33,
        "color_g": 145,
        "color_b": 140,
        "color_a": 1.0
      },
      "geometry": {
        "type": "Point",
        "coordinates": [
          -75.714429,
          5.664645
        ]
      }
    },
    {
      "type": "Feature",
      "properties": {
        "id": "VALPARAÍSO",
        "label": "VALPARAÍSO",
        "code": "5856",
        "community": 5,
        "pagerank": 0.011324598225376523,
        "weight": 1.1324598225376523,
        "size": 1132.4598225376524,
        "color_r": 33,
        "color_g": 145,
        "color_b": 140,
        "color_a": 1.0
      },
      "geometry": {
        "type": "Point",
        "coordinates": [
          -75.624452,
          5.614555
        ]
      }
    },
    {
      "type": "Feature",
      "properties": {
        "id": "PUERTO NARE",
        "label": "PUERTO NARE",
        "code": "5585",
        "community": 100,
        "pagerank": 0.0036902308126844406,
        "weight": 0.3690230812684441,
        "size": 369.02308126844406,
        "color_r": 44,
        "color_g": 114,
        "color_b": 142,
        "color_a": 1.0
      },
      "geometry": {
        "type": "Point",
        "coordinates": [
          -74.583012,
          6.186025
        ]
      }
    },
    {
      "type": "Feature",
      "properties": {
        "id": "ANDES",
        "label": "ANDES",
        "code": "5034",
        "community": 5,
        "pagerank": 0.006175506446911613,
        "weight": 0.6175506446911613,
        "size": 617.5506446911612,
        "color_r": 33,
        "color_g": 145,
        "color_b": 140,
        "color_a": 1.0
      },
      "geometry": {
        "type": "Point",
        "coordinates": [
          -75.878828,
          5.657194
        ]
      }
    },
    {
      "type": "Feature",
      "properties": {
        "id": "PUERTO BERRÍO",
        "label": "PUERTO BERRÍO",
        "code": "5579",
        "community": 100,
        "pagerank": 0.0051968675007228885,
        "weight": 0.5196867500722888,
        "size": 519.6867500722889,
        "color_r": 44,
        "color_g": 114,
        "color_b": 142,
        "color_a": 1.0
      },
      "geometry": {
        "type": "Point",
        "coordinates": [
          -74.410016,
          6.487028
        ]
      }
    },
    {
      "type": "Feature",
      "properties": {
        "id": "JARDÍN",
        "label": "JARDÍN",
        "code": "5364",
        "community": 5,
        "pagerank": 0.005221118371122982,
        "weight": 0.5221118371122981,
        "size": 522.1118371122982,
        "color_r": 33,
        "color_g": 145,
        "color_b": 140,
        "color_a": 1.0
      },
      "geometry": {
        "type": "Point",
        "coordinates": [
          -75.818982,
          5.597542
        ]
      }
    },
    {
      "type": "Feature",
      "properties": {
        "id": "PUERTO TRIUNFO",
        "label": "PUERTO TRIUNFO",
        "code": "5591",
        "community": 100,
        "pagerank": 0.011319132772767129,
        "weight": 1.1319132772767129,
        "size": 1131.913277276713,
        "color_r": 44,
        "color_g": 114,
        "color_b": 142,
        "color_a": 1.0
      },
      "geometry": {
        "type": "Point",
        "coordinates": [
          -74.64119,
          5.871318
        ]
      }
    }
  ]
}