{
"type": "FeatureCollection",
"name": "fig2_undirected_Pperuviana_9km_10steps_10reps_municipalities_network_v2_nodes",
"crs": { "type": "name", "properties": { "name": "urn:ogc:def:crs:OGC:1.3:CRS84" } },
"features": [
{ "type": "Feature", "properties": { "id": "ITUANGO", "label": "ITUANGO", "code": "5361", "community": 10, "pagerank": 0.023947301211269256, "weight": 2.3947301211269254, "size": 2394.7301211269255, "color_r": 0, "color_g": 255, "color_b": 0, "color_a": 1.0 }, "geometry": { "type": "Point", "coordinates": [ -75.764673, 7.171629 ] } },
{ "type": "Feature", "properties": { "id": "TARAZÁ", "label": "TARAZÁ", "code": "5790", "community": 12, "pagerank": 0.0036157322857893895, "weight": 0.36157322857893898, "size": 361.57322857893894, "color_r": 75, "color_g": 0, "color_b": 130, "color_a": 1.0 }, "geometry": { "type": "Point", "coordinates": [ -75.401407, 7.580127 ] } },
{ "type": "Feature", "properties": { "id": "VALDIVIA", "label": "VALDIVIA", "code": "5854", "community": 9, "pagerank": 0.0032223872951878236, "weight": 0.32223872951878235, "size": 322.23872951878235, "color_r": 128, "color_g": 128, "color_b": 128, "color_a": 1.0 }, "geometry": { "type": "Point", "coordinates": [ -75.439274, 7.1652 ] } },
{ "type": "Feature", "properties": { "id": "BRICEÑO", "label": "BRICEÑO", "code": "5107", "community": 9, "pagerank": 0.0084428732325159093, "weight": 0.84428732325159095, "size": 844.28732325159092, "color_r": 128, "color_g": 128, "color_b": 128, "color_a": 1.0 }, "geometry": { "type": "Point", "coordinates": [ -75.55036, 7.112803 ] } },
{ "type": "Feature", "properties": { "id": "YARUMAL", "label": "YARUMAL", "code": "5887", "community": 9, "pagerank": 0.0064270206754154461, "weight": 0.64270206754154457, "size": 642.70206754154458, "color_r": 128, "color_g": 128, "color_b": 128, "color_a": 1.0 }, "geometry": { "type": "Point", "coordinates": [ -75.418828, 6.963832 ] } },
{ "type": "Feature", "properties": { "id": "MUTATÁ", "label": "MUTATÁ", "code": "5480", "community": 10, "pagerank": 0.022723920236752751, "weight": 2.272392023675275, "size": 2272.3920236752751, "color_r": 0, "color_g": 255, "color_b": 0, "color_a": 1.0 }, "geometry": { "type": "Point", "coordinates": [ -76.435875, 7.242875 ] } },
{ "type": "Feature", "properties": { "id": "DABEIBA", "label": "DABEIBA", "code": "5234", "community": 2, "pagerank": 0.0074473821161321358, "weight": 0.74473821161321363, "size": 744.73821161321359, "color_r": 255, "color_g": 165, "color_b": 0, "color_a": 1.0 }, "geometry": { "type": "Point", "coordinates": [ -76.261614, 6.998112 ] } },
{ "type": "Feature", "properties": { "id": "PEQUE", "label": "PEQUE", "code": "5543", "community": 2, "pagerank": 0.010915080452028273, "weight": 1.0915080452028274, "size": 1091.5080452028274, "color_r": 255, "color_g": 165, "color_b": 0, "color_a": 1.0 }, "geometry": { "type": "Point", "coordinates": [ -75.910357, 7.021029 ] } },
{ "type": "Feature", "properties": { "id": "URAMITA", "label": "URAMITA", "code": "5842", "community": 2, "pagerank": 0.013400387234676937, "weight": 1.3400387234676938, "size": 1340.0387234676937, "color_r": 255, "color_g": 165, "color_b": 0, "color_a": 1.0 }, "geometry": { "type": "Point", "coordinates": [ -76.173284, 6.898393 ] } },
{ "type": "Feature", "properties": { "id": "TOLEDO", "label": "TOLEDO", "code": "5819", "community": 3, "pagerank": 0.0040745058703029382, "weight": 0.4074505870302938, "size": 407.45058703029383, "color_r": 128, "color_g": 0, "color_b": 128, "color_a": 1.0 }, "geometry": { "type": "Point", "coordinates": [ -75.692281, 7.010328 ] } },
{ "type": "Feature", "properties": { "id": "SABANALARGA", "label": "SABANALARGA", "code": "5628", "community": 3, "pagerank": 0.0068279027480573099, "weight": 0.68279027480573096, "size": 682.79027480573097, "color_r": 128, "color_g": 0, "color_b": 128, "color_a": 1.0 }, "geometry": { "type": "Point", "coordinates": [ -75.816645, 6.850028 ] } },
{ "type": "Feature", "properties": { "id": "CAÑASGORDAS", "label": "CAÑASGORDAS", "code": "5138", "community": 2, "pagerank": 0.0073914866173835515, "weight": 0.73914866173835514, "size": 739.14866173835514, "color_r": 255, "color_g": 165, "color_b": 0, "color_a": 1.0 }, "geometry": { "type": "Point", "coordinates": [ -76.028228, 6.753859 ] } },
{ "type": "Feature", "properties": { "id": "BURITICÁ", "label": "BURITICÁ", "code": "5113", "community": 2, "pagerank": 0.0074499882262655075, "weight": 0.74499882262655071, "size": 744.99882262655069, "color_r": 255, "color_g": 165, "color_b": 0, "color_a": 1.0 }, "geometry": { "type": "Point", "coordinates": [ -75.907, 6.720759 ] } },
{ "type": "Feature", "properties": { "id": "SAN ANDRÉS DE CUERQUÍA", "label": "SAN ANDRÉS DE CUERQUÍA", "code": "5647", "community": 3, "pagerank": 0.01739271889656295, "weight": 1.7392718896562951, "size": 1739.2718896562951, "color_r": 128, "color_g": 0, "color_b": 128, "color_a": 1.0 }, "geometry": { "type": "Point", "coordinates": [ -75.674564, 6.916676 ] } },
{ "type": "Feature", "properties": { "id": "SANTA ROSA DE OSOS", "label": "SANTA ROSA DE OSOS", "code": "5686", "community": 3, "pagerank": 0.012063500900201734, "weight": 1.2063500900201733, "size": 1206.3500900201734, "color_r": 128, "color_g": 0, "color_b": 128, "color_a": 1.0 }, "geometry": { "type": "Point", "coordinates": [ -75.460723, 6.643366 ] } },
{ "type": "Feature", "properties": { "id": "ANGOSTURA", "label": "ANGOSTURA", "code": "5038", "community": 3, "pagerank": 0.0078417459619692757, "weight": 0.78417459619692753, "size": 784.17459619692761, "color_r": 128, "color_g": 0, "color_b": 128, "color_a": 1.0 }, "geometry": { "type": "Point", "coordinates": [ -75.335116, 6.885175 ] } },
{ "type": "Feature", "properties": { "id": "CAMPAMENTO", "label": "CAMPAMENTO", "code": "5134", "community": 3, "pagerank": 0.0055495807428518175, "weight": 0.55495807428518173, "size": 554.95807428518174, "color_r": 128, "color_g": 0, "color_b": 128, "color_a": 1.0 }, "geometry": { "type": "Point", "coordinates": [ -75.298091, 6.979771 ] } },
{ "type": "Feature", "properties": { "id": "CAROLINA", "label": "CAROLINA", "code": "5150", "community": 3, "pagerank": 0.0093785469596912308, "weight": 0.93785469596912308, "size": 937.8546959691231, "color_r": 128, "color_g": 0, "color_b": 128, "color_a": 1.0 }, "geometry": { "type": "Point", "coordinates": [ -75.283192, 6.725995 ] } },
{ "type": "Feature", "properties": { "id": "GUADALUPE", "label": "GUADALUPE", "code": "5315", "community": 3, "pagerank": 0.0077183485909673851, "weight": 0.77183485909673855, "size": 771.83485909673857, "color_r": 128, "color_g": 0, "color_b": 128, "color_a": 1.0 }, "geometry": { "type": "Point", "coordinates": [ -75.239862, 6.815069 ] } },
{ "type": "Feature", "properties": { "id": "SAN JOSÉ DE LA MONTAÑA", "label": "SAN JOSÉ DE LA MONTAÑA", "code": "5658", "community": 3, "pagerank": 0.0094469861970137518, "weight": 0.94469861970137514, "size": 944.69861970137515, "color_r": 128, "color_g": 0, "color_b": 128, "color_a": 1.0 }, "geometry": { "type": "Point", "coordinates": [ -75.683352, 6.85009 ] } },
{ "type": "Feature", "properties": { "id": "BELMIRA", "label": "BELMIRA", "code": "5086", "community": 7, "pagerank": 0.023230625609705541, "weight": 2.3230625609705542, "size": 2323.0625609705539, "color_r": 255, "color_g": 255, "color_b": 0, "color_a": 1.0 }, "geometry": { "type": "Point", "coordinates": [ -75.667779, 6.606319 ] } },
{ "type": "Feature", "properties": { "id": "LIBORINA", "label": "LIBORINA", "code": "5411", "community": 3, "pagerank": 0.0084878690165198917, "weight": 0.84878690165198911, "size": 848.78690165198918, "color_r": 128, "color_g": 0, "color_b": 128, "color_a": 1.0 }, "geometry": { "type": "Point", "coordinates": [ -75.812838, 6.677316 ] } },
{ "type": "Feature", "properties": { "id": "FRONTINO", "label": "FRONTINO", "code": "5284", "community": 2, "pagerank": 0.030386914190386045, "weight": 3.0386914190386043, "size": 3038.6914190386046, "color_r": 255, "color_g": 165, "color_b": 0, "color_a": 1.0 }, "geometry": { "type": "Point", "coordinates": [ -76.130765, 6.776066 ] } },
{ "type": "Feature", "properties": { "id": "ANORÍ", "label": "ANORÍ", "code": "5040", "community": 3, "pagerank": 0.0072840326127158548, "weight": 0.7284032612715855, "size": 728.40326127158551, "color_r": 128, "color_g": 0, "color_b": 128, "color_a": 1.0 }, "geometry": { "type": "Point", "coordinates": [ -75.148355, 7.074703 ] } },
{ "type": "Feature", "properties": { "id": "GÓMEZ PLATA", "label": "GÓMEZ PLATA", "code": "5310", "community": 3, "pagerank": 0.010287140350976904, "weight": 1.0287140350976904, "size": 1028.7140350976904, "color_r": 128, "color_g": 0, "color_b": 128, "color_a": 1.0 }, "geometry": { "type": "Point", "coordinates": [ -75.220018, 6.683269 ] } },
{ "type": "Feature", "properties": { "id": "ENTRERRÍOS", "label": "ENTRERRÍOS", "code": "5264", "community": 7, "pagerank": 0.011753412172967014, "weight": 1.1753412172967013, "size": 1175.3412172967014, "color_r": 255, "color_g": 255, "color_b": 0, "color_a": 1.0 }, "geometry": { "type": "Point", "coordinates": [ -75.517685, 6.566273 ] } },
{ "type": "Feature", "properties": { "id": "AMALFI", "label": "AMALFI", "code": "5031", "community": 11, "pagerank": 0.007312869169256689, "weight": 0.73128691692566894, "size": 731.28691692566895, "color_r": 0, "color_g": 128, "color_b": 128, "color_a": 1.0 }, "geometry": { "type": "Point", "coordinates": [ -75.077501, 6.909655 ] } },
{ "type": "Feature", "properties": { "id": "ABRIAQUÍ", "label": "ABRIAQUÍ", "code": "5004", "community": 2, "pagerank": 0.014788959091072681, "weight": 1.4788959091072682, "size": 1478.8959091072682, "color_r": 255, "color_g": 165, "color_b": 0, "color_a": 1.0 }, "geometry": { "type": "Point", "coordinates": [ -76.064304, 6.632282 ] } },
{ "type": "Feature", "properties": { "id": "YOLOMBÓ", "label": "YOLOMBÓ", "code": "5890", "community": 11, "pagerank": 0.0091940991894398465, "weight": 0.91940991894398461, "size": 919.40991894398462, "color_r": 0, "color_g": 128, "color_b": 128, "color_a": 1.0 }, "geometry": { "type": "Point", "coordinates": [ -75.013385, 6.594511 ] } },
{ "type": "Feature", "properties": { "id": "OLAYA", "label": "OLAYA", "code": "5501", "community": 3, "pagerank": 0.0052669113560884894, "weight": 0.52669113560884895, "size": 526.69113560884898, "color_r": 128, "color_g": 0, "color_b": 128, "color_a": 1.0 }, "geometry": { "type": "Point", "coordinates": [ -75.811773, 6.626492 ] } },
{ "type": "Feature", "properties": { "id": "GIRALDO", "label": "GIRALDO", "code": "5306", "community": 2, "pagerank": 0.0053446484052807842, "weight": 0.53446484052807841, "size": 534.46484052807841, "color_r": 255, "color_g": 165, "color_b": 0, "color_a": 1.0 }, "geometry": { "type": "Point", "coordinates": [ -75.952158, 6.680808 ] } },
{ "type": "Feature", "properties": { "id": "SANTA FÉ DE ANTIOQUIA", "label": "SANTA FÉ DE ANTIOQUIA", "code": "5042", "community": 2, "pagerank": 0.0090357844663385284, "weight": 0.90357844663385278, "size": 903.57844663385288, "color_r": 255, "color_g": 165, "color_b": 0, "color_a": 1.0 }, "geometry": { "type": "Point", "coordinates": [ -75.826648, 6.556484 ] } },
{ "type": "Feature", "properties": { "id": "SOPETRÁN", "label": "SOPETRÁN", "code": "5761", "community": 3, "pagerank": 0.0095258832567478146, "weight": 0.95258832567478147, "size": 952.58832567478146, "color_r": 128, "color_g": 0, "color_b": 128, "color_a": 1.0 }, "geometry": { "type": "Point", "coordinates": [ -75.747378, 6.500745 ] } },
{ "type": "Feature", "properties": { "id": "SAN PEDRO DE LOS MILAGROS", "label": "SAN PEDRO DE LOS MILAGROS", "code": "5664", "community": 7, "pagerank": 0.011844086503139882, "weight": 1.1844086503139883, "size": 1184.4086503139883, "color_r": 255, "color_g": 255, "color_b": 0, "color_a": 1.0 }, "geometry": { "type": "Point", "coordinates": [ -75.556743, 6.46012 ] } },
{ "type": "Feature", "properties": { "id": "SAN JERÓNIMO", "label": "SAN JERÓNIMO", "code": "5656", "community": 4, "pagerank": 0.0075808809541664454, "weight": 0.75808809541664457, "size": 758.08809541664459, "color_r": 0, "color_g": 255, "color_b": 255, "color_a": 1.0 }, "geometry": { "type": "Point", "coordinates": [ -75.726975, 6.44809 ] } },
{ "type": "Feature", "properties": { "id": "DONMATÍAS", "label": "DONMATÍAS", "code": "5237", "community": 7, "pagerank": 0.015304516926111384, "weight": 1.5304516926111384, "size": 1530.4516926111385, "color_r": 255, "color_g": 255, "color_b": 0, "color_a": 1.0 }, "geometry": { "type": "Point", "coordinates": [ -75.39263, 6.485603 ] } },
{ "type": "Feature", "properties": { "id": "SANTO DOMINGO", "label": "SANTO DOMINGO", "code": "5690", "community": 1, "pagerank": 0.01062833389800474, "weight": 1.062833389800474, "size": 1062.8333898004739, "color_r": 0, "color_g": 0, "color_b": 255, "color_a": 1.0 }, "geometry": { "type": "Point", "coordinates": [ -75.164903, 6.473032 ] } },
{ "type": "Feature", "properties": { "id": "CAICEDO", "label": "CAICEDO", "code": "5125", "community": 2, "pagerank": 0.003516808854476982, "weight": 0.35168088544769821, "size": 351.68088544769819, "color_r": 255, "color_g": 165, "color_b": 0, "color_a": 1.0 }, "geometry": { "type": "Point", "coordinates": [ -75.98293, 6.405607 ] } },
{ "type": "Feature", "properties": { "id": "VEGACHÍ", "label": "VEGACHÍ", "code": "5858", "community": 100, "pagerank": 0.0077071013404011197, "weight": 0.77071013404011202, "size": 770.71013404011194, "color_r": 106, "color_g": 90, "color_b": 205, "color_a": 1.0 }, "geometry": { "type": "Point", "coordinates": [ -74.798714, 6.773525 ] } },
{ "type": "Feature", "properties": { "id": "YALÍ", "label": "YALÍ", "code": "5885", "community": 100, "pagerank": 0.0081609464049795973, "weight": 0.81609464049795977, "size": 816.09464049795974, "color_r": 106, "color_g": 90, "color_b": 205, "color_a": 1.0 }, "geometry": { "type": "Point", "coordinates": [ -74.840059, 6.676554 ] } },
{ "type": "Feature", "properties": { "id": "URRAO", "label": "URRAO", "code": "5847", "community": 2, "pagerank": 0.032784910870026447, "weight": 3.2784910870026449, "size": 3278.4910870026447, "color_r": 255, "color_g": 165, "color_b": 0, "color_a": 1.0 }, "geometry": { "type": "Point", "coordinates": [ -76.133951, 6.317343 ] } },
{ "type": "Feature", "properties": { "id": "BARBOSA", "label": "BARBOSA", "code": "5079", "community": 1, "pagerank": 0.0089569082010832694, "weight": 0.8956908201083269, "size": 895.69082010832699, "color_r": 0, "color_g": 0, "color_b": 255, "color_a": 1.0 }, "geometry": { "type": "Point", "coordinates": [ -75.331627, 6.439195 ] } },
{ "type": "Feature", "properties": { "id": "GIRARDOTA", "label": "GIRARDOTA", "code": "5308", "community": 1, "pagerank": 0.0088413203397364765, "weight": 0.8841320339736477, "size": 884.13203397364771, "color_r": 0, "color_g": 0, "color_b": 255, "color_a": 1.0 }, "geometry": { "type": "Point", "coordinates": [ -75.444238, 6.379472 ] } },
{ "type": "Feature", "properties": { "id": "COPACABANA", "label": "COPACABANA", "code": "5212", "community": 4, "pagerank": 0.013031524959584566, "weight": 1.3031524959584566, "size": 1303.1524959584565, "color_r": 0, "color_g": 255, "color_b": 255, "color_a": 1.0 }, "geometry": { "type": "Point", "coordinates": [ -75.509384, 6.348557 ] } },
{ "type": "Feature", "properties": { "id": "BELLO", "label": "BELLO", "code": "5088", "community": 4, "pagerank": 0.0072101654365483627, "weight": 0.72101654365483625, "size": 721.01654365483625, "color_r": 0, "color_g": 255, "color_b": 255, "color_a": 1.0 }, "geometry": { "type": "Point", "coordinates": [ -75.555245, 6.333587 ] } },
{ "type": "Feature", "properties": { "id": "CONCEPCIÓN", "label": "CONCEPCIÓN", "code": "5206", "community": 1, "pagerank": 0.0092208169609380112, "weight": 0.92208169609380108, "size": 922.08169609380116, "color_r": 0, "color_g": 0, "color_b": 255, "color_a": 1.0 }, "geometry": { "type": "Point", "coordinates": [ -75.257587, 6.394348 ] } },
{ "type": "Feature", "properties": { "id": "ALEJANDRÍA", "label": "ALEJANDRÍA", "code": "5021", "community": 1, "pagerank": 0.010738808359139353, "weight": 1.0738808359139353, "size": 1073.8808359139352, "color_r": 0, "color_g": 0, "color_b": 255, "color_a": 1.0 }, "geometry": { "type": "Point", "coordinates": [ -75.141346, 6.376061 ] } },
{ "type": "Feature", "properties": { "id": "SAN VICENTE FERRER", "label": "SAN VICENTE FERRER", "code": "5674", "community": 1, "pagerank": 0.010937992870130711, "weight": 1.0937992870130711, "size": 1093.7992870130711, "color_r": 0, "color_g": 0, "color_b": 255, "color_a": 1.0 }, "geometry": { "type": "Point", "coordinates": [ -75.332616, 6.282164 ] } },
{ "type": "Feature", "properties": { "id": "CISNEROS", "label": "CISNEROS", "code": "5190", "community": 1, "pagerank": 0.0052154375204697696, "weight": 0.521543752046977, "size": 521.54375204697692, "color_r": 0, "color_g": 0, "color_b": 255, "color_a": 1.0 }, "geometry": { "type": "Point", "coordinates": [ -75.087047, 6.537829 ] } },
{ "type": "Feature", "properties": { "id": "SAN ROQUE", "label": "SAN ROQUE", "code": "5670", "community": 1, "pagerank": 0.0086398145596522698, "weight": 0.86398145596522702, "size": 863.98145596522693, "color_r": 0, "color_g": 0, "color_b": 255, "color_a": 1.0 }, "geometry": { "type": "Point", "coordinates": [ -75.019109, 6.485939 ] } },
{ "type": "Feature", "properties": { "id": "ANZÁ", "label": "ANZÁ", "code": "5044", "community": 2, "pagerank": 0.0039642697339410133, "weight": 0.39642697339410132, "size": 396.42697339410131, "color_r": 255, "color_g": 165, "color_b": 0, "color_a": 1.0 }, "geometry": { "type": "Point", "coordinates": [ -75.854442, 6.302641 ] } },
{ "type": "Feature", "properties": { "id": "MEDELLÍN", "label": "MEDELLÍN", "code": "5001", "community": 4, "pagerank": 0.013990537068619606, "weight": 1.3990537068619606, "size": 1399.0537068619606, "color_r": 0, "color_g": 255, "color_b": 255, "color_a": 1.0 }, "geometry": { "type": "Point", "coordinates": [ -75.581775, 6.246631 ] } },
{ "type": "Feature", "properties": { "id": "GUARNE", "label": "GUARNE", "code": "5318", "community": 1, "pagerank": 0.0097343386793431949, "weight": 0.97343386793431952, "size": 973.43386793431944, "color_r": 0, "color_g": 0, "color_b": 255, "color_a": 1.0 }, "geometry": { "type": "Point", "coordinates": [ -75.441612, 6.27787 ] } },
{ "type": "Feature", "properties": { "id": "EBÉJICO", "label": "EBÉJICO", "code": "5240", "community": 4, "pagerank": 0.0058096472196678007, "weight": 0.58096472196678006, "size": 580.96472196678008, "color_r": 0, "color_g": 255, "color_b": 255, "color_a": 1.0 }, "geometry": { "type": "Point", "coordinates": [ -75.766413, 6.325615 ] } },
{ "type": "Feature", "properties": { "id": "HELICONIA", "label": "HELICONIA", "code": "5347", "community": 4, "pagerank": 0.0081734872047835496, "weight": 0.81734872047835494, "size": 817.34872047835495, "color_r": 0, "color_g": 255, "color_b": 255, "color_a": 1.0 }, "geometry": { "type": "Point", "coordinates": [ -75.734322, 6.206757 ] } },
{ "type": "Feature", "properties": { "id": "RIONEGRO", "label": "RIONEGRO", "code": "5615", "community": 1, "pagerank": 0.0088487402061016972, "weight": 0.88487402061016973, "size": 884.87402061016974, "color_r": 0, "color_g": 0, "color_b": 255, "color_a": 1.0 }, "geometry": { "type": "Point", "coordinates": [ -75.377316, 6.147148 ] } },
{ "type": "Feature", "properties": { "id": "PEÑOL", "label": "PEÑOL", "code": "5541", "community": 1, "pagerank": 0.015345185382523281, "weight": 1.5345185382523281, "size": 1534.5185382523282, "color_r": 0, "color_g": 0, "color_b": 255, "color_a": 1.0 }, "geometry": { "type": "Point", "coordinates": [ -75.242693, 6.219349 ] } },
{ "type": "Feature", "properties": { "id": "MARINILLA", "label": "MARINILLA", "code": "5440", "community": 1, "pagerank": 0.0088946970550827006, "weight": 0.88946970550827009, "size": 889.46970550827007, "color_r": 0, "color_g": 0, "color_b": 255, "color_a": 1.0 }, "geometry": { "type": "Point", "coordinates": [ -75.339345, 6.173995 ] } },
{ "type": "Feature", "properties": { "id": "BETULIA", "label": "BETULIA", "code": "5093", "community": 2, "pagerank": 0.0043720588235996675, "weight": 0.43720588235996677, "size": 437.20588235996672, "color_r": 255, "color_g": 165, "color_b": 0, "color_a": 1.0 }, "geometry": { "type": "Point", "coordinates": [ -75.984452, 6.115208 ] } },
{ "type": "Feature", "properties": { "id": "ANGELÓPOLIS", "label": "ANGELÓPOLIS", "code": "5036", "community": 4, "pagerank": 0.011890806959775393, "weight": 1.1890806959775393, "size": 1189.0806959775393, "color_r": 0, "color_g": 255, "color_b": 255, "color_a": 1.0 }, "geometry": { "type": "Point", "coordinates": [ -75.711389, 6.109719 ] } },
{ "type": "Feature", "properties": { "id": "ITAGÜÍ", "label": "ITAGÜÍ", "code": "5360", "community": 4, "pagerank": 0.0075772360999758603, "weight": 0.75772360999758603, "size": 757.72360999758598, "color_r": 0, "color_g": 255, "color_b": 255, "color_a": 1.0 }, "geometry": { "type": "Point", "coordinates": [ -75.612056, 6.175079 ] } },
{ "type": "Feature", "properties": { "id": "LA ESTRELLA", "label": "LA ESTRELLA", "code": "5380", "community": 4, "pagerank": 0.0079644371141130675, "weight": 0.79644371141130677, "size": 796.44371141130671, "color_r": 0, "color_g": 255, "color_b": 255, "color_a": 1.0 }, "geometry": { "type": "Point", "coordinates": [ -75.637708, 6.145238 ] } },
{ "type": "Feature", "properties": { "id": "SABANETA", "label": "SABANETA", "code": "5631", "community": 6, "pagerank": 0.0079997005524050317, "weight": 0.79997005524050313, "size": 799.97005524050314, "color_r": 165, "color_g": 42, "color_b": 42, "color_a": 1.0 }, "geometry": { "type": "Point", "coordinates": [ -75.615479, 6.149903 ] } },
{ "type": "Feature", "properties": { "id": "ARMENIA", "label": "ARMENIA", "code": "5059", "community": 4, "pagerank": 0.0067420930960479858, "weight": 0.67420930960479852, "size": 674.20930960479859, "color_r": 0, "color_g": 255, "color_b": 255, "color_a": 1.0 }, "geometry": { "type": "Point", "coordinates": [ -75.786647, 6.155667 ] } },
{ "type": "Feature", "properties": { "id": "ENVIGADO", "label": "ENVIGADO", "code": "5266", "community": 6, "pagerank": 0.012661878634172504, "weight": 1.2661878634172503, "size": 1266.1878634172504, "color_r": 165, "color_g": 42, "color_b": 42, "color_a": 1.0 }, "geometry": { "type": "Point", "coordinates": [ -75.582192, 6.166695 ] } },
{ "type": "Feature", "properties": { "id": "RETIRO", "label": "RETIRO", "code": "5607", "community": 6, "pagerank": 0.015162412348669991, "weight": 1.5162412348669991, "size": 1516.2412348669991, "color_r": 165, "color_g": 42, "color_b": 42, "color_a": 1.0 }, "geometry": { "type": "Point", "coordinates": [ -75.501301, 6.062454 ] } },
{ "type": "Feature", "properties": { "id": "GUATAPÉ", "label": "GUATAPÉ", "code": "5321", "community": 1, "pagerank": 0.0072783080802595584, "weight": 0.72783080802595579, "size": 727.83080802595589, "color_r": 0, "color_g": 0, "color_b": 255, "color_a": 1.0 }, "geometry": { "type": "Point", "coordinates": [ -75.160041, 6.232461 ] } },
{ "type": "Feature", "properties": { "id": "SAN RAFAEL", "label": "SAN RAFAEL", "code": "5667", "community": 1, "pagerank": 0.0097629133077159064, "weight": 0.97629133077159058, "size": 976.29133077159065, "color_r": 0, "color_g": 0, "color_b": 255, "color_a": 1.0 }, "geometry": { "type": "Point", "coordinates": [ -75.02849, 6.293759 ] } },
{ "type": "Feature", "properties": { "id": "EL SANTUARIO", "label": "EL SANTUARIO", "code": "5697", "community": 1, "pagerank": 0.0094788517420181413, "weight": 0.94788517420181417, "size": 947.88517420181415, "color_r": 0, "color_g": 0, "color_b": 255, "color_a": 1.0 }, "geometry": { "type": "Point", "coordinates": [ -75.265465, 6.136871 ] } },
{ "type": "Feature", "properties": { "id": "SAN CARLOS", "label": "SAN CARLOS", "code": "5649", "community": 1, "pagerank": 0.011543067642330087, "weight": 1.1543067642330087, "size": 1154.3067642330088, "color_r": 0, "color_g": 0, "color_b": 255, "color_a": 1.0 }, "geometry": { "type": "Point", "coordinates": [ -74.988097, 6.187746 ] } },
{ "type": "Feature", "properties": { "id": "GRANADA", "label": "GRANADA", "code": "5313", "community": 1, "pagerank": 0.0092809363530899722, "weight": 0.92809363530899724, "size": 928.09363530899725, "color_r": 0, "color_g": 0, "color_b": 255, "color_a": 1.0 }, "geometry": { "type": "Point", "coordinates": [ -75.184446, 6.142892 ] } },
{ "type": "Feature", "properties": { "id": "SAN LUIS", "label": "SAN LUIS", "code": "5660", "community": 1, "pagerank": 0.0055408432188151059, "weight": 0.55408432188151058, "size": 554.08432188151062, "color_r": 0, "color_g": 0, "color_b": 255, "color_a": 1.0 }, "geometry": { "type": "Point", "coordinates": [ -74.993619, 6.043017 ] } },
{ "type": "Feature", "properties": { "id": "COCORNÁ", "label": "COCORNÁ", "code": "5197", "community": 1, "pagerank": 0.011715578493262551, "weight": 1.1715578493262551, "size": 1171.5578493262551, "color_r": 0, "color_g": 0, "color_b": 255, "color_a": 1.0 }, "geometry": { "type": "Point", "coordinates": [ -75.185483, 6.058295 ] } },
{ "type": "Feature", "properties": { "id": "SALGAR", "label": "SALGAR", "code": "5642", "community": 2, "pagerank": 0.0082268242305879365, "weight": 0.82268242305879369, "size": 822.68242305879369, "color_r": 255, "color_g": 165, "color_b": 0, "color_a": 1.0 }, "geometry": { "type": "Point", "coordinates": [ -75.976807, 5.964198 ] } },
{ "type": "Feature", "properties": { "id": "CONCORDIA", "label": "CONCORDIA", "code": "5209", "community": 2, "pagerank": 0.0047704020641720201, "weight": 0.47704020641720202, "size": 477.040206417202, "color_r": 255, "color_g": 165, "color_b": 0, "color_a": 1.0 }, "geometry": { "type": "Point", "coordinates": [ -75.908448, 6.045738 ] } },
{ "type": "Feature", "properties": { "id": "EL CARMEN DE VIBORAL", "label": "EL CARMEN DE VIBORAL", "code": "5148", "community": 1, "pagerank": 0.020967901096106068, "weight": 2.0967901096106067, "size": 2096.790109610607, "color_r": 0, "color_g": 0, "color_b": 255, "color_a": 1.0 }, "geometry": { "type": "Point", "coordinates": [ -75.333901, 6.082885 ] } },
{ "type": "Feature", "properties": { "id": "TITIRIBÍ", "label": "TITIRIBÍ", "code": "5809", "community": 4, "pagerank": 0.0068704239834989781, "weight": 0.68704239834989778, "size": 687.04239834989778, "color_r": 0, "color_g": 255, "color_b": 255, "color_a": 1.0 }, "geometry": { "type": "Point", "coordinates": [ -75.791887, 6.062391 ] } },
{ "type": "Feature", "properties": { "id": "LA CEJA", "label": "LA CEJA", "code": "5376", "community": 1, "pagerank": 0.0091257067728395726, "weight": 0.91257067728395724, "size": 912.57067728395725, "color_r": 0, "color_g": 0, "color_b": 255, "color_a": 1.0 }, "geometry": { "type": "Point", "coordinates": [ -75.429433, 6.028062 ] } },
{ "type": "Feature", "properties": { "id": "CALDAS", "label": "CALDAS", "code": "5129", "community": 6, "pagerank": 0.01226081982401088, "weight": 1.226081982401088, "size": 1226.081982401088, "color_r": 165, "color_g": 42, "color_b": 42, "color_a": 1.0 }, "geometry": { "type": "Point", "coordinates": [ -75.633673, 6.091077 ] } },
{ "type": "Feature", "properties": { "id": "AMAGÁ", "label": "AMAGÁ", "code": "5030", "community": 4, "pagerank": 0.0079698229327252613, "weight": 0.79698229327252612, "size": 796.98229327252614, "color_r": 0, "color_g": 255, "color_b": 255, "color_a": 1.0 }, "geometry": { "type": "Point", "coordinates": [ -75.702188, 6.038708 ] } },
{ "type": "Feature", "properties": { "id": "LA UNIÓN", "label": "LA UNIÓN", "code": "5400", "community": 1, "pagerank": 0.0093630572265585941, "weight": 0.93630572265585943, "size": 936.30572265585943, "color_r": 0, "color_g": 0, "color_b": 255, "color_a": 1.0 }, "geometry": { "type": "Point", "coordinates": [ -75.360874, 5.973845 ] } },
{ "type": "Feature", "properties": { "id": "SANTA BÁRBARA", "label": "SANTA BÁRBARA", "code": "5679", "community": 6, "pagerank": 0.0079071416476966094, "weight": 0.79071416476966094, "size": 790.7141647696609, "color_r": 165, "color_g": 42, "color_b": 42, "color_a": 1.0 }, "geometry": { "type": "Point", "coordinates": [ -75.567351, 5.875527 ] } },
{ "type": "Feature", "properties": { "id": "MONTEBELLO", "label": "MONTEBELLO", "code": "5467", "community": 6, "pagerank": 0.0077281354675236124, "weight": 0.77281354675236125, "size": 772.81354675236128, "color_r": 165, "color_g": 42, "color_b": 42, "color_a": 1.0 }, "geometry": { "type": "Point", "coordinates": [ -75.523455, 5.946313 ] } },
{ "type": "Feature", "properties": { "id": "FREDONIA", "label": "FREDONIA", "code": "5282", "community": 6, "pagerank": 0.0082008496653210965, "weight": 0.8200849665321096, "size": 820.08496653210966, "color_r": 165, "color_g": 42, "color_b": 42, "color_a": 1.0 }, "geometry": { "type": "Point", "coordinates": [ -75.675072, 5.928039 ] } },
{ "type": "Feature", "properties": { "id": "ABEJORRAL", "label": "ABEJORRAL", "code": "5002", "community": 1, "pagerank": 0.0094066475870023692, "weight": 0.94066475870023691, "size": 940.66475870023692, "color_r": 0, "color_g": 0, "color_b": 255, "color_a": 1.0 }, "geometry": { "type": "Point", "coordinates": [ -75.428739, 5.789315 ] } },
{ "type": "Feature", "properties": { "id": "SAN FRANCISCO", "label": "SAN FRANCISCO", "code": "5652", "community": 8, "pagerank": 0.0064571369868548804, "weight": 0.645713698685488, "size": 645.713698685488, "color_r": 0, "color_g": 0, "color_b": 0, "color_a": 1.0 }, "geometry": { "type": "Point", "coordinates": [ -75.101562, 5.963476 ] } },
{ "type": "Feature", "properties": { "id": "CIUDAD BOLÍVAR", "label": "CIUDAD BOLÍVAR", "code": "5101", "community": 5, "pagerank": 0.0079027041964660795, "weight": 0.79027041964660794, "size": 790.27041964660793, "color_r": 255, "color_g": 192, "color_b": 203, "color_a": 1.0 }, "geometry": { "type": "Point", "coordinates": [ -76.021509, 5.850273 ] } },
{ "type": "Feature", "properties": { "id": "VENECIA", "label": "VENECIA", "code": "5861", "community": 6, "pagerank": 0.0079278420966250873, "weight": 0.79278420966250873, "size": 792.78420966250872, "color_r": 165, "color_g": 42, "color_b": 42, "color_a": 1.0 }, "geometry": { "type": "Point", "coordinates": [ -75.735544, 5.964693 ] } },
{ "type": "Feature", "properties": { "id": "SONSÓN", "label": "SONSÓN", "code": "5756", "community": 8, "pagerank": 0.010378600310385866, "weight": 1.0378600310385866, "size": 1037.8600310385866, "color_r": 0, "color_g": 0, "color_b": 0, "color_a": 1.0 }, "geometry": { "type": "Point", "coordinates": [ -75.309596, 5.714851 ] } },
{ "type": "Feature", "properties": { "id": "PUEBLORRICO", "label": "PUEBLORRICO", "code": "5576", "community": 5, "pagerank": 0.012097782091640375, "weight": 1.2097782091640374, "size": 1209.7782091640374, "color_r": 255, "color_g": 192, "color_b": 203, "color_a": 1.0 }, "geometry": { "type": "Point", "coordinates": [ -75.839903, 5.79158 ] } },
{ "type": "Feature", "properties": { "id": "TARSO", "label": "TARSO", "code": "5792", "community": 5, "pagerank": 0.010873447633188801, "weight": 1.0873447633188802, "size": 1087.34476331888, "color_r": 255, "color_g": 192, "color_b": 203, "color_a": 1.0 }, "geometry": { "type": "Point", "coordinates": [ -75.822956, 5.864542 ] } },
{ "type": "Feature", "properties": { "id": "ARGELIA", "label": "ARGELIA", "code": "5055", "community": 8, "pagerank": 0.0053867140705742425, "weight": 0.53867140705742422, "size": 538.67140705742429, "color_r": 0, "color_g": 0, "color_b": 0, "color_a": 1.0 }, "geometry": { "type": "Point", "coordinates": [ -75.14107, 5.731474 ] } },
{ "type": "Feature", "properties": { "id": "BETANIA", "label": "BETANIA", "code": "5091", "community": 5, "pagerank": 0.0075018530636884991, "weight": 0.75018530636884995, "size": 750.18530636884987, "color_r": 255, "color_g": 192, "color_b": 203, "color_a": 1.0 }, "geometry": { "type": "Point", "coordinates": [ -75.97679, 5.74615 ] } },
{ "type": "Feature", "properties": { "id": "HISPANIA", "label": "HISPANIA", "code": "5353", "community": 5, "pagerank": 0.0070701996346896551, "weight": 0.70701996346896556, "size": 707.01996346896556, "color_r": 255, "color_g": 192, "color_b": 203, "color_a": 1.0 }, "geometry": { "type": "Point", "coordinates": [ -75.906587, 5.799461 ] } },
{ "type": "Feature", "properties": { "id": "NARIÑO", "label": "NARIÑO", "code": "5483", "community": 8, "pagerank": 0.0094422377563892507, "weight": 0.94422377563892512, "size": 944.22377563892508, "color_r": 0, "color_g": 0, "color_b": 0, "color_a": 1.0 }, "geometry": { "type": "Point", "coordinates": [ -75.176262, 5.610777 ] } },
{ "type": "Feature", "properties": { "id": "TÁMESIS", "label": "TÁMESIS", "code": "5789", "community": 5, "pagerank": 0.0082397464037822707, "weight": 0.8239746403782271, "size": 823.97464037822704, "color_r": 255, "color_g": 192, "color_b": 203, "color_a": 1.0 }, "geometry": { "type": "Point", "coordinates": [ -75.714429, 5.664645 ] } },
{ "type": "Feature", "properties": { "id": "JERICÓ", "label": "JERICÓ", "code": "5368", "community": 5, "pagerank": 0.0093369403110587657, "weight": 0.93369403110587657, "size": 933.69403110587655, "color_r": 255, "color_g": 192, "color_b": 203, "color_a": 1.0 }, "geometry": { "type": "Point", "coordinates": [ -75.785499, 5.789748 ] } },
{ "type": "Feature", "properties": { "id": "LA PINTADA", "label": "LA PINTADA", "code": "5390", "community": 100, "pagerank": 0.014782319538197445, "weight": 1.4782319538197446, "size": 1478.2319538197446, "color_r": 106, "color_g": 90, "color_b": 205, "color_a": 1.0 }, "geometry": { "type": "Point", "coordinates": [ -75.60781, 5.743808 ] } },
{ "type": "Feature", "properties": { "id": "ANDES", "label": "ANDES", "code": "5034", "community": 5, "pagerank": 0.0079946321754602642, "weight": 0.79946321754602645, "size": 799.46321754602639, "color_r": 255, "color_g": 192, "color_b": 203, "color_a": 1.0 }, "geometry": { "type": "Point", "coordinates": [ -75.878828, 5.657194 ] } },
{ "type": "Feature", "properties": { "id": "JARDÍN", "label": "JARDÍN", "code": "5364", "community": 5, "pagerank": 0.0097473246088437323, "weight": 0.97473246088437326, "size": 974.73246088437327, "color_r": 255, "color_g": 192, "color_b": 203, "color_a": 1.0 }, "geometry": { "type": "Point", "coordinates": [ -75.818982, 5.597542 ] } },
{ "type": "Feature", "properties": { "id": "VALPARAÍSO", "label": "VALPARAÍSO", "code": "5856", "community": 5, "pagerank": 0.0045834424525427863, "weight": 0.45834424525427864, "size": 458.34424525427863, "color_r": 255, "color_g": 192, "color_b": 203, "color_a": 1.0 }, "geometry": { "type": "Point", "coordinates": [ -75.624452, 5.614555 ] } },
{ "type": "Feature", "properties": { "id": "CARAMANTA", "label": "CARAMANTA", "code": "5145", "community": 5, "pagerank": 0.0062503988581343673, "weight": 0.62503988581343672, "size": 625.03988581343674, "color_r": 255, "color_g": 192, "color_b": 203, "color_a": 1.0 }, "geometry": { "type": "Point", "coordinates": [ -75.643868, 5.54853 ] } }
]
}
