{
"type": "FeatureCollection",
"name": "fig2_undirected_Pperuviana_11km_10steps_10reps_municipalities_network_v2_nodes",
"crs": { "type": "name", "properties": { "name": "urn:ogc:def:crs:OGC:1.3:CRS84" } },
"features": [
{ "type": "Feature", "properties": { "id": "ITUANGO", "label": "ITUANGO", "code": "5361", "community": 10, "pagerank": 0.010850139513855696, "weight": 1.0850139513855697, "size": 1085.0139513855695, "color_r": 0, "color_g": 255, "color_b": 0, "color_a": 1.0 }, "geometry": { "type": "Point", "coordinates": [ -75.764673, 7.171629 ] } },
{ "type": "Feature", "properties": { "id": "TARAZÁ", "label": "TARAZÁ", "code": "5790", "community": 12, "pagerank": 0.0048454976359001622, "weight": 0.48454976359001622, "size": 484.5497635900162, "color_r": 75, "color_g": 0, "color_b": 130, "color_a": 1.0 }, "geometry": { "type": "Point", "coordinates": [ -75.401407, 7.580127 ] } },
{ "type": "Feature", "properties": { "id": "VALDIVIA", "label": "VALDIVIA", "code": "5854", "community": 9, "pagerank": 0.007097661282136348, "weight": 0.70976612821363483, "size": 709.76612821363483, "color_r": 128, "color_g": 128, "color_b": 128, "color_a": 1.0 }, "geometry": { "type": "Point", "coordinates": [ -75.439274, 7.1652 ] } },
{ "type": "Feature", "properties": { "id": "BRICEÑO", "label": "BRICEÑO", "code": "5107", "community": 9, "pagerank": 0.0039236301596397051, "weight": 0.3923630159639705, "size": 392.3630159639705, "color_r": 128, "color_g": 128, "color_b": 128, "color_a": 1.0 }, "geometry": { "type": "Point", "coordinates": [ -75.55036, 7.112803 ] } },
{ "type": "Feature", "properties": { "id": "MUTATÁ", "label": "MUTATÁ", "code": "5480", "community": 10, "pagerank": 0.0023962355554720096, "weight": 0.23962355554720097, "size": 239.62355554720097, "color_r": 0, "color_g": 255, "color_b": 0, "color_a": 1.0 }, "geometry": { "type": "Point", "coordinates": [ -76.435875, 7.242875 ] } },
{ "type": "Feature", "properties": { "id": "DABEIBA", "label": "DABEIBA", "code": "5234", "community": 2, "pagerank": 0.0096037417683242574, "weight": 0.96037417683242576, "size": 960.37417683242575, "color_r": 255, "color_g": 165, "color_b": 0, "color_a": 1.0 }, "geometry": { "type": "Point", "coordinates": [ -76.261614, 6.998112 ] } },
{ "type": "Feature", "properties": { "id": "PEQUE", "label": "PEQUE", "code": "5543", "community": 2, "pagerank": 0.016548919327224312, "weight": 1.6548919327224312, "size": 1654.8919327224312, "color_r": 255, "color_g": 165, "color_b": 0, "color_a": 1.0 }, "geometry": { "type": "Point", "coordinates": [ -75.910357, 7.021029 ] } },
{ "type": "Feature", "properties": { "id": "URAMITA", "label": "URAMITA", "code": "5842", "community": 2, "pagerank": 0.013823159388791331, "weight": 1.3823159388791331, "size": 1382.315938879133, "color_r": 255, "color_g": 165, "color_b": 0, "color_a": 1.0 }, "geometry": { "type": "Point", "coordinates": [ -76.173284, 6.898393 ] } },
{ "type": "Feature", "properties": { "id": "SABANALARGA", "label": "SABANALARGA", "code": "5628", "community": 3, "pagerank": 0.006683431957757364, "weight": 0.66834319577573642, "size": 668.34319577573638, "color_r": 128, "color_g": 0, "color_b": 128, "color_a": 1.0 }, "geometry": { "type": "Point", "coordinates": [ -75.816645, 6.850028 ] } },
{ "type": "Feature", "properties": { "id": "TOLEDO", "label": "TOLEDO", "code": "5819", "community": 3, "pagerank": 0.0057727327792157319, "weight": 0.57727327792157324, "size": 577.27327792157314, "color_r": 128, "color_g": 0, "color_b": 128, "color_a": 1.0 }, "geometry": { "type": "Point", "coordinates": [ -75.692281, 7.010328 ] } },
{ "type": "Feature", "properties": { "id": "BURITICÁ", "label": "BURITICÁ", "code": "5113", "community": 2, "pagerank": 0.012402493779960697, "weight": 1.2402493779960697, "size": 1240.2493779960698, "color_r": 255, "color_g": 165, "color_b": 0, "color_a": 1.0 }, "geometry": { "type": "Point", "coordinates": [ -75.907, 6.720759 ] } },
{ "type": "Feature", "properties": { "id": "FRONTINO", "label": "FRONTINO", "code": "5284", "community": 2, "pagerank": 0.0086633561134676282, "weight": 0.86633561134676285, "size": 866.33561134676279, "color_r": 255, "color_g": 165, "color_b": 0, "color_a": 1.0 }, "geometry": { "type": "Point", "coordinates": [ -76.130765, 6.776066 ] } },
{ "type": "Feature", "properties": { "id": "YARUMAL", "label": "YARUMAL", "code": "5887", "community": 9, "pagerank": 0.010184270610426805, "weight": 1.0184270610426804, "size": 1018.4270610426805, "color_r": 128, "color_g": 128, "color_b": 128, "color_a": 1.0 }, "geometry": { "type": "Point", "coordinates": [ -75.418828, 6.963832 ] } },
{ "type": "Feature", "properties": { "id": "SAN ANDRÉS DE CUERQUÍA", "label": "SAN ANDRÉS DE CUERQUÍA", "code": "5647", "community": 3, "pagerank": 0.011690728326022051, "weight": 1.1690728326022051, "size": 1169.0728326022052, "color_r": 128, "color_g": 0, "color_b": 128, "color_a": 1.0 }, "geometry": { "type": "Point", "coordinates": [ -75.674564, 6.916676 ] } },
{ "type": "Feature", "properties": { "id": "CAÑASGORDAS", "label": "CAÑASGORDAS", "code": "5138", "community": 2, "pagerank": 0.01279536768880438, "weight": 1.279536768880438, "size": 1279.5367688804381, "color_r": 255, "color_g": 165, "color_b": 0, "color_a": 1.0 }, "geometry": { "type": "Point", "coordinates": [ -76.028228, 6.753859 ] } },
{ "type": "Feature", "properties": { "id": "ABRIAQUÍ", "label": "ABRIAQUÍ", "code": "5004", "community": 2, "pagerank": 0.010977703364059671, "weight": 1.0977703364059672, "size": 1097.7703364059671, "color_r": 255, "color_g": 165, "color_b": 0, "color_a": 1.0 }, "geometry": { "type": "Point", "coordinates": [ -76.064304, 6.632282 ] } },
{ "type": "Feature", "properties": { "id": "CAMPAMENTO", "label": "CAMPAMENTO", "code": "5134", "community": 3, "pagerank": 0.0057372039162699225, "weight": 0.57372039162699229, "size": 573.7203916269923, "color_r": 128, "color_g": 0, "color_b": 128, "color_a": 1.0 }, "geometry": { "type": "Point", "coordinates": [ -75.298091, 6.979771 ] } },
{ "type": "Feature", "properties": { "id": "ANGOSTURA", "label": "ANGOSTURA", "code": "5038", "community": 3, "pagerank": 0.014455518164841983, "weight": 1.4455518164841983, "size": 1445.5518164841983, "color_r": 128, "color_g": 0, "color_b": 128, "color_a": 1.0 }, "geometry": { "type": "Point", "coordinates": [ -75.335116, 6.885175 ] } },
{ "type": "Feature", "properties": { "id": "LIBORINA", "label": "LIBORINA", "code": "5411", "community": 3, "pagerank": 0.0096995073676571508, "weight": 0.96995073676571508, "size": 969.95073676571508, "color_r": 128, "color_g": 0, "color_b": 128, "color_a": 1.0 }, "geometry": { "type": "Point", "coordinates": [ -75.812838, 6.677316 ] } },
{ "type": "Feature", "properties": { "id": "GIRALDO", "label": "GIRALDO", "code": "5306", "community": 2, "pagerank": 0.005412036682994557, "weight": 0.54120366829945565, "size": 541.20366829945567, "color_r": 255, "color_g": 165, "color_b": 0, "color_a": 1.0 }, "geometry": { "type": "Point", "coordinates": [ -75.952158, 6.680808 ] } },
{ "type": "Feature", "properties": { "id": "SANTA ROSA DE OSOS", "label": "SANTA ROSA DE OSOS", "code": "5686", "community": 3, "pagerank": 0.017155863985031928, "weight": 1.7155863985031927, "size": 1715.5863985031929, "color_r": 128, "color_g": 0, "color_b": 128, "color_a": 1.0 }, "geometry": { "type": "Point", "coordinates": [ -75.460723, 6.643366 ] } },
{ "type": "Feature", "properties": { "id": "ANORÍ", "label": "ANORÍ", "code": "5040", "community": 3, "pagerank": 0.0056657000279931808, "weight": 0.56657000279931813, "size": 566.5700027993181, "color_r": 128, "color_g": 0, "color_b": 128, "color_a": 1.0 }, "geometry": { "type": "Point", "coordinates": [ -75.148355, 7.074703 ] } },
{ "type": "Feature", "properties": { "id": "SAN JOSÉ DE LA MONTAÑA", "label": "SAN JOSÉ DE LA MONTAÑA", "code": "5658", "community": 3, "pagerank": 0.0072789896350915432, "weight": 0.72789896350915428, "size": 727.89896350915433, "color_r": 128, "color_g": 0, "color_b": 128, "color_a": 1.0 }, "geometry": { "type": "Point", "coordinates": [ -75.683352, 6.85009 ] } },
{ "type": "Feature", "properties": { "id": "BELMIRA", "label": "BELMIRA", "code": "5086", "community": 7, "pagerank": 0.019804051087448957, "weight": 1.9804051087448957, "size": 1980.4051087448956, "color_r": 255, "color_g": 255, "color_b": 0, "color_a": 1.0 }, "geometry": { "type": "Point", "coordinates": [ -75.667779, 6.606319 ] } },
{ "type": "Feature", "properties": { "id": "CAROLINA", "label": "CAROLINA", "code": "5150", "community": 3, "pagerank": 0.0064654695085323757, "weight": 0.64654695085323755, "size": 646.5469508532376, "color_r": 128, "color_g": 0, "color_b": 128, "color_a": 1.0 }, "geometry": { "type": "Point", "coordinates": [ -75.283192, 6.725995 ] } },
{ "type": "Feature", "properties": { "id": "GUADALUPE", "label": "GUADALUPE", "code": "5315", "community": 3, "pagerank": 0.0070343343264320122, "weight": 0.70343343264320124, "size": 703.43343264320117, "color_r": 128, "color_g": 0, "color_b": 128, "color_a": 1.0 }, "geometry": { "type": "Point", "coordinates": [ -75.239862, 6.815069 ] } },
{ "type": "Feature", "properties": { "id": "AMALFI", "label": "AMALFI", "code": "5031", "community": 11, "pagerank": 0.0085571976468910606, "weight": 0.85571976468910604, "size": 855.71976468910611, "color_r": 0, "color_g": 128, "color_b": 128, "color_a": 1.0 }, "geometry": { "type": "Point", "coordinates": [ -75.077501, 6.909655 ] } },
{ "type": "Feature", "properties": { "id": "SANTA FÉ DE ANTIOQUIA", "label": "SANTA FÉ DE ANTIOQUIA", "code": "5042", "community": 2, "pagerank": 0.010924514594755253, "weight": 1.0924514594755252, "size": 1092.4514594755253, "color_r": 255, "color_g": 165, "color_b": 0, "color_a": 1.0 }, "geometry": { "type": "Point", "coordinates": [ -75.826648, 6.556484 ] } },
{ "type": "Feature", "properties": { "id": "ENTRERRÍOS", "label": "ENTRERRÍOS", "code": "5264", "community": 7, "pagerank": 0.013073116162047441, "weight": 1.307311616204744, "size": 1307.311616204744, "color_r": 255, "color_g": 255, "color_b": 0, "color_a": 1.0 }, "geometry": { "type": "Point", "coordinates": [ -75.517685, 6.566273 ] } },
{ "type": "Feature", "properties": { "id": "GÓMEZ PLATA", "label": "GÓMEZ PLATA", "code": "5310", "community": 3, "pagerank": 0.0099454252727456324, "weight": 0.99454252727456327, "size": 994.54252727456321, "color_r": 128, "color_g": 0, "color_b": 128, "color_a": 1.0 }, "geometry": { "type": "Point", "coordinates": [ -75.220018, 6.683269 ] } },
{ "type": "Feature", "properties": { "id": "DONMATÍAS", "label": "DONMATÍAS", "code": "5237", "community": 7, "pagerank": 0.022263521757016222, "weight": 2.226352175701622, "size": 2226.3521757016224, "color_r": 255, "color_g": 255, "color_b": 0, "color_a": 1.0 }, "geometry": { "type": "Point", "coordinates": [ -75.39263, 6.485603 ] } },
{ "type": "Feature", "properties": { "id": "YOLOMBÓ", "label": "YOLOMBÓ", "code": "5890", "community": 11, "pagerank": 0.011047783763451609, "weight": 1.1047783763451609, "size": 1104.778376345161, "color_r": 0, "color_g": 128, "color_b": 128, "color_a": 1.0 }, "geometry": { "type": "Point", "coordinates": [ -75.013385, 6.594511 ] } },
{ "type": "Feature", "properties": { "id": "SAN PEDRO DE LOS MILAGROS", "label": "SAN PEDRO DE LOS MILAGROS", "code": "5664", "community": 7, "pagerank": 0.012028636770479797, "weight": 1.2028636770479797, "size": 1202.8636770479798, "color_r": 255, "color_g": 255, "color_b": 0, "color_a": 1.0 }, "geometry": { "type": "Point", "coordinates": [ -75.556743, 6.46012 ] } },
{ "type": "Feature", "properties": { "id": "SOPETRÁN", "label": "SOPETRÁN", "code": "5761", "community": 3, "pagerank": 0.007315577145227313, "weight": 0.73155771452273133, "size": 731.55771452273132, "color_r": 128, "color_g": 0, "color_b": 128, "color_a": 1.0 }, "geometry": { "type": "Point", "coordinates": [ -75.747378, 6.500745 ] } },
{ "type": "Feature", "properties": { "id": "OLAYA", "label": "OLAYA", "code": "5501", "community": 3, "pagerank": 0.0078335520422565409, "weight": 0.78335520422565408, "size": 783.35520422565412, "color_r": 128, "color_g": 0, "color_b": 128, "color_a": 1.0 }, "geometry": { "type": "Point", "coordinates": [ -75.811773, 6.626492 ] } },
{ "type": "Feature", "properties": { "id": "SANTO DOMINGO", "label": "SANTO DOMINGO", "code": "5690", "community": 1, "pagerank": 0.012245601976393438, "weight": 1.2245601976393439, "size": 1224.5601976393439, "color_r": 0, "color_g": 0, "color_b": 255, "color_a": 1.0 }, "geometry": { "type": "Point", "coordinates": [ -75.164903, 6.473032 ] } },
{ "type": "Feature", "properties": { "id": "CISNEROS", "label": "CISNEROS", "code": "5190", "community": 1, "pagerank": 0.0061391056874905, "weight": 0.61391056874905003, "size": 613.91056874904996, "color_r": 0, "color_g": 0, "color_b": 255, "color_a": 1.0 }, "geometry": { "type": "Point", "coordinates": [ -75.087047, 6.537829 ] } },
{ "type": "Feature", "properties": { "id": "URRAO", "label": "URRAO", "code": "5847", "community": 2, "pagerank": 0.011105539231338744, "weight": 1.1105539231338744, "size": 1110.5539231338744, "color_r": 255, "color_g": 165, "color_b": 0, "color_a": 1.0 }, "geometry": { "type": "Point", "coordinates": [ -76.133951, 6.317343 ] } },
{ "type": "Feature", "properties": { "id": "CAICEDO", "label": "CAICEDO", "code": "5125", "community": 2, "pagerank": 0.0069527159253245747, "weight": 0.69527159253245752, "size": 695.27159253245748, "color_r": 255, "color_g": 165, "color_b": 0, "color_a": 1.0 }, "geometry": { "type": "Point", "coordinates": [ -75.98293, 6.405607 ] } },
{ "type": "Feature", "properties": { "id": "SAN JERÓNIMO", "label": "SAN JERÓNIMO", "code": "5656", "community": 4, "pagerank": 0.0086192489176259036, "weight": 0.86192489176259035, "size": 861.92489176259039, "color_r": 0, "color_g": 255, "color_b": 255, "color_a": 1.0 }, "geometry": { "type": "Point", "coordinates": [ -75.726975, 6.44809 ] } },
{ "type": "Feature", "properties": { "id": "BARBOSA", "label": "BARBOSA", "code": "5079", "community": 1, "pagerank": 0.0087477228781106427, "weight": 0.87477228781106431, "size": 874.7722878110643, "color_r": 0, "color_g": 0, "color_b": 255, "color_a": 1.0 }, "geometry": { "type": "Point", "coordinates": [ -75.331627, 6.439195 ] } },
{ "type": "Feature", "properties": { "id": "GIRARDOTA", "label": "GIRARDOTA", "code": "5308", "community": 1, "pagerank": 0.010648215375824137, "weight": 1.0648215375824137, "size": 1064.8215375824136, "color_r": 0, "color_g": 0, "color_b": 255, "color_a": 1.0 }, "geometry": { "type": "Point", "coordinates": [ -75.444238, 6.379472 ] } },
{ "type": "Feature", "properties": { "id": "COPACABANA", "label": "COPACABANA", "code": "5212", "community": 4, "pagerank": 0.0057652161515708341, "weight": 0.57652161515708344, "size": 576.52161515708337, "color_r": 0, "color_g": 255, "color_b": 255, "color_a": 1.0 }, "geometry": { "type": "Point", "coordinates": [ -75.509384, 6.348557 ] } },
{ "type": "Feature", "properties": { "id": "VEGACHÍ", "label": "VEGACHÍ", "code": "5858", "community": 100, "pagerank": 0.0081670891983726523, "weight": 0.81670891983726523, "size": 816.70891983726528, "color_r": 106, "color_g": 90, "color_b": 205, "color_a": 1.0 }, "geometry": { "type": "Point", "coordinates": [ -74.798714, 6.773525 ] } },
{ "type": "Feature", "properties": { "id": "CONCEPCIÓN", "label": "CONCEPCIÓN", "code": "5206", "community": 1, "pagerank": 0.0094835054015156156, "weight": 0.94835054015156151, "size": 948.35054015156152, "color_r": 0, "color_g": 0, "color_b": 255, "color_a": 1.0 }, "geometry": { "type": "Point", "coordinates": [ -75.257587, 6.394348 ] } },
{ "type": "Feature", "properties": { "id": "SAN ROQUE", "label": "SAN ROQUE", "code": "5670", "community": 1, "pagerank": 0.0060652904799381978, "weight": 0.60652904799381979, "size": 606.52904799381974, "color_r": 0, "color_g": 0, "color_b": 255, "color_a": 1.0 }, "geometry": { "type": "Point", "coordinates": [ -75.019109, 6.485939 ] } },
{ "type": "Feature", "properties": { "id": "ALEJANDRÍA", "label": "ALEJANDRÍA", "code": "5021", "community": 1, "pagerank": 0.01025985365174696, "weight": 1.025985365174696, "size": 1025.985365174696, "color_r": 0, "color_g": 0, "color_b": 255, "color_a": 1.0 }, "geometry": { "type": "Point", "coordinates": [ -75.141346, 6.376061 ] } },
{ "type": "Feature", "properties": { "id": "GUATAPÉ", "label": "GUATAPÉ", "code": "5321", "community": 1, "pagerank": 0.011751457170944389, "weight": 1.1751457170944388, "size": 1175.1457170944389, "color_r": 0, "color_g": 0, "color_b": 255, "color_a": 1.0 }, "geometry": { "type": "Point", "coordinates": [ -75.160041, 6.232461 ] } },
{ "type": "Feature", "properties": { "id": "PEÑOL", "label": "PEÑOL", "code": "5541", "community": 1, "pagerank": 0.0092271909812678132, "weight": 0.92271909812678132, "size": 922.71909812678132, "color_r": 0, "color_g": 0, "color_b": 255, "color_a": 1.0 }, "geometry": { "type": "Point", "coordinates": [ -75.242693, 6.219349 ] } },
{ "type": "Feature", "properties": { "id": "SAN VICENTE FERRER", "label": "SAN VICENTE FERRER", "code": "5674", "community": 1, "pagerank": 0.015780263628721963, "weight": 1.5780263628721962, "size": 1578.0263628721962, "color_r": 0, "color_g": 0, "color_b": 255, "color_a": 1.0 }, "geometry": { "type": "Point", "coordinates": [ -75.332616, 6.282164 ] } },
{ "type": "Feature", "properties": { "id": "YALÍ", "label": "YALÍ", "code": "5885", "community": 100, "pagerank": 0.0056180371660942844, "weight": 0.56180371660942841, "size": 561.80371660942842, "color_r": 106, "color_g": 90, "color_b": 205, "color_a": 1.0 }, "geometry": { "type": "Point", "coordinates": [ -74.840059, 6.676554 ] } },
{ "type": "Feature", "properties": { "id": "BELLO", "label": "BELLO", "code": "5088", "community": 4, "pagerank": 0.012200958630719254, "weight": 1.2200958630719254, "size": 1220.0958630719254, "color_r": 0, "color_g": 255, "color_b": 255, "color_a": 1.0 }, "geometry": { "type": "Point", "coordinates": [ -75.555245, 6.333587 ] } },
{ "type": "Feature", "properties": { "id": "MEDELLÍN", "label": "MEDELLÍN", "code": "5001", "community": 4, "pagerank": 0.011988628419744799, "weight": 1.19886284197448, "size": 1198.8628419744798, "color_r": 0, "color_g": 255, "color_b": 255, "color_a": 1.0 }, "geometry": { "type": "Point", "coordinates": [ -75.581775, 6.246631 ] } },
{ "type": "Feature", "properties": { "id": "VIGÍA DEL FUERTE", "label": "VIGÍA DEL FUERTE", "code": "5873", "community": 100, "pagerank": 0.015242220385216259, "weight": 1.5242220385216259, "size": 1524.2220385216258, "color_r": 106, "color_g": 90, "color_b": 205, "color_a": 1.0 }, "geometry": { "type": "Point", "coordinates": [ -76.896004, 6.588164 ] } },
{ "type": "Feature", "properties": { "id": "GUARNE", "label": "GUARNE", "code": "5318", "community": 1, "pagerank": 0.008637340984746578, "weight": 0.86373409847465776, "size": 863.7340984746578, "color_r": 0, "color_g": 0, "color_b": 255, "color_a": 1.0 }, "geometry": { "type": "Point", "coordinates": [ -75.441612, 6.27787 ] } },
{ "type": "Feature", "properties": { "id": "ANZÁ", "label": "ANZÁ", "code": "5044", "community": 2, "pagerank": 0.0077332666374989728, "weight": 0.77332666374989723, "size": 773.32666374989731, "color_r": 255, "color_g": 165, "color_b": 0, "color_a": 1.0 }, "geometry": { "type": "Point", "coordinates": [ -75.854442, 6.302641 ] } },
{ "type": "Feature", "properties": { "id": "EBÉJICO", "label": "EBÉJICO", "code": "5240", "community": 4, "pagerank": 0.007330152667642394, "weight": 0.73301526676423945, "size": 733.01526676423941, "color_r": 0, "color_g": 255, "color_b": 255, "color_a": 1.0 }, "geometry": { "type": "Point", "coordinates": [ -75.766413, 6.325615 ] } },
{ "type": "Feature", "properties": { "id": "HELICONIA", "label": "HELICONIA", "code": "5347", "community": 4, "pagerank": 0.007327865510442612, "weight": 0.73278655104426116, "size": 732.78655104426116, "color_r": 0, "color_g": 255, "color_b": 255, "color_a": 1.0 }, "geometry": { "type": "Point", "coordinates": [ -75.734322, 6.206757 ] } },
{ "type": "Feature", "properties": { "id": "ITAGÜÍ", "label": "ITAGÜÍ", "code": "5360", "community": 4, "pagerank": 0.010959017489990905, "weight": 1.0959017489990905, "size": 1095.9017489990906, "color_r": 0, "color_g": 255, "color_b": 255, "color_a": 1.0 }, "geometry": { "type": "Point", "coordinates": [ -75.612056, 6.175079 ] } },
{ "type": "Feature", "properties": { "id": "LA ESTRELLA", "label": "LA ESTRELLA", "code": "5380", "community": 4, "pagerank": 0.0079246818311258307, "weight": 0.79246818311258305, "size": 792.46818311258312, "color_r": 0, "color_g": 255, "color_b": 255, "color_a": 1.0 }, "geometry": { "type": "Point", "coordinates": [ -75.637708, 6.145238 ] } },
{ "type": "Feature", "properties": { "id": "ENVIGADO", "label": "ENVIGADO", "code": "5266", "community": 6, "pagerank": 0.014645183348126043, "weight": 1.4645183348126043, "size": 1464.5183348126043, "color_r": 165, "color_g": 42, "color_b": 42, "color_a": 1.0 }, "geometry": { "type": "Point", "coordinates": [ -75.582192, 6.166695 ] } },
{ "type": "Feature", "properties": { "id": "ANGELÓPOLIS", "label": "ANGELÓPOLIS", "code": "5036", "community": 4, "pagerank": 0.0078791384371675443, "weight": 0.78791384371675444, "size": 787.9138437167544, "color_r": 0, "color_g": 255, "color_b": 255, "color_a": 1.0 }, "geometry": { "type": "Point", "coordinates": [ -75.711389, 6.109719 ] } },
{ "type": "Feature", "properties": { "id": "CALDAS", "label": "CALDAS", "code": "5129", "community": 6, "pagerank": 0.016374948326110632, "weight": 1.6374948326110632, "size": 1637.4948326110632, "color_r": 165, "color_g": 42, "color_b": 42, "color_a": 1.0 }, "geometry": { "type": "Point", "coordinates": [ -75.633673, 6.091077 ] } },
{ "type": "Feature", "properties": { "id": "SABANETA", "label": "SABANETA", "code": "5631", "community": 6, "pagerank": 0.0078634830423324302, "weight": 0.78634830423324298, "size": 786.34830423324297, "color_r": 165, "color_g": 42, "color_b": 42, "color_a": 1.0 }, "geometry": { "type": "Point", "coordinates": [ -75.615479, 6.149903 ] } },
{ "type": "Feature", "properties": { "id": "MARINILLA", "label": "MARINILLA", "code": "5440", "community": 1, "pagerank": 0.0091027402629570205, "weight": 0.91027402629570209, "size": 910.27402629570201, "color_r": 0, "color_g": 0, "color_b": 255, "color_a": 1.0 }, "geometry": { "type": "Point", "coordinates": [ -75.339345, 6.173995 ] } },
{ "type": "Feature", "properties": { "id": "RIONEGRO", "label": "RIONEGRO", "code": "5615", "community": 1, "pagerank": 0.0092247771676161102, "weight": 0.92247771676161106, "size": 922.47771676161096, "color_r": 0, "color_g": 0, "color_b": 255, "color_a": 1.0 }, "geometry": { "type": "Point", "coordinates": [ -75.377316, 6.147148 ] } },
{ "type": "Feature", "properties": { "id": "BETULIA", "label": "BETULIA", "code": "5093", "community": 2, "pagerank": 0.0073357097189311552, "weight": 0.73357097189311549, "size": 733.57097189311548, "color_r": 255, "color_g": 165, "color_b": 0, "color_a": 1.0 }, "geometry": { "type": "Point", "coordinates": [ -75.984452, 6.115208 ] } },
{ "type": "Feature", "properties": { "id": "SAN RAFAEL", "label": "SAN RAFAEL", "code": "5667", "community": 1, "pagerank": 0.0071516716465403326, "weight": 0.71516716465403329, "size": 715.16716465403329, "color_r": 0, "color_g": 0, "color_b": 255, "color_a": 1.0 }, "geometry": { "type": "Point", "coordinates": [ -75.02849, 6.293759 ] } },
{ "type": "Feature", "properties": { "id": "SAN CARLOS", "label": "SAN CARLOS", "code": "5649", "community": 1, "pagerank": 0.011445737288961666, "weight": 1.1445737288961666, "size": 1144.5737288961666, "color_r": 0, "color_g": 0, "color_b": 255, "color_a": 1.0 }, "geometry": { "type": "Point", "coordinates": [ -74.988097, 6.187746 ] } },
{ "type": "Feature", "properties": { "id": "GRANADA", "label": "GRANADA", "code": "5313", "community": 1, "pagerank": 0.010672924864793402, "weight": 1.0672924864793403, "size": 1067.2924864793401, "color_r": 0, "color_g": 0, "color_b": 255, "color_a": 1.0 }, "geometry": { "type": "Point", "coordinates": [ -75.184446, 6.142892 ] } },
{ "type": "Feature", "properties": { "id": "EL SANTUARIO", "label": "EL SANTUARIO", "code": "5697", "community": 1, "pagerank": 0.0088112975777857819, "weight": 0.88112975777857816, "size": 881.12975777857821, "color_r": 0, "color_g": 0, "color_b": 255, "color_a": 1.0 }, "geometry": { "type": "Point", "coordinates": [ -75.265465, 6.136871 ] } },
{ "type": "Feature", "properties": { "id": "COCORNÁ", "label": "COCORNÁ", "code": "5197", "community": 1, "pagerank": 0.01049208734109827, "weight": 1.0492087341098271, "size": 1049.208734109827, "color_r": 0, "color_g": 0, "color_b": 255, "color_a": 1.0 }, "geometry": { "type": "Point", "coordinates": [ -75.185483, 6.058295 ] } },
{ "type": "Feature", "properties": { "id": "EL CARMEN DE VIBORAL", "label": "EL CARMEN DE VIBORAL", "code": "5148", "community": 1, "pagerank": 0.012983387417824755, "weight": 1.2983387417824754, "size": 1298.3387417824754, "color_r": 0, "color_g": 0, "color_b": 255, "color_a": 1.0 }, "geometry": { "type": "Point", "coordinates": [ -75.333901, 6.082885 ] } },
{ "type": "Feature", "properties": { "id": "LA CEJA", "label": "LA CEJA", "code": "5376", "community": 1, "pagerank": 0.012422738712404284, "weight": 1.2422738712404284, "size": 1242.2738712404284, "color_r": 0, "color_g": 0, "color_b": 255, "color_a": 1.0 }, "geometry": { "type": "Point", "coordinates": [ -75.429433, 6.028062 ] } },
{ "type": "Feature", "properties": { "id": "LA UNIÓN", "label": "LA UNIÓN", "code": "5400", "community": 1, "pagerank": 0.013614431277393769, "weight": 1.3614431277393768, "size": 1361.4431277393769, "color_r": 0, "color_g": 0, "color_b": 255, "color_a": 1.0 }, "geometry": { "type": "Point", "coordinates": [ -75.360874, 5.973845 ] } },
{ "type": "Feature", "properties": { "id": "RETIRO", "label": "RETIRO", "code": "5607", "community": 6, "pagerank": 0.017733699604548452, "weight": 1.7733699604548452, "size": 1773.3699604548451, "color_r": 165, "color_g": 42, "color_b": 42, "color_a": 1.0 }, "geometry": { "type": "Point", "coordinates": [ -75.501301, 6.062454 ] } },
{ "type": "Feature", "properties": { "id": "CONCORDIA", "label": "CONCORDIA", "code": "5209", "community": 2, "pagerank": 0.0075930259784058908, "weight": 0.75930259784058907, "size": 759.3025978405891, "color_r": 255, "color_g": 165, "color_b": 0, "color_a": 1.0 }, "geometry": { "type": "Point", "coordinates": [ -75.908448, 6.045738 ] } },
{ "type": "Feature", "properties": { "id": "SALGAR", "label": "SALGAR", "code": "5642", "community": 2, "pagerank": 0.0075808040334988608, "weight": 0.75808040334988613, "size": 758.08040334988607, "color_r": 255, "color_g": 165, "color_b": 0, "color_a": 1.0 }, "geometry": { "type": "Point", "coordinates": [ -75.976807, 5.964198 ] } },
{ "type": "Feature", "properties": { "id": "CIUDAD BOLÍVAR", "label": "CIUDAD BOLÍVAR", "code": "5101", "community": 5, "pagerank": 0.0073033642325720212, "weight": 0.73033642325720216, "size": 730.33642325720211, "color_r": 255, "color_g": 192, "color_b": 203, "color_a": 1.0 }, "geometry": { "type": "Point", "coordinates": [ -76.021509, 5.850273 ] } },
{ "type": "Feature", "properties": { "id": "SAN LUIS", "label": "SAN LUIS", "code": "5660", "community": 1, "pagerank": 0.0051592473849584415, "weight": 0.51592473849584419, "size": 515.92473849584417, "color_r": 0, "color_g": 0, "color_b": 255, "color_a": 1.0 }, "geometry": { "type": "Point", "coordinates": [ -74.993619, 6.043017 ] } },
{ "type": "Feature", "properties": { "id": "ARMENIA", "label": "ARMENIA", "code": "5059", "community": 4, "pagerank": 0.0076901015615312759, "weight": 0.76901015615312762, "size": 769.01015615312758, "color_r": 0, "color_g": 255, "color_b": 255, "color_a": 1.0 }, "geometry": { "type": "Point", "coordinates": [ -75.786647, 6.155667 ] } },
{ "type": "Feature", "properties": { "id": "FREDONIA", "label": "FREDONIA", "code": "5282", "community": 6, "pagerank": 0.0092912121277363667, "weight": 0.92912121277363668, "size": 929.12121277363667, "color_r": 165, "color_g": 42, "color_b": 42, "color_a": 1.0 }, "geometry": { "type": "Point", "coordinates": [ -75.675072, 5.928039 ] } },
{ "type": "Feature", "properties": { "id": "SANTA BÁRBARA", "label": "SANTA BÁRBARA", "code": "5679", "community": 6, "pagerank": 0.0080077506401873989, "weight": 0.80077506401873988, "size": 800.77506401873984, "color_r": 165, "color_g": 42, "color_b": 42, "color_a": 1.0 }, "geometry": { "type": "Point", "coordinates": [ -75.567351, 5.875527 ] } },
{ "type": "Feature", "properties": { "id": "ABEJORRAL", "label": "ABEJORRAL", "code": "5002", "community": 1, "pagerank": 0.0084710626903380191, "weight": 0.84710626903380193, "size": 847.10626903380194, "color_r": 0, "color_g": 0, "color_b": 255, "color_a": 1.0 }, "geometry": { "type": "Point", "coordinates": [ -75.428739, 5.789315 ] } },
{ "type": "Feature", "properties": { "id": "MONTEBELLO", "label": "MONTEBELLO", "code": "5467", "community": 6, "pagerank": 0.0080109273453127395, "weight": 0.80109273453127394, "size": 801.092734531274, "color_r": 165, "color_g": 42, "color_b": 42, "color_a": 1.0 }, "geometry": { "type": "Point", "coordinates": [ -75.523455, 5.946313 ] } },
{ "type": "Feature", "properties": { "id": "AMAGÁ", "label": "AMAGÁ", "code": "5030", "community": 4, "pagerank": 0.013766631401059453, "weight": 1.3766631401059453, "size": 1376.6631401059453, "color_r": 0, "color_g": 255, "color_b": 255, "color_a": 1.0 }, "geometry": { "type": "Point", "coordinates": [ -75.702188, 6.038708 ] } },
{ "type": "Feature", "properties": { "id": "TITIRIBÍ", "label": "TITIRIBÍ", "code": "5809", "community": 4, "pagerank": 0.0081134282546874263, "weight": 0.81134282546874259, "size": 811.3428254687426, "color_r": 0, "color_g": 255, "color_b": 255, "color_a": 1.0 }, "geometry": { "type": "Point", "coordinates": [ -75.791887, 6.062391 ] } },
{ "type": "Feature", "properties": { "id": "SAN FRANCISCO", "label": "SAN FRANCISCO", "code": "5652", "community": 8, "pagerank": 0.0090930402506463667, "weight": 0.9093040250646367, "size": 909.30402506463668, "color_r": 0, "color_g": 0, "color_b": 0, "color_a": 1.0 }, "geometry": { "type": "Point", "coordinates": [ -75.101562, 5.963476 ] } },
{ "type": "Feature", "properties": { "id": "SONSÓN", "label": "SONSÓN", "code": "5756", "community": 8, "pagerank": 0.0081949883859712136, "weight": 0.81949883859712136, "size": 819.49883859712133, "color_r": 0, "color_g": 0, "color_b": 0, "color_a": 1.0 }, "geometry": { "type": "Point", "coordinates": [ -75.309596, 5.714851 ] } },
{ "type": "Feature", "properties": { "id": "VENECIA", "label": "VENECIA", "code": "5861", "community": 6, "pagerank": 0.0073777471362852535, "weight": 0.73777471362852531, "size": 737.77471362852532, "color_r": 165, "color_g": 42, "color_b": 42, "color_a": 1.0 }, "geometry": { "type": "Point", "coordinates": [ -75.735544, 5.964693 ] } },
{ "type": "Feature", "properties": { "id": "ARGELIA", "label": "ARGELIA", "code": "5055", "community": 8, "pagerank": 0.0048921923761207978, "weight": 0.48921923761207975, "size": 489.21923761207978, "color_r": 0, "color_g": 0, "color_b": 0, "color_a": 1.0 }, "geometry": { "type": "Point", "coordinates": [ -75.14107, 5.731474 ] } },
{ "type": "Feature", "properties": { "id": "NARIÑO", "label": "NARIÑO", "code": "5483", "community": 8, "pagerank": 0.0039260715692478803, "weight": 0.39260715692478804, "size": 392.60715692478806, "color_r": 0, "color_g": 0, "color_b": 0, "color_a": 1.0 }, "geometry": { "type": "Point", "coordinates": [ -75.176262, 5.610777 ] } },
{ "type": "Feature", "properties": { "id": "PUEBLORRICO", "label": "PUEBLORRICO", "code": "5576", "community": 5, "pagerank": 0.0087515062724437022, "weight": 0.87515062724437021, "size": 875.15062724437018, "color_r": 255, "color_g": 192, "color_b": 203, "color_a": 1.0 }, "geometry": { "type": "Point", "coordinates": [ -75.839903, 5.79158 ] } },
{ "type": "Feature", "properties": { "id": "HISPANIA", "label": "HISPANIA", "code": "5353", "community": 5, "pagerank": 0.0077004245987251155, "weight": 0.77004245987251152, "size": 770.04245987251159, "color_r": 255, "color_g": 192, "color_b": 203, "color_a": 1.0 }, "geometry": { "type": "Point", "coordinates": [ -75.906587, 5.799461 ] } },
{ "type": "Feature", "properties": { "id": "BETANIA", "label": "BETANIA", "code": "5091", "community": 5, "pagerank": 0.0064447530705201653, "weight": 0.6444753070520165, "size": 644.47530705201655, "color_r": 255, "color_g": 192, "color_b": 203, "color_a": 1.0 }, "geometry": { "type": "Point", "coordinates": [ -75.97679, 5.74615 ] } },
{ "type": "Feature", "properties": { "id": "TARSO", "label": "TARSO", "code": "5792", "community": 5, "pagerank": 0.010864462688835739, "weight": 1.0864462688835739, "size": 1086.4462688835738, "color_r": 255, "color_g": 192, "color_b": 203, "color_a": 1.0 }, "geometry": { "type": "Point", "coordinates": [ -75.822956, 5.864542 ] } },
{ "type": "Feature", "properties": { "id": "PUERTO NARE", "label": "PUERTO NARE", "code": "5585", "community": 100, "pagerank": 0.0021770693734595847, "weight": 0.21770693734595847, "size": 217.70693734595847, "color_r": 106, "color_g": 90, "color_b": 205, "color_a": 1.0 }, "geometry": { "type": "Point", "coordinates": [ -74.583012, 6.186025 ] } },
{ "type": "Feature", "properties": { "id": "JERICÓ", "label": "JERICÓ", "code": "5368", "community": 5, "pagerank": 0.0086961860420083498, "weight": 0.86961860420083492, "size": 869.61860420083497, "color_r": 255, "color_g": 192, "color_b": 203, "color_a": 1.0 }, "geometry": { "type": "Point", "coordinates": [ -75.785499, 5.789748 ] } },
{ "type": "Feature", "properties": { "id": "LA PINTADA", "label": "LA PINTADA", "code": "5390", "community": 100, "pagerank": 0.0068336402853385585, "weight": 0.68336402853385581, "size": 683.36402853385584, "color_r": 106, "color_g": 90, "color_b": 205, "color_a": 1.0 }, "geometry": { "type": "Point", "coordinates": [ -75.60781, 5.743808 ] } },
{ "type": "Feature", "properties": { "id": "ANDES", "label": "ANDES", "code": "5034", "community": 5, "pagerank": 0.0088647505875636655, "weight": 0.88647505875636656, "size": 886.47505875636659, "color_r": 255, "color_g": 192, "color_b": 203, "color_a": 1.0 }, "geometry": { "type": "Point", "coordinates": [ -75.878828, 5.657194 ] } },
{ "type": "Feature", "properties": { "id": "TÁMESIS", "label": "TÁMESIS", "code": "5789", "community": 5, "pagerank": 0.0092312745814308074, "weight": 0.92312745814308073, "size": 923.12745814308073, "color_r": 255, "color_g": 192, "color_b": 203, "color_a": 1.0 }, "geometry": { "type": "Point", "coordinates": [ -75.714429, 5.664645 ] } },
{ "type": "Feature", "properties": { "id": "JARDÍN", "label": "JARDÍN", "code": "5364", "community": 5, "pagerank": 0.010831300433158126, "weight": 1.0831300433158126, "size": 1083.1300433158126, "color_r": 255, "color_g": 192, "color_b": 203, "color_a": 1.0 }, "geometry": { "type": "Point", "coordinates": [ -75.818982, 5.597542 ] } },
{ "type": "Feature", "properties": { "id": "CARAMANTA", "label": "CARAMANTA", "code": "5145", "community": 5, "pagerank": 0.003962646843270818, "weight": 0.39626468432708178, "size": 396.2646843270818, "color_r": 255, "color_g": 192, "color_b": 203, "color_a": 1.0 }, "geometry": { "type": "Point", "coordinates": [ -75.643868, 5.54853 ] } },
{ "type": "Feature", "properties": { "id": "VALPARAÍSO", "label": "VALPARAÍSO", "code": "5856", "community": 5, "pagerank": 0.013569751070700025, "weight": 1.3569751070700025, "size": 1356.9751070700027, "color_r": 255, "color_g": 192, "color_b": 203, "color_a": 1.0 }, "geometry": { "type": "Point", "coordinates": [ -75.624452, 5.614555 ] } },
{ "type": "Feature", "properties": { "id": "REMEDIOS", "label": "REMEDIOS", "code": "5604", "community": 100, "pagerank": 0.01396942726176331, "weight": 1.396942726176331, "size": 1396.942726176331, "color_r": 106, "color_g": 90, "color_b": 205, "color_a": 1.0 }, "geometry": { "type": "Point", "coordinates": [ -74.698135, 7.029424 ] } }
]
}
