{
  "type": "FeatureCollection",
  "name": "fig2_undirected_Pperuviana_22km_10steps_10reps_municipalities_network_v2_nodes",
  "crs": {
    "type": "name",
    "properties": {
      "name": "urn:ogc:def:crs:OGC:1.3:CRS84"
    }
  },
  "features": [
    {
      "type": "Feature",
      "properties": {
        "id": "ITUANGO",
        "label": "ITUANGO",
        "code": "5361",
        "community": 10,
        "pagerank": 0.01010490193497833,
        "weight": 1.010490193497833,
        "size": 1010.490193497833,
        "color_r": 68,
        "color_g": 1,
        "color_b": 84,
        "color_a": 1.0
      },
      "geometry": {
        "type": "Point",
        "coordinates": [
          -75.764673,
          7.171629
        ]
      }
    },
    {
      "type": "Feature",
      "properties": {
        "id": "BRICEÑO",
        "label": "BRICEÑO",
        "code": "5107",
        "community": 9,
        "pagerank": 0.008009468603071584,
        "weight": 0.8009468603071584,
        "size": 800.9468603071584,
        "color_r": 253,
        "color_g": 231,
        "color_b": 37,
        "color_a": 1.0
      },
      "geometry": {
        "type": "Point",
        "coordinates": [
          -75.55036,
          7.112803
        ]
      }
    },
    {
      "type": "Feature",
      "properties": {
        "id": "VALDIVIA",
        "label": "VALDIVIA",
        "code": "5854",
        "community": 9,
        "pagerank": 0.006594601327353845,
        "weight": 0.6594601327353845,
        "size": 659.4601327353845,
        "color_r": 253,
        "color_g": 231,
        "color_b": 37,
        "color_a": 1.0
      },
      "geometry": {
        "type": "Point",
        "coordinates": [
          -75.439274,
          7.1652
        ]
      }
    },
    {
      "type": "Feature",
      "properties": {
        "id": "TARAZÁ",
        "label": "TARAZÁ",
        "code": "5790",
        "community": 12,
        "pagerank": 0.005226581050534427,
        "weight": 0.5226581050534427,
        "size": 522.6581050534427,
        "color_r": 59,
        "color_g": 82,
        "color_b": 139,
        "color_a": 1.0
      },
      "geometry": {
        "type": "Point",
        "coordinates": [
          -75.401407,
          7.580127
        ]
      }
    },
    {
      "type": "Feature",
      "properties": {
        "id": "YARUMAL",
        "label": "YARUMAL",
        "code": "5887",
        "community": 9,
        "pagerank": 0.011565168380507038,
        "weight": 1.1565168380507038,
        "size": 1156.5168380507039,
        "color_r": 253,
        "color_g": 231,
        "color_b": 37,
        "color_a": 1.0
      },
      "geometry": {
        "type": "Point",
        "coordinates": [
          -75.418828,
          6.963832
        ]
      }
    },
    {
      "type": "Feature",
      "properties": {
        "id": "TOLEDO",
        "label": "TOLEDO",
        "code": "5819",
        "community": 3,
        "pagerank": 0.006657916904337219,
        "weight": 0.6657916904337219,
        "size": 665.7916904337219,
        "color_r": 59,
        "color_g": 82,
        "color_b": 139,
        "color_a": 1.0
      },
      "geometry": {
        "type": "Point",
        "coordinates": [
          -75.692281,
          7.010328
        ]
      }
    },
    {
      "type": "Feature",
      "properties": {
        "id": "PEQUE",
        "label": "PEQUE",
        "code": "5543",
        "community": 2,
        "pagerank": 0.007294517297580111,
        "weight": 0.7294517297580111,
        "size": 729.4517297580111,
        "color_r": 71,
        "color_g": 45,
        "color_b": 123,
        "color_a": 1.0
      },
      "geometry": {
        "type": "Point",
        "coordinates": [
          -75.910357,
          7.021029
        ]
      }
    },
    {
      "type": "Feature",
      "properties": {
        "id": "SAN ANDRÉS DE CUERQUÍA",
        "label": "SAN ANDRÉS DE CUERQUÍA",
        "code": "5647",
        "community": 3,
        "pagerank": 0.009101967341006156,
        "weight": 0.9101967341006156,
        "size": 910.1967341006157,
        "color_r": 59,
        "color_g": 82,
        "color_b": 139,
        "color_a": 1.0
      },
      "geometry": {
        "type": "Point",
        "coordinates": [
          -75.674564,
          6.916676
        ]
      }
    },
    {
      "type": "Feature",
      "properties": {
        "id": "CAMPAMENTO",
        "label": "CAMPAMENTO",
        "code": "5134",
        "community": 3,
        "pagerank": 0.007499136052835164,
        "weight": 0.7499136052835165,
        "size": 749.9136052835164,
        "color_r": 59,
        "color_g": 82,
        "color_b": 139,
        "color_a": 1.0
      },
      "geometry": {
        "type": "Point",
        "coordinates": [
          -75.298091,
          6.979771
        ]
      }
    },
    {
      "type": "Feature",
      "properties": {
        "id": "ANGOSTURA",
        "label": "ANGOSTURA",
        "code": "5038",
        "community": 3,
        "pagerank": 0.013706331043628216,
        "weight": 1.3706331043628217,
        "size": 1370.6331043628215,
        "color_r": 59,
        "color_g": 82,
        "color_b": 139,
        "color_a": 1.0
      },
      "geometry": {
        "type": "Point",
        "coordinates": [
          -75.335116,
          6.885175
        ]
      }
    },
    {
      "type": "Feature",
      "properties": {
        "id": "ANORÍ",
        "label": "ANORÍ",
        "code": "5040",
        "community": 3,
        "pagerank": 0.008080167569970572,
        "weight": 0.8080167569970572,
        "size": 808.0167569970572,
        "color_r": 59,
        "color_g": 82,
        "color_b": 139,
        "color_a": 1.0
      },
      "geometry": {
        "type": "Point",
        "coordinates": [
          -75.148355,
          7.074703
        ]
      }
    },
    {
      "type": "Feature",
      "properties": {
        "id": "SANTA ROSA DE OSOS",
        "label": "SANTA ROSA DE OSOS",
        "code": "5686",
        "community": 3,
        "pagerank": 0.014428522521684894,
        "weight": 1.4428522521684894,
        "size": 1442.8522521684895,
        "color_r": 59,
        "color_g": 82,
        "color_b": 139,
        "color_a": 1.0
      },
      "geometry": {
        "type": "Point",
        "coordinates": [
          -75.460723,
          6.643366
        ]
      }
    },
    {
      "type": "Feature",
      "properties": {
        "id": "SABANALARGA",
        "label": "SABANALARGA",
        "code": "5628",
        "community": 3,
        "pagerank": 0.008994988035513986,
        "weight": 0.8994988035513987,
        "size": 899.4988035513986,
        "color_r": 59,
        "color_g": 82,
        "color_b": 139,
        "color_a": 1.0
      },
      "geometry": {
        "type": "Point",
        "coordinates": [
          -75.816645,
          6.850028
        ]
      }
    },
    {
      "type": "Feature",
      "properties": {
        "id": "SAN JOSÉ DE LA MONTAÑA",
        "label": "SAN JOSÉ DE LA MONTAÑA",
        "code": "5658",
        "community": 3,
        "pagerank": 0.008735979257714967,
        "weight": 0.8735979257714968,
        "size": 873.5979257714966,
        "color_r": 59,
        "color_g": 82,
        "color_b": 139,
        "color_a": 1.0
      },
      "geometry": {
        "type": "Point",
        "coordinates": [
          -75.683352,
          6.85009
        ]
      }
    },
    {
      "type": "Feature",
      "properties": {
        "id": "BELMIRA",
        "label": "BELMIRA",
        "code": "5086",
        "community": 7,
        "pagerank": 0.0105598550147644,
        "weight": 1.0559855014764399,
        "size": 1055.98550147644,
        "color_r": 93,
        "color_g": 200,
        "color_b": 99,
        "color_a": 1.0
      },
      "geometry": {
        "type": "Point",
        "coordinates": [
          -75.667779,
          6.606319
        ]
      }
    },
    {
      "type": "Feature",
      "properties": {
        "id": "CAROLINA",
        "label": "CAROLINA",
        "code": "5150",
        "community": 3,
        "pagerank": 0.008787955057983576,
        "weight": 0.8787955057983576,
        "size": 878.7955057983577,
        "color_r": 59,
        "color_g": 82,
        "color_b": 139,
        "color_a": 1.0
      },
      "geometry": {
        "type": "Point",
        "coordinates": [
          -75.283192,
          6.725995
        ]
      }
    },
    {
      "type": "Feature",
      "properties": {
        "id": "GUADALUPE",
        "label": "GUADALUPE",
        "code": "5315",
        "community": 3,
        "pagerank": 0.011595665176431215,
        "weight": 1.1595665176431216,
        "size": 1159.5665176431214,
        "color_r": 59,
        "color_g": 82,
        "color_b": 139,
        "color_a": 1.0
      },
      "geometry": {
        "type": "Point",
        "coordinates": [
          -75.239862,
          6.815069
        ]
      }
    },
    {
      "type": "Feature",
      "properties": {
        "id": "MUTATÁ",
        "label": "MUTATÁ",
        "code": "5480",
        "community": 10,
        "pagerank": 0.00546329968598158,
        "weight": 0.546329968598158,
        "size": 546.329968598158,
        "color_r": 68,
        "color_g": 1,
        "color_b": 84,
        "color_a": 1.0
      },
      "geometry": {
        "type": "Point",
        "coordinates": [
          -76.435875,
          7.242875
        ]
      }
    },
    {
      "type": "Feature",
      "properties": {
        "id": "DABEIBA",
        "label": "DABEIBA",
        "code": "5234",
        "community": 2,
        "pagerank": 0.010322018409360086,
        "weight": 1.0322018409360085,
        "size": 1032.2018409360087,
        "color_r": 71,
        "color_g": 45,
        "color_b": 123,
        "color_a": 1.0
      },
      "geometry": {
        "type": "Point",
        "coordinates": [
          -76.261614,
          6.998112
        ]
      }
    },
    {
      "type": "Feature",
      "properties": {
        "id": "URAMITA",
        "label": "URAMITA",
        "code": "5842",
        "community": 2,
        "pagerank": 0.005649509741659088,
        "weight": 0.5649509741659088,
        "size": 564.9509741659087,
        "color_r": 71,
        "color_g": 45,
        "color_b": 123,
        "color_a": 1.0
      },
      "geometry": {
        "type": "Point",
        "coordinates": [
          -76.173284,
          6.898393
        ]
      }
    },
    {
      "type": "Feature",
      "properties": {
        "id": "CAÑASGORDAS",
        "label": "CAÑASGORDAS",
        "code": "5138",
        "community": 2,
        "pagerank": 0.012531986905566814,
        "weight": 1.2531986905566814,
        "size": 1253.1986905566814,
        "color_r": 71,
        "color_g": 45,
        "color_b": 123,
        "color_a": 1.0
      },
      "geometry": {
        "type": "Point",
        "coordinates": [
          -76.028228,
          6.753859
        ]
      }
    },
    {
      "type": "Feature",
      "properties": {
        "id": "BURITICÁ",
        "label": "BURITICÁ",
        "code": "5113",
        "community": 2,
        "pagerank": 0.009512665595826,
        "weight": 0.9512665595826,
        "size": 951.2665595825999,
        "color_r": 71,
        "color_g": 45,
        "color_b": 123,
        "color_a": 1.0
      },
      "geometry": {
        "type": "Point",
        "coordinates": [
          -75.907,
          6.720759
        ]
      }
    },
    {
      "type": "Feature",
      "properties": {
        "id": "FRONTINO",
        "label": "FRONTINO",
        "code": "5284",
        "community": 2,
        "pagerank": 0.011460422717647986,
        "weight": 1.1460422717647987,
        "size": 1146.0422717647987,
        "color_r": 71,
        "color_g": 45,
        "color_b": 123,
        "color_a": 1.0
      },
      "geometry": {
        "type": "Point",
        "coordinates": [
          -76.130765,
          6.776066
        ]
      }
    },
    {
      "type": "Feature",
      "properties": {
        "id": "GÓMEZ PLATA",
        "label": "GÓMEZ PLATA",
        "code": "5310",
        "community": 3,
        "pagerank": 0.008970174778008023,
        "weight": 0.8970174778008023,
        "size": 897.0174778008023,
        "color_r": 59,
        "color_g": 82,
        "color_b": 139,
        "color_a": 1.0
      },
      "geometry": {
        "type": "Point",
        "coordinates": [
          -75.220018,
          6.683269
        ]
      }
    },
    {
      "type": "Feature",
      "properties": {
        "id": "AMALFI",
        "label": "AMALFI",
        "code": "5031",
        "community": 11,
        "pagerank": 0.012685502633086593,
        "weight": 1.2685502633086594,
        "size": 1268.5502633086594,
        "color_r": 71,
        "color_g": 45,
        "color_b": 123,
        "color_a": 1.0
      },
      "geometry": {
        "type": "Point",
        "coordinates": [
          -75.077501,
          6.909655
        ]
      }
    },
    {
      "type": "Feature",
      "properties": {
        "id": "ENTRERRÍOS",
        "label": "ENTRERRÍOS",
        "code": "5264",
        "community": 7,
        "pagerank": 0.014062186953481453,
        "weight": 1.4062186953481453,
        "size": 1406.2186953481453,
        "color_r": 93,
        "color_g": 200,
        "color_b": 99,
        "color_a": 1.0
      },
      "geometry": {
        "type": "Point",
        "coordinates": [
          -75.517685,
          6.566273
        ]
      }
    },
    {
      "type": "Feature",
      "properties": {
        "id": "LIBORINA",
        "label": "LIBORINA",
        "code": "5411",
        "community": 3,
        "pagerank": 0.007410504135944567,
        "weight": 0.7410504135944568,
        "size": 741.0504135944567,
        "color_r": 59,
        "color_g": 82,
        "color_b": 139,
        "color_a": 1.0
      },
      "geometry": {
        "type": "Point",
        "coordinates": [
          -75.812838,
          6.677316
        ]
      }
    },
    {
      "type": "Feature",
      "properties": {
        "id": "OLAYA",
        "label": "OLAYA",
        "code": "5501",
        "community": 3,
        "pagerank": 0.014240857829803543,
        "weight": 1.4240857829803544,
        "size": 1424.0857829803542,
        "color_r": 59,
        "color_g": 82,
        "color_b": 139,
        "color_a": 1.0
      },
      "geometry": {
        "type": "Point",
        "coordinates": [
          -75.811773,
          6.626492
        ]
      }
    },
    {
      "type": "Feature",
      "properties": {
        "id": "ABRIAQUÍ",
        "label": "ABRIAQUÍ",
        "code": "5004",
        "community": 2,
        "pagerank": 0.00725593601839817,
        "weight": 0.725593601839817,
        "size": 725.593601839817,
        "color_r": 71,
        "color_g": 45,
        "color_b": 123,
        "color_a": 1.0
      },
      "geometry": {
        "type": "Point",
        "coordinates": [
          -76.064304,
          6.632282
        ]
      }
    },
    {
      "type": "Feature",
      "properties": {
        "id": "GIRALDO",
        "label": "GIRALDO",
        "code": "5306",
        "community": 2,
        "pagerank": 0.0064336951772801885,
        "weight": 0.6433695177280189,
        "size": 643.3695177280189,
        "color_r": 71,
        "color_g": 45,
        "color_b": 123,
        "color_a": 1.0
      },
      "geometry": {
        "type": "Point",
        "coordinates": [
          -75.952158,
          6.680808
        ]
      }
    },
    {
      "type": "Feature",
      "properties": {
        "id": "SOPETRÁN",
        "label": "SOPETRÁN",
        "code": "5761",
        "community": 3,
        "pagerank": 0.011310139980982173,
        "weight": 1.1310139980982172,
        "size": 1131.0139980982171,
        "color_r": 59,
        "color_g": 82,
        "color_b": 139,
        "color_a": 1.0
      },
      "geometry": {
        "type": "Point",
        "coordinates": [
          -75.747378,
          6.500745
        ]
      }
    },
    {
      "type": "Feature",
      "properties": {
        "id": "SAN PEDRO DE LOS MILAGROS",
        "label": "SAN PEDRO DE LOS MILAGROS",
        "code": "5664",
        "community": 7,
        "pagerank": 0.007533068871612933,
        "weight": 0.7533068871612933,
        "size": 753.3068871612933,
        "color_r": 93,
        "color_g": 200,
        "color_b": 99,
        "color_a": 1.0
      },
      "geometry": {
        "type": "Point",
        "coordinates": [
          -75.556743,
          6.46012
        ]
      }
    },
    {
      "type": "Feature",
      "properties": {
        "id": "DONMATÍAS",
        "label": "DONMATÍAS",
        "code": "5237",
        "community": 7,
        "pagerank": 0.011579903121411177,
        "weight": 1.1579903121411177,
        "size": 1157.9903121411178,
        "color_r": 93,
        "color_g": 200,
        "color_b": 99,
        "color_a": 1.0
      },
      "geometry": {
        "type": "Point",
        "coordinates": [
          -75.39263,
          6.485603
        ]
      }
    },
    {
      "type": "Feature",
      "properties": {
        "id": "SAN JERÓNIMO",
        "label": "SAN JERÓNIMO",
        "code": "5656",
        "community": 4,
        "pagerank": 0.0075971017460594314,
        "weight": 0.7597101746059431,
        "size": 759.7101746059432,
        "color_r": 44,
        "color_g": 114,
        "color_b": 142,
        "color_a": 1.0
      },
      "geometry": {
        "type": "Point",
        "coordinates": [
          -75.726975,
          6.44809
        ]
      }
    },
    {
      "type": "Feature",
      "properties": {
        "id": "YOLOMBÓ",
        "label": "YOLOMBÓ",
        "code": "5890",
        "community": 11,
        "pagerank": 0.015211105983714104,
        "weight": 1.5211105983714104,
        "size": 1521.1105983714103,
        "color_r": 71,
        "color_g": 45,
        "color_b": 123,
        "color_a": 1.0
      },
      "geometry": {
        "type": "Point",
        "coordinates": [
          -75.013385,
          6.594511
        ]
      }
    },
    {
      "type": "Feature",
      "properties": {
        "id": "SANTO DOMINGO",
        "label": "SANTO DOMINGO",
        "code": "5690",
        "community": 1,
        "pagerank": 0.007849279028073973,
        "weight": 0.7849279028073972,
        "size": 784.9279028073972,
        "color_r": 68,
        "color_g": 1,
        "color_b": 84,
        "color_a": 1.0
      },
      "geometry": {
        "type": "Point",
        "coordinates": [
          -75.164903,
          6.473032
        ]
      }
    },
    {
      "type": "Feature",
      "properties": {
        "id": "BARBOSA",
        "label": "BARBOSA",
        "code": "5079",
        "community": 1,
        "pagerank": 0.009562906253368992,
        "weight": 0.9562906253368992,
        "size": 956.2906253368992,
        "color_r": 68,
        "color_g": 1,
        "color_b": 84,
        "color_a": 1.0
      },
      "geometry": {
        "type": "Point",
        "coordinates": [
          -75.331627,
          6.439195
        ]
      }
    },
    {
      "type": "Feature",
      "properties": {
        "id": "URRAO",
        "label": "URRAO",
        "code": "5847",
        "community": 2,
        "pagerank": 0.01620589568682261,
        "weight": 1.6205895686822611,
        "size": 1620.589568682261,
        "color_r": 71,
        "color_g": 45,
        "color_b": 123,
        "color_a": 1.0
      },
      "geometry": {
        "type": "Point",
        "coordinates": [
          -76.133951,
          6.317343
        ]
      }
    },
    {
      "type": "Feature",
      "properties": {
        "id": "SANTA FÉ DE ANTIOQUIA",
        "label": "SANTA FÉ DE ANTIOQUIA",
        "code": "5042",
        "community": 2,
        "pagerank": 0.00771799321388035,
        "weight": 0.771799321388035,
        "size": 771.7993213880351,
        "color_r": 71,
        "color_g": 45,
        "color_b": 123,
        "color_a": 1.0
      },
      "geometry": {
        "type": "Point",
        "coordinates": [
          -75.826648,
          6.556484
        ]
      }
    },
    {
      "type": "Feature",
      "properties": {
        "id": "CAICEDO",
        "label": "CAICEDO",
        "code": "5125",
        "community": 2,
        "pagerank": 0.014332846441256566,
        "weight": 1.4332846441256566,
        "size": 1433.2846441256565,
        "color_r": 71,
        "color_g": 45,
        "color_b": 123,
        "color_a": 1.0
      },
      "geometry": {
        "type": "Point",
        "coordinates": [
          -75.98293,
          6.405607
        ]
      }
    },
    {
      "type": "Feature",
      "properties": {
        "id": "MURINDÓ",
        "label": "MURINDÓ",
        "code": "5475",
        "community": 100,
        "pagerank": 0.003975090884591179,
        "weight": 0.39750908845911787,
        "size": 397.5090884591179,
        "color_r": 44,
        "color_g": 114,
        "color_b": 142,
        "color_a": 1.0
      },
      "geometry": {
        "type": "Point",
        "coordinates": [
          -76.817485,
          6.97771
        ]
      }
    },
    {
      "type": "Feature",
      "properties": {
        "id": "VIGÍA DEL FUERTE",
        "label": "VIGÍA DEL FUERTE",
        "code": "5873",
        "community": 100,
        "pagerank": 0.004454291442651496,
        "weight": 0.4454291442651496,
        "size": 445.4291442651496,
        "color_r": 44,
        "color_g": 114,
        "color_b": 142,
        "color_a": 1.0
      },
      "geometry": {
        "type": "Point",
        "coordinates": [
          -76.896004,
          6.588164
        ]
      }
    },
    {
      "type": "Feature",
      "properties": {
        "id": "CISNEROS",
        "label": "CISNEROS",
        "code": "5190",
        "community": 1,
        "pagerank": 0.00600783932513484,
        "weight": 0.600783932513484,
        "size": 600.783932513484,
        "color_r": 68,
        "color_g": 1,
        "color_b": 84,
        "color_a": 1.0
      },
      "geometry": {
        "type": "Point",
        "coordinates": [
          -75.087047,
          6.537829
        ]
      }
    },
    {
      "type": "Feature",
      "properties": {
        "id": "ANZÁ",
        "label": "ANZÁ",
        "code": "5044",
        "community": 2,
        "pagerank": 0.0065126467939488975,
        "weight": 0.6512646793948897,
        "size": 651.2646793948898,
        "color_r": 71,
        "color_g": 45,
        "color_b": 123,
        "color_a": 1.0
      },
      "geometry": {
        "type": "Point",
        "coordinates": [
          -75.854442,
          6.302641
        ]
      }
    },
    {
      "type": "Feature",
      "properties": {
        "id": "BELLO",
        "label": "BELLO",
        "code": "5088",
        "community": 4,
        "pagerank": 0.009378760409838722,
        "weight": 0.9378760409838722,
        "size": 937.8760409838721,
        "color_r": 44,
        "color_g": 114,
        "color_b": 142,
        "color_a": 1.0
      },
      "geometry": {
        "type": "Point",
        "coordinates": [
          -75.555245,
          6.333587
        ]
      }
    },
    {
      "type": "Feature",
      "properties": {
        "id": "GIRARDOTA",
        "label": "GIRARDOTA",
        "code": "5308",
        "community": 1,
        "pagerank": 0.008392907337902919,
        "weight": 0.839290733790292,
        "size": 839.2907337902919,
        "color_r": 68,
        "color_g": 1,
        "color_b": 84,
        "color_a": 1.0
      },
      "geometry": {
        "type": "Point",
        "coordinates": [
          -75.444238,
          6.379472
        ]
      }
    },
    {
      "type": "Feature",
      "properties": {
        "id": "COPACABANA",
        "label": "COPACABANA",
        "code": "5212",
        "community": 4,
        "pagerank": 0.009541223639871041,
        "weight": 0.9541223639871041,
        "size": 954.1223639871041,
        "color_r": 44,
        "color_g": 114,
        "color_b": 142,
        "color_a": 1.0
      },
      "geometry": {
        "type": "Point",
        "coordinates": [
          -75.509384,
          6.348557
        ]
      }
    },
    {
      "type": "Feature",
      "properties": {
        "id": "SAN VICENTE FERRER",
        "label": "SAN VICENTE FERRER",
        "code": "5674",
        "community": 1,
        "pagerank": 0.011001898994875775,
        "weight": 1.1001898994875776,
        "size": 1100.1898994875776,
        "color_r": 68,
        "color_g": 1,
        "color_b": 84,
        "color_a": 1.0
      },
      "geometry": {
        "type": "Point",
        "coordinates": [
          -75.332616,
          6.282164
        ]
      }
    },
    {
      "type": "Feature",
      "properties": {
        "id": "CONCEPCIÓN",
        "label": "CONCEPCIÓN",
        "code": "5206",
        "community": 1,
        "pagerank": 0.011042614068392692,
        "weight": 1.104261406839269,
        "size": 1104.2614068392693,
        "color_r": 68,
        "color_g": 1,
        "color_b": 84,
        "color_a": 1.0
      },
      "geometry": {
        "type": "Point",
        "coordinates": [
          -75.257587,
          6.394348
        ]
      }
    },
    {
      "type": "Feature",
      "properties": {
        "id": "ALEJANDRÍA",
        "label": "ALEJANDRÍA",
        "code": "5021",
        "community": 1,
        "pagerank": 0.008649330364555945,
        "weight": 0.8649330364555945,
        "size": 864.9330364555944,
        "color_r": 68,
        "color_g": 1,
        "color_b": 84,
        "color_a": 1.0
      },
      "geometry": {
        "type": "Point",
        "coordinates": [
          -75.141346,
          6.376061
        ]
      }
    },
    {
      "type": "Feature",
      "properties": {
        "id": "GUARNE",
        "label": "GUARNE",
        "code": "5318",
        "community": 1,
        "pagerank": 0.010040527423496174,
        "weight": 1.0040527423496175,
        "size": 1004.0527423496175,
        "color_r": 68,
        "color_g": 1,
        "color_b": 84,
        "color_a": 1.0
      },
      "geometry": {
        "type": "Point",
        "coordinates": [
          -75.441612,
          6.27787
        ]
      }
    },
    {
      "type": "Feature",
      "properties": {
        "id": "RIONEGRO",
        "label": "RIONEGRO",
        "code": "5615",
        "community": 1,
        "pagerank": 0.010398348363542712,
        "weight": 1.039834836354271,
        "size": 1039.8348363542711,
        "color_r": 68,
        "color_g": 1,
        "color_b": 84,
        "color_a": 1.0
      },
      "geometry": {
        "type": "Point",
        "coordinates": [
          -75.377316,
          6.147148
        ]
      }
    },
    {
      "type": "Feature",
      "properties": {
        "id": "PEÑOL",
        "label": "PEÑOL",
        "code": "5541",
        "community": 1,
        "pagerank": 0.007751477389250423,
        "weight": 0.7751477389250423,
        "size": 775.1477389250423,
        "color_r": 68,
        "color_g": 1,
        "color_b": 84,
        "color_a": 1.0
      },
      "geometry": {
        "type": "Point",
        "coordinates": [
          -75.242693,
          6.219349
        ]
      }
    },
    {
      "type": "Feature",
      "properties": {
        "id": "MARINILLA",
        "label": "MARINILLA",
        "code": "5440",
        "community": 1,
        "pagerank": 0.008573460747588357,
        "weight": 0.8573460747588357,
        "size": 857.3460747588357,
        "color_r": 68,
        "color_g": 1,
        "color_b": 84,
        "color_a": 1.0
      },
      "geometry": {
        "type": "Point",
        "coordinates": [
          -75.339345,
          6.173995
        ]
      }
    },
    {
      "type": "Feature",
      "properties": {
        "id": "GUATAPÉ",
        "label": "GUATAPÉ",
        "code": "5321",
        "community": 1,
        "pagerank": 0.0078067319721724085,
        "weight": 0.7806731972172408,
        "size": 780.6731972172408,
        "color_r": 68,
        "color_g": 1,
        "color_b": 84,
        "color_a": 1.0
      },
      "geometry": {
        "type": "Point",
        "coordinates": [
          -75.160041,
          6.232461
        ]
      }
    },
    {
      "type": "Feature",
      "properties": {
        "id": "MEDELLÍN",
        "label": "MEDELLÍN",
        "code": "5001",
        "community": 4,
        "pagerank": 0.01146048388567613,
        "weight": 1.146048388567613,
        "size": 1146.048388567613,
        "color_r": 44,
        "color_g": 114,
        "color_b": 142,
        "color_a": 1.0
      },
      "geometry": {
        "type": "Point",
        "coordinates": [
          -75.581775,
          6.246631
        ]
      }
    },
    {
      "type": "Feature",
      "properties": {
        "id": "YALÍ",
        "label": "YALÍ",
        "code": "5885",
        "community": 100,
        "pagerank": 0.009201947940059005,
        "weight": 0.9201947940059005,
        "size": 920.1947940059005,
        "color_r": 44,
        "color_g": 114,
        "color_b": 142,
        "color_a": 1.0
      },
      "geometry": {
        "type": "Point",
        "coordinates": [
          -74.840059,
          6.676554
        ]
      }
    },
    {
      "type": "Feature",
      "properties": {
        "id": "VEGACHÍ",
        "label": "VEGACHÍ",
        "code": "5858",
        "community": 100,
        "pagerank": 0.0066073307848301,
        "weight": 0.66073307848301,
        "size": 660.73307848301,
        "color_r": 44,
        "color_g": 114,
        "color_b": 142,
        "color_a": 1.0
      },
      "geometry": {
        "type": "Point",
        "coordinates": [
          -74.798714,
          6.773525
        ]
      }
    },
    {
      "type": "Feature",
      "properties": {
        "id": "SAN ROQUE",
        "label": "SAN ROQUE",
        "code": "5670",
        "community": 1,
        "pagerank": 0.010079256094202954,
        "weight": 1.0079256094202955,
        "size": 1007.9256094202955,
        "color_r": 68,
        "color_g": 1,
        "color_b": 84,
        "color_a": 1.0
      },
      "geometry": {
        "type": "Point",
        "coordinates": [
          -75.019109,
          6.485939
        ]
      }
    },
    {
      "type": "Feature",
      "properties": {
        "id": "SAN RAFAEL",
        "label": "SAN RAFAEL",
        "code": "5667",
        "community": 1,
        "pagerank": 0.008496840452423216,
        "weight": 0.8496840452423216,
        "size": 849.6840452423215,
        "color_r": 68,
        "color_g": 1,
        "color_b": 84,
        "color_a": 1.0
      },
      "geometry": {
        "type": "Point",
        "coordinates": [
          -75.02849,
          6.293759
        ]
      }
    },
    {
      "type": "Feature",
      "properties": {
        "id": "SAN CARLOS",
        "label": "SAN CARLOS",
        "code": "5649",
        "community": 1,
        "pagerank": 0.0105034567305203,
        "weight": 1.05034567305203,
        "size": 1050.34567305203,
        "color_r": 68,
        "color_g": 1,
        "color_b": 84,
        "color_a": 1.0
      },
      "geometry": {
        "type": "Point",
        "coordinates": [
          -74.988097,
          6.187746
        ]
      }
    },
    {
      "type": "Feature",
      "properties": {
        "id": "GRANADA",
        "label": "GRANADA",
        "code": "5313",
        "community": 1,
        "pagerank": 0.008034244794523564,
        "weight": 0.8034244794523564,
        "size": 803.4244794523564,
        "color_r": 68,
        "color_g": 1,
        "color_b": 84,
        "color_a": 1.0
      },
      "geometry": {
        "type": "Point",
        "coordinates": [
          -75.184446,
          6.142892
        ]
      }
    },
    {
      "type": "Feature",
      "properties": {
        "id": "EBÉJICO",
        "label": "EBÉJICO",
        "code": "5240",
        "community": 4,
        "pagerank": 0.009507792875018782,
        "weight": 0.9507792875018782,
        "size": 950.7792875018782,
        "color_r": 44,
        "color_g": 114,
        "color_b": 142,
        "color_a": 1.0
      },
      "geometry": {
        "type": "Point",
        "coordinates": [
          -75.766413,
          6.325615
        ]
      }
    },
    {
      "type": "Feature",
      "properties": {
        "id": "BETULIA",
        "label": "BETULIA",
        "code": "5093",
        "community": 2,
        "pagerank": 0.006475724212176547,
        "weight": 0.6475724212176547,
        "size": 647.5724212176547,
        "color_r": 71,
        "color_g": 45,
        "color_b": 123,
        "color_a": 1.0
      },
      "geometry": {
        "type": "Point",
        "coordinates": [
          -75.984452,
          6.115208
        ]
      }
    },
    {
      "type": "Feature",
      "properties": {
        "id": "EL CARMEN DE VIBORAL",
        "label": "EL CARMEN DE VIBORAL",
        "code": "5148",
        "community": 1,
        "pagerank": 0.010640158710087692,
        "weight": 1.0640158710087693,
        "size": 1064.0158710087692,
        "color_r": 68,
        "color_g": 1,
        "color_b": 84,
        "color_a": 1.0
      },
      "geometry": {
        "type": "Point",
        "coordinates": [
          -75.333901,
          6.082885
        ]
      }
    },
    {
      "type": "Feature",
      "properties": {
        "id": "LA CEJA",
        "label": "LA CEJA",
        "code": "5376",
        "community": 1,
        "pagerank": 0.009193564381955599,
        "weight": 0.9193564381955599,
        "size": 919.3564381955599,
        "color_r": 68,
        "color_g": 1,
        "color_b": 84,
        "color_a": 1.0
      },
      "geometry": {
        "type": "Point",
        "coordinates": [
          -75.429433,
          6.028062
        ]
      }
    },
    {
      "type": "Feature",
      "properties": {
        "id": "ENVIGADO",
        "label": "ENVIGADO",
        "code": "5266",
        "community": 6,
        "pagerank": 0.011987769122906777,
        "weight": 1.1987769122906777,
        "size": 1198.7769122906777,
        "color_r": 39,
        "color_g": 173,
        "color_b": 129,
        "color_a": 1.0
      },
      "geometry": {
        "type": "Point",
        "coordinates": [
          -75.582192,
          6.166695
        ]
      }
    },
    {
      "type": "Feature",
      "properties": {
        "id": "RETIRO",
        "label": "RETIRO",
        "code": "5607",
        "community": 6,
        "pagerank": 0.012513527671598924,
        "weight": 1.2513527671598923,
        "size": 1251.3527671598924,
        "color_r": 39,
        "color_g": 173,
        "color_b": 129,
        "color_a": 1.0
      },
      "geometry": {
        "type": "Point",
        "coordinates": [
          -75.501301,
          6.062454
        ]
      }
    },
    {
      "type": "Feature",
      "properties": {
        "id": "EL SANTUARIO",
        "label": "EL SANTUARIO",
        "code": "5697",
        "community": 1,
        "pagerank": 0.007836393911064339,
        "weight": 0.7836393911064339,
        "size": 783.6393911064339,
        "color_r": 68,
        "color_g": 1,
        "color_b": 84,
        "color_a": 1.0
      },
      "geometry": {
        "type": "Point",
        "coordinates": [
          -75.265465,
          6.136871
        ]
      }
    },
    {
      "type": "Feature",
      "properties": {
        "id": "SABANETA",
        "label": "SABANETA",
        "code": "5631",
        "community": 6,
        "pagerank": 0.014260123376525187,
        "weight": 1.4260123376525187,
        "size": 1426.0123376525187,
        "color_r": 39,
        "color_g": 173,
        "color_b": 129,
        "color_a": 1.0
      },
      "geometry": {
        "type": "Point",
        "coordinates": [
          -75.615479,
          6.149903
        ]
      }
    },
    {
      "type": "Feature",
      "properties": {
        "id": "ITAGÜÍ",
        "label": "ITAGÜÍ",
        "code": "5360",
        "community": 4,
        "pagerank": 0.01143982136919105,
        "weight": 1.143982136919105,
        "size": 1143.982136919105,
        "color_r": 44,
        "color_g": 114,
        "color_b": 142,
        "color_a": 1.0
      },
      "geometry": {
        "type": "Point",
        "coordinates": [
          -75.612056,
          6.175079
        ]
      }
    },
    {
      "type": "Feature",
      "properties": {
        "id": "CALDAS",
        "label": "CALDAS",
        "code": "5129",
        "community": 6,
        "pagerank": 0.010983792885060644,
        "weight": 1.0983792885060644,
        "size": 1098.3792885060643,
        "color_r": 39,
        "color_g": 173,
        "color_b": 129,
        "color_a": 1.0
      },
      "geometry": {
        "type": "Point",
        "coordinates": [
          -75.633673,
          6.091077
        ]
      }
    },
    {
      "type": "Feature",
      "properties": {
        "id": "LA ESTRELLA",
        "label": "LA ESTRELLA",
        "code": "5380",
        "community": 4,
        "pagerank": 0.008495708479248246,
        "weight": 0.8495708479248246,
        "size": 849.5708479248246,
        "color_r": 44,
        "color_g": 114,
        "color_b": 142,
        "color_a": 1.0
      },
      "geometry": {
        "type": "Point",
        "coordinates": [
          -75.637708,
          6.145238
        ]
      }
    },
    {
      "type": "Feature",
      "properties": {
        "id": "CÁCERES",
        "label": "CÁCERES",
        "code": "5120",
        "community": 100,
        "pagerank": 0.015631275874504677,
        "weight": 1.5631275874504678,
        "size": 1563.1275874504677,
        "color_r": 44,
        "color_g": 114,
        "color_b": 142,
        "color_a": 1.0
      },
      "geometry": {
        "type": "Point",
        "coordinates": [
          -75.35205,
          7.578366
        ]
      }
    },
    {
      "type": "Feature",
      "properties": {
        "id": "REMEDIOS",
        "label": "REMEDIOS",
        "code": "5604",
        "community": 100,
        "pagerank": 0.006371107433601365,
        "weight": 0.6371107433601365,
        "size": 637.1107433601364,
        "color_r": 44,
        "color_g": 114,
        "color_b": 142,
        "color_a": 1.0
      },
      "geometry": {
        "type": "Point",
        "coordinates": [
          -74.698135,
          7.029424
        ]
      }
    },
    {
      "type": "Feature",
      "properties": {
        "id": "HELICONIA",
        "label": "HELICONIA",
        "code": "5347",
        "community": 4,
        "pagerank": 0.009183235435837251,
        "weight": 0.9183235435837251,
        "size": 918.3235435837252,
        "color_r": 44,
        "color_g": 114,
        "color_b": 142,
        "color_a": 1.0
      },
      "geometry": {
        "type": "Point",
        "coordinates": [
          -75.734322,
          6.206757
        ]
      }
    },
    {
      "type": "Feature",
      "properties": {
        "id": "ARMENIA",
        "label": "ARMENIA",
        "code": "5059",
        "community": 4,
        "pagerank": 0.0165319981915538,
        "weight": 1.65319981915538,
        "size": 1653.19981915538,
        "color_r": 44,
        "color_g": 114,
        "color_b": 142,
        "color_a": 1.0
      },
      "geometry": {
        "type": "Point",
        "coordinates": [
          -75.786647,
          6.155667
        ]
      }
    },
    {
      "type": "Feature",
      "properties": {
        "id": "CONCORDIA",
        "label": "CONCORDIA",
        "code": "5209",
        "community": 2,
        "pagerank": 0.00922040617243813,
        "weight": 0.922040617243813,
        "size": 922.040617243813,
        "color_r": 71,
        "color_g": 45,
        "color_b": 123,
        "color_a": 1.0
      },
      "geometry": {
        "type": "Point",
        "coordinates": [
          -75.908448,
          6.045738
        ]
      }
    },
    {
      "type": "Feature",
      "properties": {
        "id": "LA UNIÓN",
        "label": "LA UNIÓN",
        "code": "5400",
        "community": 1,
        "pagerank": 0.007643576657523903,
        "weight": 0.7643576657523904,
        "size": 764.3576657523903,
        "color_r": 68,
        "color_g": 1,
        "color_b": 84,
        "color_a": 1.0
      },
      "geometry": {
        "type": "Point",
        "coordinates": [
          -75.360874,
          5.973845
        ]
      }
    },
    {
      "type": "Feature",
      "properties": {
        "id": "COCORNÁ",
        "label": "COCORNÁ",
        "code": "5197",
        "community": 1,
        "pagerank": 0.012596767586210117,
        "weight": 1.2596767586210116,
        "size": 1259.6767586210117,
        "color_r": 68,
        "color_g": 1,
        "color_b": 84,
        "color_a": 1.0
      },
      "geometry": {
        "type": "Point",
        "coordinates": [
          -75.185483,
          6.058295
        ]
      }
    },
    {
      "type": "Feature",
      "properties": {
        "id": "ANGELÓPOLIS",
        "label": "ANGELÓPOLIS",
        "code": "5036",
        "community": 4,
        "pagerank": 0.011453318372412712,
        "weight": 1.1453318372412713,
        "size": 1145.3318372412712,
        "color_r": 44,
        "color_g": 114,
        "color_b": 142,
        "color_a": 1.0
      },
      "geometry": {
        "type": "Point",
        "coordinates": [
          -75.711389,
          6.109719
        ]
      }
    },
    {
      "type": "Feature",
      "properties": {
        "id": "AMAGÁ",
        "label": "AMAGÁ",
        "code": "5030",
        "community": 4,
        "pagerank": 0.009318680386686635,
        "weight": 0.9318680386686635,
        "size": 931.8680386686635,
        "color_r": 44,
        "color_g": 114,
        "color_b": 142,
        "color_a": 1.0
      },
      "geometry": {
        "type": "Point",
        "coordinates": [
          -75.702188,
          6.038708
        ]
      }
    },
    {
      "type": "Feature",
      "properties": {
        "id": "TITIRIBÍ",
        "label": "TITIRIBÍ",
        "code": "5809",
        "community": 4,
        "pagerank": 0.00936717973135595,
        "weight": 0.9367179731355949,
        "size": 936.717973135595,
        "color_r": 44,
        "color_g": 114,
        "color_b": 142,
        "color_a": 1.0
      },
      "geometry": {
        "type": "Point",
        "coordinates": [
          -75.791887,
          6.062391
        ]
      }
    },
    {
      "type": "Feature",
      "properties": {
        "id": "SAN LUIS",
        "label": "SAN LUIS",
        "code": "5660",
        "community": 1,
        "pagerank": 0.005370748418637704,
        "weight": 0.5370748418637704,
        "size": 537.0748418637704,
        "color_r": 68,
        "color_g": 1,
        "color_b": 84,
        "color_a": 1.0
      },
      "geometry": {
        "type": "Point",
        "coordinates": [
          -74.993619,
          6.043017
        ]
      }
    },
    {
      "type": "Feature",
      "properties": {
        "id": "FREDONIA",
        "label": "FREDONIA",
        "code": "5282",
        "community": 6,
        "pagerank": 0.012786222062253523,
        "weight": 1.2786222062253523,
        "size": 1278.6222062253523,
        "color_r": 39,
        "color_g": 173,
        "color_b": 129,
        "color_a": 1.0
      },
      "geometry": {
        "type": "Point",
        "coordinates": [
          -75.675072,
          5.928039
        ]
      }
    },
    {
      "type": "Feature",
      "properties": {
        "id": "MONTEBELLO",
        "label": "MONTEBELLO",
        "code": "5467",
        "community": 6,
        "pagerank": 0.006943537082964961,
        "weight": 0.6943537082964961,
        "size": 694.353708296496,
        "color_r": 39,
        "color_g": 173,
        "color_b": 129,
        "color_a": 1.0
      },
      "geometry": {
        "type": "Point",
        "coordinates": [
          -75.523455,
          5.946313
        ]
      }
    },
    {
      "type": "Feature",
      "properties": {
        "id": "SANTA BÁRBARA",
        "label": "SANTA BÁRBARA",
        "code": "5679",
        "community": 6,
        "pagerank": 0.009283536108339381,
        "weight": 0.9283536108339381,
        "size": 928.3536108339381,
        "color_r": 39,
        "color_g": 173,
        "color_b": 129,
        "color_a": 1.0
      },
      "geometry": {
        "type": "Point",
        "coordinates": [
          -75.567351,
          5.875527
        ]
      }
    },
    {
      "type": "Feature",
      "properties": {
        "id": "ABEJORRAL",
        "label": "ABEJORRAL",
        "code": "5002",
        "community": 1,
        "pagerank": 0.010110863306728527,
        "weight": 1.0110863306728528,
        "size": 1011.0863306728528,
        "color_r": 68,
        "color_g": 1,
        "color_b": 84,
        "color_a": 1.0
      },
      "geometry": {
        "type": "Point",
        "coordinates": [
          -75.428739,
          5.789315
        ]
      }
    },
    {
      "type": "Feature",
      "properties": {
        "id": "CARACOLÍ",
        "label": "CARACOLÍ",
        "code": "5142",
        "community": 100,
        "pagerank": 0.004538268410347775,
        "weight": 0.45382684103477744,
        "size": 453.8268410347775,
        "color_r": 44,
        "color_g": 114,
        "color_b": 142,
        "color_a": 1.0
      },
      "geometry": {
        "type": "Point",
        "coordinates": [
          -74.757421,
          6.409829
        ]
      }
    },
    {
      "type": "Feature",
      "properties": {
        "id": "SALGAR",
        "label": "SALGAR",
        "code": "5642",
        "community": 2,
        "pagerank": 0.0074946345118755905,
        "weight": 0.7494634511875591,
        "size": 749.463451187559,
        "color_r": 71,
        "color_g": 45,
        "color_b": 123,
        "color_a": 1.0
      },
      "geometry": {
        "type": "Point",
        "coordinates": [
          -75.976807,
          5.964198
        ]
      }
    },
    {
      "type": "Feature",
      "properties": {
        "id": "VENECIA",
        "label": "VENECIA",
        "code": "5861",
        "community": 6,
        "pagerank": 0.011689176727793928,
        "weight": 1.1689176727793928,
        "size": 1168.917672779393,
        "color_r": 39,
        "color_g": 173,
        "color_b": 129,
        "color_a": 1.0
      },
      "geometry": {
        "type": "Point",
        "coordinates": [
          -75.735544,
          5.964693
        ]
      }
    },
    {
      "type": "Feature",
      "properties": {
        "id": "SONSÓN",
        "label": "SONSÓN",
        "code": "5756",
        "community": 8,
        "pagerank": 0.006990220109019408,
        "weight": 0.6990220109019408,
        "size": 699.0220109019408,
        "color_r": 170,
        "color_g": 220,
        "color_b": 50,
        "color_a": 1.0
      },
      "geometry": {
        "type": "Point",
        "coordinates": [
          -75.309596,
          5.714851
        ]
      }
    },
    {
      "type": "Feature",
      "properties": {
        "id": "ARGELIA",
        "label": "ARGELIA",
        "code": "5055",
        "community": 8,
        "pagerank": 0.010088872663407297,
        "weight": 1.0088872663407296,
        "size": 1008.8872663407296,
        "color_r": 170,
        "color_g": 220,
        "color_b": 50,
        "color_a": 1.0
      },
      "geometry": {
        "type": "Point",
        "coordinates": [
          -75.14107,
          5.731474
        ]
      }
    },
    {
      "type": "Feature",
      "properties": {
        "id": "SAN FRANCISCO",
        "label": "SAN FRANCISCO",
        "code": "5652",
        "community": 8,
        "pagerank": 0.005308187757252079,
        "weight": 0.530818775725208,
        "size": 530.818775725208,
        "color_r": 170,
        "color_g": 220,
        "color_b": 50,
        "color_a": 1.0
      },
      "geometry": {
        "type": "Point",
        "coordinates": [
          -75.101562,
          5.963476
        ]
      }
    },
    {
      "type": "Feature",
      "properties": {
        "id": "NARIÑO",
        "label": "NARIÑO",
        "code": "5483",
        "community": 8,
        "pagerank": 0.0037791554420844075,
        "weight": 0.37791554420844076,
        "size": 377.91554420844074,
        "color_r": 170,
        "color_g": 220,
        "color_b": 50,
        "color_a": 1.0
      },
      "geometry": {
        "type": "Point",
        "coordinates": [
          -75.176262,
          5.610777
        ]
      }
    },
    {
      "type": "Feature",
      "properties": {
        "id": "MACEO",
        "label": "MACEO",
        "code": "5425",
        "community": 100,
        "pagerank": 0.0066764162935567155,
        "weight": 0.6676416293556715,
        "size": 667.6416293556715,
        "color_r": 44,
        "color_g": 114,
        "color_b": 142,
        "color_a": 1.0
      },
      "geometry": {
        "type": "Point",
        "coordinates": [
          -74.78716,
          6.552116
        ]
      }
    },
    {
      "type": "Feature",
      "properties": {
        "id": "HISPANIA",
        "label": "HISPANIA",
        "code": "5353",
        "community": 5,
        "pagerank": 0.012257047621301458,
        "weight": 1.2257047621301458,
        "size": 1225.7047621301458,
        "color_r": 33,
        "color_g": 145,
        "color_b": 140,
        "color_a": 1.0
      },
      "geometry": {
        "type": "Point",
        "coordinates": [
          -75.906587,
          5.799461
        ]
      }
    },
    {
      "type": "Feature",
      "properties": {
        "id": "CIUDAD BOLÍVAR",
        "label": "CIUDAD BOLÍVAR",
        "code": "5101",
        "community": 5,
        "pagerank": 0.007784487429521518,
        "weight": 0.7784487429521518,
        "size": 778.4487429521517,
        "color_r": 33,
        "color_g": 145,
        "color_b": 140,
        "color_a": 1.0
      },
      "geometry": {
        "type": "Point",
        "coordinates": [
          -76.021509,
          5.850273
        ]
      }
    },
    {
      "type": "Feature",
      "properties": {
        "id": "JERICÓ",
        "label": "JERICÓ",
        "code": "5368",
        "community": 5,
        "pagerank": 0.0100698828115242,
        "weight": 1.00698828115242,
        "size": 1006.9882811524201,
        "color_r": 33,
        "color_g": 145,
        "color_b": 140,
        "color_a": 1.0
      },
      "geometry": {
        "type": "Point",
        "coordinates": [
          -75.785499,
          5.789748
        ]
      }
    },
    {
      "type": "Feature",
      "properties": {
        "id": "TARSO",
        "label": "TARSO",
        "code": "5792",
        "community": 5,
        "pagerank": 0.0073404275108918384,
        "weight": 0.7340427510891838,
        "size": 734.0427510891839,
        "color_r": 33,
        "color_g": 145,
        "color_b": 140,
        "color_a": 1.0
      },
      "geometry": {
        "type": "Point",
        "coordinates": [
          -75.822956,
          5.864542
        ]
      }
    },
    {
      "type": "Feature",
      "properties": {
        "id": "PUEBLORRICO",
        "label": "PUEBLORRICO",
        "code": "5576",
        "community": 5,
        "pagerank": 0.006302641632885938,
        "weight": 0.6302641632885938,
        "size": 630.2641632885939,
        "color_r": 33,
        "color_g": 145,
        "color_b": 140,
        "color_a": 1.0
      },
      "geometry": {
        "type": "Point",
        "coordinates": [
          -75.839903,
          5.79158
        ]
      }
    },
    {
      "type": "Feature",
      "properties": {
        "id": "PUERTO BERRÍO",
        "label": "PUERTO BERRÍO",
        "code": "5579",
        "community": 100,
        "pagerank": 0.0034154027931909137,
        "weight": 0.34154027931909137,
        "size": 341.5402793190914,
        "color_r": 44,
        "color_g": 114,
        "color_b": 142,
        "color_a": 1.0
      },
      "geometry": {
        "type": "Point",
        "coordinates": [
          -74.410016,
          6.487028
        ]
      }
    },
    {
      "type": "Feature",
      "properties": {
        "id": "LA PINTADA",
        "label": "LA PINTADA",
        "code": "5390",
        "community": 100,
        "pagerank": 0.004871223714886247,
        "weight": 0.48712237148862464,
        "size": 487.12237148862465,
        "color_r": 44,
        "color_g": 114,
        "color_b": 142,
        "color_a": 1.0
      },
      "geometry": {
        "type": "Point",
        "coordinates": [
          -75.60781,
          5.743808
        ]
      }
    },
    {
      "type": "Feature",
      "properties": {
        "id": "BETANIA",
        "label": "BETANIA",
        "code": "5091",
        "community": 5,
        "pagerank": 0.005031175499114193,
        "weight": 0.5031175499114193,
        "size": 503.1175499114193,
        "color_r": 33,
        "color_g": 145,
        "color_b": 140,
        "color_a": 1.0
      },
      "geometry": {
        "type": "Point",
        "coordinates": [
          -75.97679,
          5.74615
        ]
      }
    },
    {
      "type": "Feature",
      "properties": {
        "id": "ANDES",
        "label": "ANDES",
        "code": "5034",
        "community": 5,
        "pagerank": 0.006327025470467095,
        "weight": 0.6327025470467095,
        "size": 632.7025470467095,
        "color_r": 33,
        "color_g": 145,
        "color_b": 140,
        "color_a": 1.0
      },
      "geometry": {
        "type": "Point",
        "coordinates": [
          -75.878828,
          5.657194
        ]
      }
    },
    {
      "type": "Feature",
      "properties": {
        "id": "VALPARAÍSO",
        "label": "VALPARAÍSO",
        "code": "5856",
        "community": 5,
        "pagerank": 0.006962889702831896,
        "weight": 0.6962889702831896,
        "size": 696.2889702831895,
        "color_r": 33,
        "color_g": 145,
        "color_b": 140,
        "color_a": 1.0
      },
      "geometry": {
        "type": "Point",
        "coordinates": [
          -75.624452,
          5.614555
        ]
      }
    },
    {
      "type": "Feature",
      "properties": {
        "id": "PUERTO NARE",
        "label": "PUERTO NARE",
        "code": "5585",
        "community": 100,
        "pagerank": 0.009105746790404105,
        "weight": 0.9105746790404105,
        "size": 910.5746790404105,
        "color_r": 44,
        "color_g": 114,
        "color_b": 142,
        "color_a": 1.0
      },
      "geometry": {
        "type": "Point",
        "coordinates": [
          -74.583012,
          6.186025
        ]
      }
    },
    {
      "type": "Feature",
      "properties": {
        "id": "TÁMESIS",
        "label": "TÁMESIS",
        "code": "5789",
        "community": 5,
        "pagerank": 0.007112439983354236,
        "weight": 0.7112439983354235,
        "size": 711.2439983354236,
        "color_r": 33,
        "color_g": 145,
        "color_b": 140,
        "color_a": 1.0
      },
      "geometry": {
        "type": "Point",
        "coordinates": [
          -75.714429,
          5.664645
        ]
      }
    },
    {
      "type": "Feature",
      "properties": {
        "id": "CARAMANTA",
        "label": "CARAMANTA",
        "code": "5145",
        "community": 5,
        "pagerank": 0.0064179376188316485,
        "weight": 0.6417937618831648,
        "size": 641.7937618831648,
        "color_r": 33,
        "color_g": 145,
        "color_b": 140,
        "color_a": 1.0
      },
      "geometry": {
        "type": "Point",
        "coordinates": [
          -75.643868,
          5.54853
        ]
      }
    },
    {
      "type": "Feature",
      "properties": {
        "id": "JARDÍN",
        "label": "JARDÍN",
        "code": "5364",
        "community": 5,
        "pagerank": 0.005536476370404001,
        "weight": 0.5536476370404001,
        "size": 553.6476370404001,
        "color_r": 33,
        "color_g": 145,
        "color_b": 140,
        "color_a": 1.0
      },
      "geometry": {
        "type": "Point",
        "coordinates": [
          -75.818982,
          5.597542
        ]
      }
    }
  ]
}